<?xml version="1.0" encoding="UTF-8"?>
<gpx version="1.1" creator="https://www.komoot.de" xmlns="http://www.topografix.com/GPX/1/1">
<metadata><name>Beispiel: Rund um den Kaiserstuhl</name></metadata>
<trk><name>Beispiel: Rund um den Kaiserstuhl</name><trkseg>
<trkpt lat="48.036607" lon="7.665000"><ele>187.0</ele><time>2026-08-14T07:00:00Z</time></trkpt>
<trkpt lat="48.036618" lon="7.665715"><ele>187.1</ele><time>2026-08-14T07:00:09Z</time></trkpt>
<trkpt lat="48.036654" lon="7.666429"><ele>187.2</ele><time>2026-08-14T07:00:19Z</time></trkpt>
<trkpt lat="48.036713" lon="7.667142"><ele>187.5</ele><time>2026-08-14T07:00:30Z</time></trkpt>
<trkpt lat="48.036795" lon="7.667853"><ele>187.9</ele><time>2026-08-14T07:00:41Z</time></trkpt>
<trkpt lat="48.036899" lon="7.668561"><ele>188.4</ele><time>2026-08-14T07:00:53Z</time></trkpt>
<trkpt lat="48.037026" lon="7.669266"><ele>188.9</ele><time>2026-08-14T07:01:06Z</time></trkpt>
<trkpt lat="48.037175" lon="7.669968"><ele>189.6</ele><time>2026-08-14T07:01:20Z</time></trkpt>
<trkpt lat="48.037345" lon="7.670664"><ele>190.3</ele><time>2026-08-14T07:01:33Z</time></trkpt>
<trkpt lat="48.037535" lon="7.671356"><ele>191.1</ele><time>2026-08-14T07:01:48Z</time></trkpt>
<trkpt lat="48.037744" lon="7.672043"><ele>192.0</ele><time>2026-08-14T07:02:03Z</time></trkpt>
<trkpt lat="48.037972" lon="7.672723"><ele>192.9</ele><time>2026-08-14T07:02:18Z</time></trkpt>
<trkpt lat="48.038218" lon="7.673398"><ele>193.8</ele><time>2026-08-14T07:02:33Z</time></trkpt>
<trkpt lat="48.038479" lon="7.674066"><ele>194.8</ele><time>2026-08-14T07:02:48Z</time></trkpt>
<trkpt lat="48.038756" lon="7.674727"><ele>195.7</ele><time>2026-08-14T07:03:04Z</time></trkpt>
<trkpt lat="48.039047" lon="7.675381"><ele>196.7</ele><time>2026-08-14T07:03:20Z</time></trkpt>
<trkpt lat="48.039351" lon="7.676027"><ele>197.6</ele><time>2026-08-14T07:03:35Z</time></trkpt>
<trkpt lat="48.039666" lon="7.676667"><ele>198.5</ele><time>2026-08-14T07:03:51Z</time></trkpt>
<trkpt lat="48.039991" lon="7.677299"><ele>199.3</ele><time>2026-08-14T07:04:06Z</time></trkpt>
<trkpt lat="48.040325" lon="7.677923"><ele>200.1</ele><time>2026-08-14T07:04:21Z</time></trkpt>
<trkpt lat="48.040666" lon="7.678540"><ele>200.8</ele><time>2026-08-14T07:04:35Z</time></trkpt>
<trkpt lat="48.041013" lon="7.679150"><ele>201.4</ele><time>2026-08-14T07:04:49Z</time></trkpt>
<trkpt lat="48.041365" lon="7.679752"><ele>201.9</ele><time>2026-08-14T07:05:02Z</time></trkpt>
<trkpt lat="48.041720" lon="7.680348"><ele>202.3</ele><time>2026-08-14T07:05:15Z</time></trkpt>
<trkpt lat="48.042077" lon="7.680938"><ele>202.7</ele><time>2026-08-14T07:05:27Z</time></trkpt>
<trkpt lat="48.042434" lon="7.681521"><ele>202.9</ele><time>2026-08-14T07:05:39Z</time></trkpt>
<trkpt lat="48.042791" lon="7.682098"><ele>203.0</ele><time>2026-08-14T07:05:49Z</time></trkpt>
<trkpt lat="48.043145" lon="7.682670"><ele>203.0</ele><time>2026-08-14T07:05:59Z</time></trkpt>
<trkpt lat="48.043496" lon="7.683237"><ele>202.9</ele><time>2026-08-14T07:06:09Z</time></trkpt>
<trkpt lat="48.043843" lon="7.683800"><ele>202.6</ele><time>2026-08-14T07:06:19Z</time></trkpt>
<trkpt lat="48.044184" lon="7.684358"><ele>202.3</ele><time>2026-08-14T07:06:28Z</time></trkpt>
<trkpt lat="48.044518" lon="7.684914"><ele>201.9</ele><time>2026-08-14T07:06:38Z</time></trkpt>
<trkpt lat="48.044845" lon="7.685467"><ele>201.3</ele><time>2026-08-14T07:06:47Z</time></trkpt>
<trkpt lat="48.045163" lon="7.686017"><ele>200.7</ele><time>2026-08-14T07:06:57Z</time></trkpt>
<trkpt lat="48.045472" lon="7.686566"><ele>200.0</ele><time>2026-08-14T07:07:06Z</time></trkpt>
<trkpt lat="48.045771" lon="7.687115"><ele>199.2</ele><time>2026-08-14T07:07:15Z</time></trkpt>
<trkpt lat="48.046060" lon="7.687662"><ele>198.4</ele><time>2026-08-14T07:07:24Z</time></trkpt>
<trkpt lat="48.046337" lon="7.688211"><ele>197.5</ele><time>2026-08-14T07:07:32Z</time></trkpt>
<trkpt lat="48.046603" lon="7.688760"><ele>196.6</ele><time>2026-08-14T07:07:41Z</time></trkpt>
<trkpt lat="48.046857" lon="7.689310"><ele>195.7</ele><time>2026-08-14T07:07:49Z</time></trkpt>
<trkpt lat="48.047099" lon="7.689863"><ele>194.7</ele><time>2026-08-14T07:07:58Z</time></trkpt>
<trkpt lat="48.047329" lon="7.690418"><ele>193.8</ele><time>2026-08-14T07:08:06Z</time></trkpt>
<trkpt lat="48.047547" lon="7.690976"><ele>192.8</ele><time>2026-08-14T07:08:14Z</time></trkpt>
<trkpt lat="48.047752" lon="7.691538"><ele>192.0</ele><time>2026-08-14T07:08:23Z</time></trkpt>
<trkpt lat="48.047946" lon="7.692103"><ele>191.1</ele><time>2026-08-14T07:08:31Z</time></trkpt>
<trkpt lat="48.048128" lon="7.692673"><ele>190.3</ele><time>2026-08-14T07:08:39Z</time></trkpt>
<trkpt lat="48.048298" lon="7.693247"><ele>189.6</ele><time>2026-08-14T07:08:47Z</time></trkpt>
<trkpt lat="48.048458" lon="7.693825"><ele>188.9</ele><time>2026-08-14T07:08:55Z</time></trkpt>
<trkpt lat="48.048607" lon="7.694409"><ele>188.3</ele><time>2026-08-14T07:09:03Z</time></trkpt>
<trkpt lat="48.048747" lon="7.694997"><ele>187.9</ele><time>2026-08-14T07:09:11Z</time></trkpt>
<trkpt lat="48.048878" lon="7.695590"><ele>187.5</ele><time>2026-08-14T07:09:18Z</time></trkpt>
<trkpt lat="48.049000" lon="7.696188"><ele>187.2</ele><time>2026-08-14T07:09:26Z</time></trkpt>
<trkpt lat="48.049116" lon="7.696790"><ele>187.0</ele><time>2026-08-14T07:09:34Z</time></trkpt>
<trkpt lat="48.049225" lon="7.697397"><ele>187.0</ele><time>2026-08-14T07:09:42Z</time></trkpt>
<trkpt lat="48.049328" lon="7.698008"><ele>187.1</ele><time>2026-08-14T07:09:51Z</time></trkpt>
<trkpt lat="48.049428" lon="7.698624"><ele>187.2</ele><time>2026-08-14T07:10:00Z</time></trkpt>
<trkpt lat="48.049524" lon="7.699242"><ele>187.5</ele><time>2026-08-14T07:10:10Z</time></trkpt>
<trkpt lat="48.049617" lon="7.699864"><ele>187.9</ele><time>2026-08-14T07:10:20Z</time></trkpt>
<trkpt lat="48.049710" lon="7.700487"><ele>188.4</ele><time>2026-08-14T07:10:31Z</time></trkpt>
<trkpt lat="48.049803" lon="7.701113"><ele>189.0</ele><time>2026-08-14T07:10:43Z</time></trkpt>
<trkpt lat="48.049897" lon="7.701740"><ele>189.6</ele><time>2026-08-14T07:10:55Z</time></trkpt>
<trkpt lat="48.049993" lon="7.702367"><ele>190.4</ele><time>2026-08-14T07:11:08Z</time></trkpt>
<trkpt lat="48.050093" lon="7.702993"><ele>191.2</ele><time>2026-08-14T07:11:21Z</time></trkpt>
<trkpt lat="48.050198" lon="7.703618"><ele>192.1</ele><time>2026-08-14T07:11:34Z</time></trkpt>
<trkpt lat="48.050308" lon="7.704241"><ele>193.0</ele><time>2026-08-14T07:11:48Z</time></trkpt>
<trkpt lat="48.050425" lon="7.704861"><ele>193.9</ele><time>2026-08-14T07:12:01Z</time></trkpt>
<trkpt lat="48.050550" lon="7.705477"><ele>194.8</ele><time>2026-08-14T07:12:15Z</time></trkpt>
<trkpt lat="48.050685" lon="7.706087"><ele>195.8</ele><time>2026-08-14T07:12:29Z</time></trkpt>
<trkpt lat="48.050829" lon="7.706692"><ele>196.7</ele><time>2026-08-14T07:12:43Z</time></trkpt>
<trkpt lat="48.050984" lon="7.707289"><ele>197.6</ele><time>2026-08-14T07:12:57Z</time></trkpt>
<trkpt lat="48.051150" lon="7.707878"><ele>198.5</ele><time>2026-08-14T07:13:10Z</time></trkpt>
<trkpt lat="48.051329" lon="7.708458"><ele>199.3</ele><time>2026-08-14T07:13:23Z</time></trkpt>
<trkpt lat="48.051522" lon="7.709027"><ele>200.1</ele><time>2026-08-14T07:13:36Z</time></trkpt>
<trkpt lat="48.051728" lon="7.709586"><ele>200.8</ele><time>2026-08-14T07:13:48Z</time></trkpt>
<trkpt lat="48.051948" lon="7.710132"><ele>201.4</ele><time>2026-08-14T07:14:00Z</time></trkpt>
<trkpt lat="48.052184" lon="7.710665"><ele>201.9</ele><time>2026-08-14T07:14:11Z</time></trkpt>
<trkpt lat="48.052434" lon="7.711184"><ele>202.4</ele><time>2026-08-14T07:14:22Z</time></trkpt>
<trkpt lat="48.052700" lon="7.711688"><ele>202.7</ele><time>2026-08-14T07:14:32Z</time></trkpt>
<trkpt lat="48.052982" lon="7.712177"><ele>202.9</ele><time>2026-08-14T07:14:42Z</time></trkpt>
<trkpt lat="48.053280" lon="7.712649"><ele>203.0</ele><time>2026-08-14T07:14:50Z</time></trkpt>
<trkpt lat="48.053594" lon="7.713104"><ele>203.0</ele><time>2026-08-14T07:14:59Z</time></trkpt>
<trkpt lat="48.053923" lon="7.713541"><ele>202.9</ele><time>2026-08-14T07:15:07Z</time></trkpt>
<trkpt lat="48.054269" lon="7.713960"><ele>202.6</ele><time>2026-08-14T07:15:16Z</time></trkpt>
<trkpt lat="48.054629" lon="7.714361"><ele>202.3</ele><time>2026-08-14T07:15:24Z</time></trkpt>
<trkpt lat="48.055005" lon="7.714742"><ele>201.8</ele><time>2026-08-14T07:15:33Z</time></trkpt>
<trkpt lat="48.055396" lon="7.715105"><ele>201.3</ele><time>2026-08-14T07:15:42Z</time></trkpt>
<trkpt lat="48.055801" lon="7.715448"><ele>200.7</ele><time>2026-08-14T07:15:50Z</time></trkpt>
<trkpt lat="48.056219" lon="7.715772"><ele>200.0</ele><time>2026-08-14T07:15:59Z</time></trkpt>
<trkpt lat="48.056650" lon="7.716076"><ele>199.2</ele><time>2026-08-14T07:16:09Z</time></trkpt>
<trkpt lat="48.057094" lon="7.716361"><ele>198.4</ele><time>2026-08-14T07:16:18Z</time></trkpt>
<trkpt lat="48.057549" lon="7.716628"><ele>197.5</ele><time>2026-08-14T07:16:27Z</time></trkpt>
<trkpt lat="48.058014" lon="7.716875"><ele>196.6</ele><time>2026-08-14T07:16:36Z</time></trkpt>
<trkpt lat="48.058490" lon="7.717105"><ele>195.6</ele><time>2026-08-14T07:16:46Z</time></trkpt>
<trkpt lat="48.058974" lon="7.717317"><ele>194.7</ele><time>2026-08-14T07:16:56Z</time></trkpt>
<trkpt lat="48.059466" lon="7.717513"><ele>193.7</ele><time>2026-08-14T07:17:05Z</time></trkpt>
<trkpt lat="48.059964" lon="7.717692"><ele>192.8</ele><time>2026-08-14T07:17:15Z</time></trkpt>
<trkpt lat="48.060468" lon="7.717856"><ele>191.9</ele><time>2026-08-14T07:17:25Z</time></trkpt>
<trkpt lat="48.060977" lon="7.718006"><ele>191.0</ele><time>2026-08-14T07:17:35Z</time></trkpt>
<trkpt lat="48.061488" lon="7.718143"><ele>190.3</ele><time>2026-08-14T07:17:45Z</time></trkpt>
<trkpt lat="48.062003" lon="7.718268"><ele>189.5</ele><time>2026-08-14T07:17:55Z</time></trkpt>
<trkpt lat="48.062518" lon="7.718382"><ele>188.9</ele><time>2026-08-14T07:18:05Z</time></trkpt>
<trkpt lat="48.063034" lon="7.718486"><ele>188.3</ele><time>2026-08-14T07:18:14Z</time></trkpt>
<trkpt lat="48.063548" lon="7.718582"><ele>187.8</ele><time>2026-08-14T07:18:24Z</time></trkpt>
<trkpt lat="48.064060" lon="7.718671"><ele>187.5</ele><time>2026-08-14T07:18:34Z</time></trkpt>
<trkpt lat="48.064570" lon="7.718755"><ele>187.2</ele><time>2026-08-14T07:18:44Z</time></trkpt>
<trkpt lat="48.065075" lon="7.718835"><ele>187.0</ele><time>2026-08-14T07:18:54Z</time></trkpt>
<trkpt lat="48.065574" lon="7.718912"><ele>187.0</ele><time>2026-08-14T07:19:03Z</time></trkpt>
<trkpt lat="48.066068" lon="7.718988"><ele>187.1</ele><time>2026-08-14T07:19:13Z</time></trkpt>
<trkpt lat="48.066554" lon="7.719065"><ele>187.3</ele><time>2026-08-14T07:19:23Z</time></trkpt>
<trkpt lat="48.067033" lon="7.719144"><ele>187.5</ele><time>2026-08-14T07:19:34Z</time></trkpt>
<trkpt lat="48.067502" lon="7.719227"><ele>187.9</ele><time>2026-08-14T07:19:46Z</time></trkpt>
<trkpt lat="48.067963" lon="7.719315"><ele>188.4</ele><time>2026-08-14T07:19:58Z</time></trkpt>
<trkpt lat="48.068413" lon="7.719409"><ele>189.0</ele><time>2026-08-14T07:20:10Z</time></trkpt>
<trkpt lat="48.068853" lon="7.719511"><ele>189.7</ele><time>2026-08-14T07:20:22Z</time></trkpt>
<trkpt lat="48.069281" lon="7.719622"><ele>190.4</ele><time>2026-08-14T07:20:35Z</time></trkpt>
<trkpt lat="48.069698" lon="7.719745"><ele>191.2</ele><time>2026-08-14T07:20:48Z</time></trkpt>
<trkpt lat="48.070102" lon="7.719879"><ele>192.1</ele><time>2026-08-14T07:21:01Z</time></trkpt>
<trkpt lat="48.070494" lon="7.720026"><ele>193.0</ele><time>2026-08-14T07:21:14Z</time></trkpt>
<trkpt lat="48.070874" lon="7.720188"><ele>193.9</ele><time>2026-08-14T07:21:27Z</time></trkpt>
<trkpt lat="48.071241" lon="7.720364"><ele>194.9</ele><time>2026-08-14T07:21:40Z</time></trkpt>
<trkpt lat="48.071596" lon="7.720557"><ele>195.8</ele><time>2026-08-14T07:21:53Z</time></trkpt>
<trkpt lat="48.071937" lon="7.720767"><ele>196.8</ele><time>2026-08-14T07:22:06Z</time></trkpt>
<trkpt lat="48.072266" lon="7.720994"><ele>197.7</ele><time>2026-08-14T07:22:18Z</time></trkpt>
<trkpt lat="48.072583" lon="7.721240"><ele>198.6</ele><time>2026-08-14T07:22:30Z</time></trkpt>
<trkpt lat="48.072888" lon="7.721504"><ele>199.4</ele><time>2026-08-14T07:22:42Z</time></trkpt>
<trkpt lat="48.073180" lon="7.721788"><ele>200.1</ele><time>2026-08-14T07:22:53Z</time></trkpt>
<trkpt lat="48.073462" lon="7.722091"><ele>200.8</ele><time>2026-08-14T07:23:04Z</time></trkpt>
<trkpt lat="48.073732" lon="7.722413"><ele>201.4</ele><time>2026-08-14T07:23:14Z</time></trkpt>
<trkpt lat="48.073992" lon="7.722754"><ele>202.0</ele><time>2026-08-14T07:23:24Z</time></trkpt>
<trkpt lat="48.074242" lon="7.723115"><ele>202.4</ele><time>2026-08-14T07:23:33Z</time></trkpt>
<trkpt lat="48.074482" lon="7.723495"><ele>202.7</ele><time>2026-08-14T07:23:41Z</time></trkpt>
<trkpt lat="48.074714" lon="7.723893"><ele>202.9</ele><time>2026-08-14T07:23:49Z</time></trkpt>
<trkpt lat="48.074939" lon="7.724309"><ele>203.0</ele><time>2026-08-14T07:23:57Z</time></trkpt>
<trkpt lat="48.075156" lon="7.724742"><ele>203.0</ele><time>2026-08-14T07:24:04Z</time></trkpt>
<trkpt lat="48.075366" lon="7.725192"><ele>202.8</ele><time>2026-08-14T07:24:11Z</time></trkpt>
<trkpt lat="48.075572" lon="7.725657"><ele>202.6</ele><time>2026-08-14T07:24:18Z</time></trkpt>
<trkpt lat="48.075772" lon="7.726137"><ele>202.3</ele><time>2026-08-14T07:24:25Z</time></trkpt>
<trkpt lat="48.075969" lon="7.726630"><ele>201.8</ele><time>2026-08-14T07:24:32Z</time></trkpt>
<trkpt lat="48.076162" lon="7.727135"><ele>201.3</ele><time>2026-08-14T07:24:40Z</time></trkpt>
<trkpt lat="48.076354" lon="7.727651"><ele>200.6</ele><time>2026-08-14T07:24:47Z</time></trkpt>
<trkpt lat="48.076544" lon="7.728177"><ele>199.9</ele><time>2026-08-14T07:24:55Z</time></trkpt>
<trkpt lat="48.076734" lon="7.728711"><ele>199.1</ele><time>2026-08-14T07:25:03Z</time></trkpt>
<trkpt lat="48.076924" lon="7.729251"><ele>198.3</ele><time>2026-08-14T07:25:10Z</time></trkpt>
<trkpt lat="48.077115" lon="7.729796"><ele>197.4</ele><time>2026-08-14T07:25:18Z</time></trkpt>
<trkpt lat="48.077308" lon="7.730344"><ele>196.5</ele><time>2026-08-14T07:25:26Z</time></trkpt>
<trkpt lat="48.077504" lon="7.730894"><ele>195.6</ele><time>2026-08-14T07:25:34Z</time></trkpt>
<trkpt lat="48.077704" lon="7.731444"><ele>194.6</ele><time>2026-08-14T07:25:42Z</time></trkpt>
<trkpt lat="48.077907" lon="7.731992"><ele>193.7</ele><time>2026-08-14T07:25:50Z</time></trkpt>
<trkpt lat="48.078116" lon="7.732537"><ele>192.7</ele><time>2026-08-14T07:25:58Z</time></trkpt>
<trkpt lat="48.078329" lon="7.733077"><ele>191.8</ele><time>2026-08-14T07:26:06Z</time></trkpt>
<trkpt lat="48.078549" lon="7.733609"><ele>191.0</ele><time>2026-08-14T07:26:14Z</time></trkpt>
<trkpt lat="48.078775" lon="7.734133"><ele>190.2</ele><time>2026-08-14T07:26:22Z</time></trkpt>
<trkpt lat="48.079007" lon="7.734647"><ele>189.5</ele><time>2026-08-14T07:26:30Z</time></trkpt>
<trkpt lat="48.079247" lon="7.735150"><ele>188.8</ele><time>2026-08-14T07:26:38Z</time></trkpt>
<trkpt lat="48.079495" lon="7.735639"><ele>188.3</ele><time>2026-08-14T07:26:45Z</time></trkpt>
<trkpt lat="48.079751" lon="7.736114"><ele>187.8</ele><time>2026-08-14T07:26:53Z</time></trkpt>
<trkpt lat="48.080014" lon="7.736572"><ele>187.4</ele><time>2026-08-14T07:27:01Z</time></trkpt>
<trkpt lat="48.080286" lon="7.737014"><ele>187.2</ele><time>2026-08-14T07:27:09Z</time></trkpt>
<trkpt lat="48.080566" lon="7.737438"><ele>187.0</ele><time>2026-08-14T07:27:16Z</time></trkpt>
<trkpt lat="48.080854" lon="7.737842"><ele>187.0</ele><time>2026-08-14T07:27:24Z</time></trkpt>
<trkpt lat="48.081151" lon="7.738226"><ele>187.1</ele><time>2026-08-14T07:27:32Z</time></trkpt>
<trkpt lat="48.081456" lon="7.738589"><ele>187.3</ele><time>2026-08-14T07:27:40Z</time></trkpt>
<trkpt lat="48.081769" lon="7.738931"><ele>187.6</ele><time>2026-08-14T07:27:49Z</time></trkpt>
<trkpt lat="48.082090" lon="7.739250"><ele>188.0</ele><time>2026-08-14T07:27:59Z</time></trkpt>
<trkpt lat="48.082419" lon="7.739547"><ele>188.5</ele><time>2026-08-14T07:28:09Z</time></trkpt>
<trkpt lat="48.082755" lon="7.739821"><ele>189.1</ele><time>2026-08-14T07:28:20Z</time></trkpt>
<trkpt lat="48.083098" lon="7.740072"><ele>189.7</ele><time>2026-08-14T07:28:32Z</time></trkpt>
<trkpt lat="48.083449" lon="7.740300"><ele>190.5</ele><time>2026-08-14T07:28:43Z</time></trkpt>
<trkpt lat="48.083805" lon="7.740506"><ele>191.3</ele><time>2026-08-14T07:28:56Z</time></trkpt>
<trkpt lat="48.084168" lon="7.740689"><ele>192.2</ele><time>2026-08-14T07:29:08Z</time></trkpt>
<trkpt lat="48.084536" lon="7.740850"><ele>193.1</ele><time>2026-08-14T07:29:21Z</time></trkpt>
<trkpt lat="48.084909" lon="7.740991"><ele>194.0</ele><time>2026-08-14T07:29:34Z</time></trkpt>
<trkpt lat="48.085287" lon="7.741110"><ele>194.9</ele><time>2026-08-14T07:29:47Z</time></trkpt>
<trkpt lat="48.085668" lon="7.741210"><ele>195.9</ele><time>2026-08-14T07:30:00Z</time></trkpt>
<trkpt lat="48.086054" lon="7.741291"><ele>196.8</ele><time>2026-08-14T07:30:13Z</time></trkpt>
<trkpt lat="48.086442" lon="7.741355"><ele>197.7</ele><time>2026-08-14T07:30:26Z</time></trkpt>
<trkpt lat="48.086833" lon="7.741403"><ele>198.6</ele><time>2026-08-14T07:30:38Z</time></trkpt>
<trkpt lat="48.087226" lon="7.741435"><ele>199.4</ele><time>2026-08-14T07:30:51Z</time></trkpt>
<trkpt lat="48.087620" lon="7.741454"><ele>200.2</ele><time>2026-08-14T07:31:03Z</time></trkpt>
<trkpt lat="48.088015" lon="7.741462"><ele>200.9</ele><time>2026-08-14T07:31:15Z</time></trkpt>
<trkpt lat="48.088411" lon="7.741459"><ele>201.5</ele><time>2026-08-14T07:31:26Z</time></trkpt>
<trkpt lat="48.088806" lon="7.741447"><ele>202.0</ele><time>2026-08-14T07:31:36Z</time></trkpt>
<trkpt lat="48.089202" lon="7.741429"><ele>202.4</ele><time>2026-08-14T07:31:46Z</time></trkpt>
<trkpt lat="48.089596" lon="7.741405"><ele>203.1</ele><time>2026-08-14T07:31:58Z</time></trkpt>
<trkpt lat="48.089989" lon="7.741378"><ele>204.1</ele><time>2026-08-14T07:32:12Z</time></trkpt>
<trkpt lat="48.090380" lon="7.741351"><ele>205.2</ele><time>2026-08-14T07:32:26Z</time></trkpt>
<trkpt lat="48.090770" lon="7.741323"><ele>206.4</ele><time>2026-08-14T07:32:40Z</time></trkpt>
<trkpt lat="48.091157" lon="7.741298"><ele>207.6</ele><time>2026-08-14T07:32:55Z</time></trkpt>
<trkpt lat="48.091542" lon="7.741278"><ele>208.8</ele><time>2026-08-14T07:33:10Z</time></trkpt>
<trkpt lat="48.091924" lon="7.741263"><ele>210.1</ele><time>2026-08-14T07:33:25Z</time></trkpt>
<trkpt lat="48.092304" lon="7.741257"><ele>211.4</ele><time>2026-08-14T07:33:40Z</time></trkpt>
<trkpt lat="48.092680" lon="7.741260"><ele>212.7</ele><time>2026-08-14T07:33:55Z</time></trkpt>
<trkpt lat="48.093053" lon="7.741275"><ele>214.0</ele><time>2026-08-14T07:34:10Z</time></trkpt>
<trkpt lat="48.093424" lon="7.741303"><ele>215.4</ele><time>2026-08-14T07:34:25Z</time></trkpt>
<trkpt lat="48.093791" lon="7.741346"><ele>216.7</ele><time>2026-08-14T07:34:40Z</time></trkpt>
<trkpt lat="48.094155" lon="7.741405"><ele>218.1</ele><time>2026-08-14T07:34:55Z</time></trkpt>
<trkpt lat="48.094516" lon="7.741482"><ele>219.6</ele><time>2026-08-14T07:35:11Z</time></trkpt>
<trkpt lat="48.094875" lon="7.741577"><ele>221.0</ele><time>2026-08-14T07:35:27Z</time></trkpt>
<trkpt lat="48.095231" lon="7.741692"><ele>222.5</ele><time>2026-08-14T07:35:43Z</time></trkpt>
<trkpt lat="48.095584" lon="7.741828"><ele>224.1</ele><time>2026-08-14T07:35:59Z</time></trkpt>
<trkpt lat="48.095935" lon="7.741986"><ele>225.8</ele><time>2026-08-14T07:36:16Z</time></trkpt>
<trkpt lat="48.096284" lon="7.742167"><ele>227.5</ele><time>2026-08-14T07:36:33Z</time></trkpt>
<trkpt lat="48.096632" lon="7.742371"><ele>229.3</ele><time>2026-08-14T07:36:51Z</time></trkpt>
<trkpt lat="48.096978" lon="7.742598"><ele>231.3</ele><time>2026-08-14T07:37:10Z</time></trkpt>
<trkpt lat="48.097323" lon="7.742849"><ele>233.3</ele><time>2026-08-14T07:37:30Z</time></trkpt>
<trkpt lat="48.097668" lon="7.743125"><ele>235.5</ele><time>2026-08-14T07:37:50Z</time></trkpt>
<trkpt lat="48.098013" lon="7.743424"><ele>237.8</ele><time>2026-08-14T07:38:11Z</time></trkpt>
<trkpt lat="48.098357" lon="7.743747"><ele>240.2</ele><time>2026-08-14T07:38:34Z</time></trkpt>
<trkpt lat="48.098702" lon="7.744093"><ele>242.7</ele><time>2026-08-14T07:38:57Z</time></trkpt>
<trkpt lat="48.099048" lon="7.744463"><ele>245.4</ele><time>2026-08-14T07:39:21Z</time></trkpt>
<trkpt lat="48.099395" lon="7.744855"><ele>248.2</ele><time>2026-08-14T07:39:47Z</time></trkpt>
<trkpt lat="48.099744" lon="7.745268"><ele>251.2</ele><time>2026-08-14T07:40:13Z</time></trkpt>
<trkpt lat="48.100096" lon="7.745702"><ele>254.4</ele><time>2026-08-14T07:40:40Z</time></trkpt>
<trkpt lat="48.100449" lon="7.746155"><ele>257.6</ele><time>2026-08-14T07:41:09Z</time></trkpt>
<trkpt lat="48.100806" lon="7.746626"><ele>261.0</ele><time>2026-08-14T07:41:38Z</time></trkpt>
<trkpt lat="48.101166" lon="7.747114"><ele>264.6</ele><time>2026-08-14T07:42:09Z</time></trkpt>
<trkpt lat="48.101529" lon="7.747618"><ele>268.2</ele><time>2026-08-14T07:42:40Z</time></trkpt>
<trkpt lat="48.101896" lon="7.748135"><ele>272.0</ele><time>2026-08-14T07:43:13Z</time></trkpt>
<trkpt lat="48.102268" lon="7.748663"><ele>275.9</ele><time>2026-08-14T07:43:46Z</time></trkpt>
<trkpt lat="48.102643" lon="7.749203"><ele>279.9</ele><time>2026-08-14T07:44:20Z</time></trkpt>
<trkpt lat="48.103024" lon="7.749750"><ele>284.0</ele><time>2026-08-14T07:44:54Z</time></trkpt>
<trkpt lat="48.103409" lon="7.750303"><ele>288.2</ele><time>2026-08-14T07:45:29Z</time></trkpt>
<trkpt lat="48.103799" lon="7.750861"><ele>292.4</ele><time>2026-08-14T07:46:05Z</time></trkpt>
<trkpt lat="48.104194" lon="7.751421"><ele>296.7</ele><time>2026-08-14T07:46:41Z</time></trkpt>
<trkpt lat="48.104594" lon="7.751981"><ele>301.0</ele><time>2026-08-14T07:47:17Z</time></trkpt>
<trkpt lat="48.105000" lon="7.752539"><ele>305.3</ele><time>2026-08-14T07:47:54Z</time></trkpt>
<trkpt lat="48.105411" lon="7.753093"><ele>309.6</ele><time>2026-08-14T07:48:30Z</time></trkpt>
<trkpt lat="48.105827" lon="7.753640"><ele>314.0</ele><time>2026-08-14T07:49:07Z</time></trkpt>
<trkpt lat="48.106247" lon="7.754179"><ele>318.2</ele><time>2026-08-14T07:49:43Z</time></trkpt>
<trkpt lat="48.106673" lon="7.754707"><ele>322.5</ele><time>2026-08-14T07:50:19Z</time></trkpt>
<trkpt lat="48.107104" lon="7.755222"><ele>326.7</ele><time>2026-08-14T07:50:55Z</time></trkpt>
<trkpt lat="48.107539" lon="7.755722"><ele>330.8</ele><time>2026-08-14T07:51:30Z</time></trkpt>
<trkpt lat="48.107979" lon="7.756206"><ele>334.8</ele><time>2026-08-14T07:52:04Z</time></trkpt>
<trkpt lat="48.108422" lon="7.756671"><ele>338.7</ele><time>2026-08-14T07:52:38Z</time></trkpt>
<trkpt lat="48.108870" lon="7.757115"><ele>342.6</ele><time>2026-08-14T07:53:11Z</time></trkpt>
<trkpt lat="48.109321" lon="7.757538"><ele>346.3</ele><time>2026-08-14T07:53:44Z</time></trkpt>
<trkpt lat="48.109775" lon="7.757936"><ele>349.9</ele><time>2026-08-14T07:54:16Z</time></trkpt>
<trkpt lat="48.110232" lon="7.758310"><ele>353.4</ele><time>2026-08-14T07:54:46Z</time></trkpt>
<trkpt lat="48.110692" lon="7.758656"><ele>356.7</ele><time>2026-08-14T07:55:16Z</time></trkpt>
<trkpt lat="48.111153" lon="7.758975"><ele>359.9</ele><time>2026-08-14T07:55:45Z</time></trkpt>
<trkpt lat="48.111616" lon="7.759265"><ele>363.0</ele><time>2026-08-14T07:56:13Z</time></trkpt>
<trkpt lat="48.112080" lon="7.759524"><ele>365.9</ele><time>2026-08-14T07:56:40Z</time></trkpt>
<trkpt lat="48.112545" lon="7.759753"><ele>368.7</ele><time>2026-08-14T07:57:06Z</time></trkpt>
<trkpt lat="48.113010" lon="7.759951"><ele>371.4</ele><time>2026-08-14T07:57:31Z</time></trkpt>
<trkpt lat="48.113475" lon="7.760117"><ele>373.9</ele><time>2026-08-14T07:57:56Z</time></trkpt>
<trkpt lat="48.113939" lon="7.760250"><ele>376.3</ele><time>2026-08-14T07:58:19Z</time></trkpt>
<trkpt lat="48.114402" lon="7.760351"><ele>378.6</ele><time>2026-08-14T07:58:42Z</time></trkpt>
<trkpt lat="48.114864" lon="7.760420"><ele>380.8</ele><time>2026-08-14T07:59:04Z</time></trkpt>
<trkpt lat="48.115324" lon="7.760456"><ele>383.0</ele><time>2026-08-14T07:59:26Z</time></trkpt>
<trkpt lat="48.115782" lon="7.760460"><ele>385.0</ele><time>2026-08-14T07:59:46Z</time></trkpt>
<trkpt lat="48.116237" lon="7.760432"><ele>386.9</ele><time>2026-08-14T08:00:07Z</time></trkpt>
<trkpt lat="48.116689" lon="7.760374"><ele>388.8</ele><time>2026-08-14T08:00:27Z</time></trkpt>
<trkpt lat="48.117138" lon="7.760285"><ele>390.7</ele><time>2026-08-14T08:00:47Z</time></trkpt>
<trkpt lat="48.117583" lon="7.760167"><ele>392.5</ele><time>2026-08-14T08:01:06Z</time></trkpt>
<trkpt lat="48.118025" lon="7.760021"><ele>394.3</ele><time>2026-08-14T08:01:25Z</time></trkpt>
<trkpt lat="48.118463" lon="7.759848"><ele>396.0</ele><time>2026-08-14T08:01:45Z</time></trkpt>
<trkpt lat="48.118896" lon="7.759648"><ele>397.8</ele><time>2026-08-14T08:02:04Z</time></trkpt>
<trkpt lat="48.119325" lon="7.759424"><ele>399.6</ele><time>2026-08-14T08:02:23Z</time></trkpt>
<trkpt lat="48.119750" lon="7.759177"><ele>401.4</ele><time>2026-08-14T08:02:43Z</time></trkpt>
<trkpt lat="48.120171" lon="7.758909"><ele>403.2</ele><time>2026-08-14T08:03:02Z</time></trkpt>
<trkpt lat="48.120587" lon="7.758621"><ele>405.1</ele><time>2026-08-14T08:03:22Z</time></trkpt>
<trkpt lat="48.120999" lon="7.758315"><ele>407.0</ele><time>2026-08-14T08:03:42Z</time></trkpt>
<trkpt lat="48.121407" lon="7.757992"><ele>408.9</ele><time>2026-08-14T08:04:03Z</time></trkpt>
<trkpt lat="48.121810" lon="7.757655"><ele>410.9</ele><time>2026-08-14T08:04:24Z</time></trkpt>
<trkpt lat="48.122210" lon="7.757306"><ele>412.9</ele><time>2026-08-14T08:04:45Z</time></trkpt>
<trkpt lat="48.122606" lon="7.756946"><ele>415.0</ele><time>2026-08-14T08:05:06Z</time></trkpt>
<trkpt lat="48.122998" lon="7.756577"><ele>417.2</ele><time>2026-08-14T08:05:28Z</time></trkpt>
<trkpt lat="48.123387" lon="7.756201"><ele>419.4</ele><time>2026-08-14T08:05:50Z</time></trkpt>
<trkpt lat="48.123773" lon="7.755820"><ele>421.6</ele><time>2026-08-14T08:06:12Z</time></trkpt>
<trkpt lat="48.124157" lon="7.755436"><ele>423.9</ele><time>2026-08-14T08:06:34Z</time></trkpt>
<trkpt lat="48.124538" lon="7.755051"><ele>426.2</ele><time>2026-08-14T08:06:57Z</time></trkpt>
<trkpt lat="48.124918" lon="7.754666"><ele>428.6</ele><time>2026-08-14T08:07:20Z</time></trkpt>
<trkpt lat="48.125297" lon="7.754284"><ele>430.9</ele><time>2026-08-14T08:07:43Z</time></trkpt>
<trkpt lat="48.125674" lon="7.753905"><ele>433.3</ele><time>2026-08-14T08:08:06Z</time></trkpt>
<trkpt lat="48.126051" lon="7.753531"><ele>435.6</ele><time>2026-08-14T08:08:29Z</time></trkpt>
<trkpt lat="48.126428" lon="7.753165"><ele>438.0</ele><time>2026-08-14T08:08:51Z</time></trkpt>
<trkpt lat="48.126806" lon="7.752807"><ele>440.3</ele><time>2026-08-14T08:09:14Z</time></trkpt>
<trkpt lat="48.127185" lon="7.752458"><ele>442.6</ele><time>2026-08-14T08:09:36Z</time></trkpt>
<trkpt lat="48.127565" lon="7.752120"><ele>444.8</ele><time>2026-08-14T08:09:57Z</time></trkpt>
<trkpt lat="48.127947" lon="7.751793"><ele>446.9</ele><time>2026-08-14T08:10:19Z</time></trkpt>
<trkpt lat="48.128332" lon="7.751479"><ele>449.0</ele><time>2026-08-14T08:10:39Z</time></trkpt>
<trkpt lat="48.128719" lon="7.751179"><ele>450.9</ele><time>2026-08-14T08:10:59Z</time></trkpt>
<trkpt lat="48.129110" lon="7.750893"><ele>452.8</ele><time>2026-08-14T08:11:19Z</time></trkpt>
<trkpt lat="48.129505" lon="7.750621"><ele>454.5</ele><time>2026-08-14T08:11:37Z</time></trkpt>
<trkpt lat="48.129904" lon="7.750363"><ele>456.1</ele><time>2026-08-14T08:11:55Z</time></trkpt>
<trkpt lat="48.130307" lon="7.750121"><ele>457.5</ele><time>2026-08-14T08:12:12Z</time></trkpt>
<trkpt lat="48.130716" lon="7.749894"><ele>458.8</ele><time>2026-08-14T08:12:28Z</time></trkpt>
<trkpt lat="48.131129" lon="7.749682"><ele>459.9</ele><time>2026-08-14T08:12:43Z</time></trkpt>
<trkpt lat="48.131548" lon="7.749485"><ele>460.8</ele><time>2026-08-14T08:12:57Z</time></trkpt>
<trkpt lat="48.131972" lon="7.749302"><ele>461.6</ele><time>2026-08-14T08:13:10Z</time></trkpt>
<trkpt lat="48.132402" lon="7.749133"><ele>462.1</ele><time>2026-08-14T08:13:22Z</time></trkpt>
<trkpt lat="48.132837" lon="7.748978"><ele>462.5</ele><time>2026-08-14T08:13:32Z</time></trkpt>
<trkpt lat="48.133279" lon="7.748835"><ele>462.7</ele><time>2026-08-14T08:13:42Z</time></trkpt>
<trkpt lat="48.133726" lon="7.748703"><ele>462.7</ele><time>2026-08-14T08:13:51Z</time></trkpt>
<trkpt lat="48.134179" lon="7.748583"><ele>462.5</ele><time>2026-08-14T08:14:00Z</time></trkpt>
<trkpt lat="48.134637" lon="7.748471"><ele>462.2</ele><time>2026-08-14T08:14:09Z</time></trkpt>
<trkpt lat="48.135101" lon="7.748369"><ele>461.6</ele><time>2026-08-14T08:14:17Z</time></trkpt>
<trkpt lat="48.135570" lon="7.748273"><ele>460.9</ele><time>2026-08-14T08:14:26Z</time></trkpt>
<trkpt lat="48.136044" lon="7.748183"><ele>460.1</ele><time>2026-08-14T08:14:36Z</time></trkpt>
<trkpt lat="48.136522" lon="7.748097"><ele>459.0</ele><time>2026-08-14T08:14:45Z</time></trkpt>
<trkpt lat="48.137005" lon="7.748013"><ele>457.9</ele><time>2026-08-14T08:14:54Z</time></trkpt>
<trkpt lat="48.137490" lon="7.747931"><ele>456.6</ele><time>2026-08-14T08:15:03Z</time></trkpt>
<trkpt lat="48.137979" lon="7.747848"><ele>455.1</ele><time>2026-08-14T08:15:13Z</time></trkpt>
<trkpt lat="48.138471" lon="7.747763"><ele>453.6</ele><time>2026-08-14T08:15:22Z</time></trkpt>
<trkpt lat="48.138964" lon="7.747675"><ele>452.0</ele><time>2026-08-14T08:15:32Z</time></trkpt>
<trkpt lat="48.139458" lon="7.747581"><ele>450.3</ele><time>2026-08-14T08:15:41Z</time></trkpt>
<trkpt lat="48.139953" lon="7.747479"><ele>448.5</ele><time>2026-08-14T08:15:51Z</time></trkpt>
<trkpt lat="48.140447" lon="7.747369"><ele>446.7</ele><time>2026-08-14T08:16:00Z</time></trkpt>
<trkpt lat="48.140941" lon="7.747249"><ele>444.8</ele><time>2026-08-14T08:16:10Z</time></trkpt>
<trkpt lat="48.141432" lon="7.747116"><ele>443.0</ele><time>2026-08-14T08:16:19Z</time></trkpt>
<trkpt lat="48.141920" lon="7.746970"><ele>441.1</ele><time>2026-08-14T08:16:29Z</time></trkpt>
<trkpt lat="48.142405" lon="7.746808"><ele>439.2</ele><time>2026-08-14T08:16:38Z</time></trkpt>
<trkpt lat="48.142886" lon="7.746630"><ele>437.3</ele><time>2026-08-14T08:16:48Z</time></trkpt>
<trkpt lat="48.143361" lon="7.746435"><ele>435.4</ele><time>2026-08-14T08:16:57Z</time></trkpt>
<trkpt lat="48.143829" lon="7.746220"><ele>433.5</ele><time>2026-08-14T08:17:06Z</time></trkpt>
<trkpt lat="48.144291" lon="7.745985"><ele>431.7</ele><time>2026-08-14T08:17:16Z</time></trkpt>
<trkpt lat="48.144744" lon="7.745728"><ele>430.0</ele><time>2026-08-14T08:17:25Z</time></trkpt>
<trkpt lat="48.145189" lon="7.745449"><ele>428.2</ele><time>2026-08-14T08:17:34Z</time></trkpt>
<trkpt lat="48.145623" lon="7.745147"><ele>426.5</ele><time>2026-08-14T08:17:43Z</time></trkpt>
<trkpt lat="48.146048" lon="7.744820"><ele>424.9</ele><time>2026-08-14T08:17:52Z</time></trkpt>
<trkpt lat="48.146460" lon="7.744469"><ele>423.3</ele><time>2026-08-14T08:18:01Z</time></trkpt>
<trkpt lat="48.146861" lon="7.744093"><ele>421.7</ele><time>2026-08-14T08:18:10Z</time></trkpt>
<trkpt lat="48.147249" lon="7.743691"><ele>420.2</ele><time>2026-08-14T08:18:19Z</time></trkpt>
<trkpt lat="48.147624" lon="7.743263"><ele>418.7</ele><time>2026-08-14T08:18:28Z</time></trkpt>
<trkpt lat="48.147984" lon="7.742810"><ele>417.3</ele><time>2026-08-14T08:18:37Z</time></trkpt>
<trkpt lat="48.148330" lon="7.742330"><ele>415.9</ele><time>2026-08-14T08:18:46Z</time></trkpt>
<trkpt lat="48.148660" lon="7.741824"><ele>414.5</ele><time>2026-08-14T08:18:55Z</time></trkpt>
<trkpt lat="48.148976" lon="7.741293"><ele>413.1</ele><time>2026-08-14T08:19:04Z</time></trkpt>
<trkpt lat="48.149275" lon="7.740737"><ele>411.6</ele><time>2026-08-14T08:19:13Z</time></trkpt>
<trkpt lat="48.149558" lon="7.740156"><ele>410.2</ele><time>2026-08-14T08:19:23Z</time></trkpt>
<trkpt lat="48.149825" lon="7.739552"><ele>408.7</ele><time>2026-08-14T08:19:32Z</time></trkpt>
<trkpt lat="48.150075" lon="7.738923"><ele>407.2</ele><time>2026-08-14T08:19:41Z</time></trkpt>
<trkpt lat="48.150309" lon="7.738273"><ele>405.7</ele><time>2026-08-14T08:19:51Z</time></trkpt>
<trkpt lat="48.150526" lon="7.737601"><ele>404.0</ele><time>2026-08-14T08:20:00Z</time></trkpt>
<trkpt lat="48.150727" lon="7.736908"><ele>402.3</ele><time>2026-08-14T08:20:10Z</time></trkpt>
<trkpt lat="48.150911" lon="7.736196"><ele>400.5</ele><time>2026-08-14T08:20:19Z</time></trkpt>
<trkpt lat="48.151080" lon="7.735466"><ele>398.7</ele><time>2026-08-14T08:20:29Z</time></trkpt>
<trkpt lat="48.151233" lon="7.734720"><ele>396.7</ele><time>2026-08-14T08:20:39Z</time></trkpt>
<trkpt lat="48.151370" lon="7.733958"><ele>394.5</ele><time>2026-08-14T08:20:49Z</time></trkpt>
<trkpt lat="48.151493" lon="7.733181"><ele>392.3</ele><time>2026-08-14T08:20:59Z</time></trkpt>
<trkpt lat="48.151602" lon="7.732393"><ele>389.9</ele><time>2026-08-14T08:21:10Z</time></trkpt>
<trkpt lat="48.151697" lon="7.731593"><ele>387.4</ele><time>2026-08-14T08:21:20Z</time></trkpt>
<trkpt lat="48.151779" lon="7.730784"><ele>384.7</ele><time>2026-08-14T08:21:30Z</time></trkpt>
<trkpt lat="48.151849" lon="7.729967"><ele>381.9</ele><time>2026-08-14T08:21:41Z</time></trkpt>
<trkpt lat="48.151908" lon="7.729144"><ele>378.9</ele><time>2026-08-14T08:21:51Z</time></trkpt>
<trkpt lat="48.151957" lon="7.728316"><ele>375.8</ele><time>2026-08-14T08:22:02Z</time></trkpt>
<trkpt lat="48.151996" lon="7.727484"><ele>372.6</ele><time>2026-08-14T08:22:13Z</time></trkpt>
<trkpt lat="48.152027" lon="7.726651"><ele>369.2</ele><time>2026-08-14T08:22:23Z</time></trkpt>
<trkpt lat="48.152050" lon="7.725818"><ele>365.7</ele><time>2026-08-14T08:22:34Z</time></trkpt>
<trkpt lat="48.152066" lon="7.724986"><ele>362.0</ele><time>2026-08-14T08:22:44Z</time></trkpt>
<trkpt lat="48.152078" lon="7.724157"><ele>358.2</ele><time>2026-08-14T08:22:55Z</time></trkpt>
<trkpt lat="48.152085" lon="7.723332"><ele>354.4</ele><time>2026-08-14T08:23:05Z</time></trkpt>
<trkpt lat="48.152089" lon="7.722512"><ele>350.4</ele><time>2026-08-14T08:23:16Z</time></trkpt>
<trkpt lat="48.152090" lon="7.721699"><ele>346.3</ele><time>2026-08-14T08:23:26Z</time></trkpt>
<trkpt lat="48.152091" lon="7.720893"><ele>342.2</ele><time>2026-08-14T08:23:36Z</time></trkpt>
<trkpt lat="48.152092" lon="7.720097"><ele>338.0</ele><time>2026-08-14T08:23:47Z</time></trkpt>
<trkpt lat="48.152093" lon="7.719311"><ele>333.7</ele><time>2026-08-14T08:23:57Z</time></trkpt>
<trkpt lat="48.152097" lon="7.718535"><ele>329.4</ele><time>2026-08-14T08:24:06Z</time></trkpt>
<trkpt lat="48.152105" lon="7.717771"><ele>325.1</ele><time>2026-08-14T08:24:16Z</time></trkpt>
<trkpt lat="48.152116" lon="7.717019"><ele>320.8</ele><time>2026-08-14T08:24:26Z</time></trkpt>
<trkpt lat="48.152132" lon="7.716281"><ele>316.5</ele><time>2026-08-14T08:24:35Z</time></trkpt>
<trkpt lat="48.152155" lon="7.715556"><ele>312.3</ele><time>2026-08-14T08:24:44Z</time></trkpt>
<trkpt lat="48.152184" lon="7.714845"><ele>308.1</ele><time>2026-08-14T08:24:54Z</time></trkpt>
<trkpt lat="48.152221" lon="7.714148"><ele>303.9</ele><time>2026-08-14T08:25:02Z</time></trkpt>
<trkpt lat="48.152266" lon="7.713466"><ele>299.8</ele><time>2026-08-14T08:25:11Z</time></trkpt>
<trkpt lat="48.152320" lon="7.712798"><ele>295.8</ele><time>2026-08-14T08:25:20Z</time></trkpt>
<trkpt lat="48.152384" lon="7.712145"><ele>291.9</ele><time>2026-08-14T08:25:28Z</time></trkpt>
<trkpt lat="48.152457" lon="7.711506"><ele>288.1</ele><time>2026-08-14T08:25:36Z</time></trkpt>
<trkpt lat="48.152541" lon="7.710881"><ele>284.4</ele><time>2026-08-14T08:25:44Z</time></trkpt>
<trkpt lat="48.152635" lon="7.710271"><ele>280.8</ele><time>2026-08-14T08:25:52Z</time></trkpt>
<trkpt lat="48.152741" lon="7.709674"><ele>277.4</ele><time>2026-08-14T08:26:00Z</time></trkpt>
<trkpt lat="48.152857" lon="7.709090"><ele>274.0</ele><time>2026-08-14T08:26:08Z</time></trkpt>
<trkpt lat="48.152984" lon="7.708519"><ele>270.8</ele><time>2026-08-14T08:26:16Z</time></trkpt>
<trkpt lat="48.153123" lon="7.707960"><ele>267.8</ele><time>2026-08-14T08:26:23Z</time></trkpt>
<trkpt lat="48.153272" lon="7.707412"><ele>264.8</ele><time>2026-08-14T08:26:31Z</time></trkpt>
<trkpt lat="48.153432" lon="7.706874"><ele>262.0</ele><time>2026-08-14T08:26:38Z</time></trkpt>
<trkpt lat="48.153602" lon="7.706347"><ele>259.3</ele><time>2026-08-14T08:26:46Z</time></trkpt>
<trkpt lat="48.153783" lon="7.705828"><ele>256.7</ele><time>2026-08-14T08:26:53Z</time></trkpt>
<trkpt lat="48.153972" lon="7.705317"><ele>254.3</ele><time>2026-08-14T08:27:01Z</time></trkpt>
<trkpt lat="48.154171" lon="7.704814"><ele>251.9</ele><time>2026-08-14T08:27:08Z</time></trkpt>
<trkpt lat="48.154377" lon="7.704317"><ele>249.7</ele><time>2026-08-14T08:27:16Z</time></trkpt>
<trkpt lat="48.154591" lon="7.703824"><ele>247.5</ele><time>2026-08-14T08:27:23Z</time></trkpt>
<trkpt lat="48.154812" lon="7.703336"><ele>245.4</ele><time>2026-08-14T08:27:31Z</time></trkpt>
<trkpt lat="48.155038" lon="7.702852"><ele>243.3</ele><time>2026-08-14T08:27:38Z</time></trkpt>
<trkpt lat="48.155270" lon="7.702369"><ele>241.4</ele><time>2026-08-14T08:27:46Z</time></trkpt>
<trkpt lat="48.155505" lon="7.701888"><ele>239.4</ele><time>2026-08-14T08:27:53Z</time></trkpt>
<trkpt lat="48.155743" lon="7.701408"><ele>237.5</ele><time>2026-08-14T08:28:01Z</time></trkpt>
<trkpt lat="48.155983" lon="7.700927"><ele>235.6</ele><time>2026-08-14T08:28:08Z</time></trkpt>
<trkpt lat="48.156223" lon="7.700444"><ele>233.8</ele><time>2026-08-14T08:28:16Z</time></trkpt>
<trkpt lat="48.156463" lon="7.699959"><ele>231.9</ele><time>2026-08-14T08:28:24Z</time></trkpt>
<trkpt lat="48.156701" lon="7.699471"><ele>230.1</ele><time>2026-08-14T08:28:32Z</time></trkpt>
<trkpt lat="48.156936" lon="7.698980"><ele>228.2</ele><time>2026-08-14T08:28:39Z</time></trkpt>
<trkpt lat="48.157168" lon="7.698483"><ele>226.3</ele><time>2026-08-14T08:28:47Z</time></trkpt>
<trkpt lat="48.157394" lon="7.697982"><ele>224.4</ele><time>2026-08-14T08:28:55Z</time></trkpt>
<trkpt lat="48.157614" lon="7.697475"><ele>222.5</ele><time>2026-08-14T08:29:02Z</time></trkpt>
<trkpt lat="48.157826" lon="7.696962"><ele>220.5</ele><time>2026-08-14T08:29:10Z</time></trkpt>
<trkpt lat="48.158030" lon="7.696442"><ele>218.6</ele><time>2026-08-14T08:29:18Z</time></trkpt>
<trkpt lat="48.158224" lon="7.695915"><ele>216.6</ele><time>2026-08-14T08:29:25Z</time></trkpt>
<trkpt lat="48.158408" lon="7.695381"><ele>214.5</ele><time>2026-08-14T08:29:33Z</time></trkpt>
<trkpt lat="48.158580" lon="7.694840"><ele>212.5</ele><time>2026-08-14T08:29:41Z</time></trkpt>
<trkpt lat="48.158739" lon="7.694291"><ele>210.5</ele><time>2026-08-14T08:29:48Z</time></trkpt>
<trkpt lat="48.158884" lon="7.693734"><ele>208.5</ele><time>2026-08-14T08:29:56Z</time></trkpt>
<trkpt lat="48.159016" lon="7.693169"><ele>206.5</ele><time>2026-08-14T08:30:03Z</time></trkpt>
<trkpt lat="48.159132" lon="7.692597"><ele>204.6</ele><time>2026-08-14T08:30:11Z</time></trkpt>
<trkpt lat="48.159233" lon="7.692017"><ele>202.7</ele><time>2026-08-14T08:30:19Z</time></trkpt>
<trkpt lat="48.159317" lon="7.691429"><ele>200.9</ele><time>2026-08-14T08:30:26Z</time></trkpt>
<trkpt lat="48.159385" lon="7.690835"><ele>199.4</ele><time>2026-08-14T08:30:34Z</time></trkpt>
<trkpt lat="48.159435" lon="7.690234"><ele>198.1</ele><time>2026-08-14T08:30:42Z</time></trkpt>
<trkpt lat="48.159469" lon="7.689627"><ele>197.2</ele><time>2026-08-14T08:30:49Z</time></trkpt>
<trkpt lat="48.159484" lon="7.689014"><ele>196.2</ele><time>2026-08-14T08:30:57Z</time></trkpt>
<trkpt lat="48.159482" lon="7.688395"><ele>195.3</ele><time>2026-08-14T08:31:05Z</time></trkpt>
<trkpt lat="48.159462" lon="7.687772"><ele>194.3</ele><time>2026-08-14T08:31:13Z</time></trkpt>
<trkpt lat="48.159425" lon="7.687144"><ele>193.4</ele><time>2026-08-14T08:31:21Z</time></trkpt>
<trkpt lat="48.159370" lon="7.686512"><ele>192.5</ele><time>2026-08-14T08:31:29Z</time></trkpt>
<trkpt lat="48.159299" lon="7.685878"><ele>191.6</ele><time>2026-08-14T08:31:37Z</time></trkpt>
<trkpt lat="48.159210" lon="7.685241"><ele>190.8</ele><time>2026-08-14T08:31:46Z</time></trkpt>
<trkpt lat="48.159106" lon="7.684602"><ele>190.0</ele><time>2026-08-14T08:31:54Z</time></trkpt>
<trkpt lat="48.158986" lon="7.683962"><ele>189.3</ele><time>2026-08-14T08:32:03Z</time></trkpt>
<trkpt lat="48.158851" lon="7.683322"><ele>188.7</ele><time>2026-08-14T08:32:11Z</time></trkpt>
<trkpt lat="48.158702" lon="7.682682"><ele>188.1</ele><time>2026-08-14T08:32:20Z</time></trkpt>
<trkpt lat="48.158540" lon="7.682042"><ele>187.7</ele><time>2026-08-14T08:32:28Z</time></trkpt>
<trkpt lat="48.158366" lon="7.681405"><ele>187.4</ele><time>2026-08-14T08:32:37Z</time></trkpt>
<trkpt lat="48.158181" lon="7.680769"><ele>187.1</ele><time>2026-08-14T08:32:46Z</time></trkpt>
<trkpt lat="48.157986" lon="7.680136"><ele>187.0</ele><time>2026-08-14T08:32:55Z</time></trkpt>
<trkpt lat="48.157782" lon="7.679507"><ele>187.0</ele><time>2026-08-14T08:33:04Z</time></trkpt>
<trkpt lat="48.157570" lon="7.678881"><ele>187.1</ele><time>2026-08-14T08:33:13Z</time></trkpt>
<trkpt lat="48.157351" lon="7.678260"><ele>187.3</ele><time>2026-08-14T08:33:24Z</time></trkpt>
<trkpt lat="48.157128" lon="7.677643"><ele>187.7</ele><time>2026-08-14T08:33:35Z</time></trkpt>
<trkpt lat="48.156901" lon="7.677032"><ele>188.1</ele><time>2026-08-14T08:33:46Z</time></trkpt>
<trkpt lat="48.156671" lon="7.676426"><ele>188.6</ele><time>2026-08-14T08:33:58Z</time></trkpt>
<trkpt lat="48.156440" lon="7.675826"><ele>189.2</ele><time>2026-08-14T08:34:11Z</time></trkpt>
<trkpt lat="48.156210" lon="7.675232"><ele>189.9</ele><time>2026-08-14T08:34:24Z</time></trkpt>
<trkpt lat="48.155981" lon="7.674645"><ele>190.7</ele><time>2026-08-14T08:34:37Z</time></trkpt>
<trkpt lat="48.155755" lon="7.674063"><ele>191.5</ele><time>2026-08-14T08:34:50Z</time></trkpt>
<trkpt lat="48.155534" lon="7.673488"><ele>192.4</ele><time>2026-08-14T08:35:04Z</time></trkpt>
<trkpt lat="48.155319" lon="7.672920"><ele>193.3</ele><time>2026-08-14T08:35:18Z</time></trkpt>
<trkpt lat="48.155110" lon="7.672358"><ele>194.3</ele><time>2026-08-14T08:35:32Z</time></trkpt>
<trkpt lat="48.154910" lon="7.671802"><ele>195.2</ele><time>2026-08-14T08:35:45Z</time></trkpt>
<trkpt lat="48.154719" lon="7.671252"><ele>196.2</ele><time>2026-08-14T08:35:59Z</time></trkpt>
<trkpt lat="48.154540" lon="7.670708"><ele>197.1</ele><time>2026-08-14T08:36:12Z</time></trkpt>
<trkpt lat="48.154371" lon="7.670170"><ele>198.0</ele><time>2026-08-14T08:36:25Z</time></trkpt>
<trkpt lat="48.154216" lon="7.669637"><ele>198.9</ele><time>2026-08-14T08:36:38Z</time></trkpt>
<trkpt lat="48.154074" lon="7.669109"><ele>199.7</ele><time>2026-08-14T08:36:50Z</time></trkpt>
<trkpt lat="48.153947" lon="7.668585"><ele>200.4</ele><time>2026-08-14T08:37:01Z</time></trkpt>
<trkpt lat="48.153836" lon="7.668065"><ele>201.1</ele><time>2026-08-14T08:37:12Z</time></trkpt>
<trkpt lat="48.153740" lon="7.667549"><ele>201.6</ele><time>2026-08-14T08:37:23Z</time></trkpt>
<trkpt lat="48.153661" lon="7.667035"><ele>202.1</ele><time>2026-08-14T08:37:32Z</time></trkpt>
<trkpt lat="48.153599" lon="7.666524"><ele>202.5</ele><time>2026-08-14T08:37:41Z</time></trkpt>
<trkpt lat="48.153554" lon="7.666015"><ele>202.8</ele><time>2026-08-14T08:37:49Z</time></trkpt>
<trkpt lat="48.153527" lon="7.665507"><ele>202.9</ele><time>2026-08-14T08:37:57Z</time></trkpt>
<trkpt lat="48.153518" lon="7.665000"><ele>203.0</ele><time>2026-08-14T08:38:04Z</time></trkpt>
<trkpt lat="48.153527" lon="7.664493"><ele>202.9</ele><time>2026-08-14T08:38:10Z</time></trkpt>
<trkpt lat="48.153554" lon="7.663985"><ele>202.8</ele><time>2026-08-14T08:38:16Z</time></trkpt>
<trkpt lat="48.153599" lon="7.663476"><ele>202.5</ele><time>2026-08-14T08:38:23Z</time></trkpt>
<trkpt lat="48.153661" lon="7.662965"><ele>202.1</ele><time>2026-08-14T08:38:30Z</time></trkpt>
<trkpt lat="48.153740" lon="7.662451"><ele>201.6</ele><time>2026-08-14T08:38:36Z</time></trkpt>
<trkpt lat="48.153836" lon="7.661935"><ele>201.1</ele><time>2026-08-14T08:38:43Z</time></trkpt>
<trkpt lat="48.153947" lon="7.661415"><ele>200.4</ele><time>2026-08-14T08:38:50Z</time></trkpt>
<trkpt lat="48.154074" lon="7.660891"><ele>199.7</ele><time>2026-08-14T08:38:57Z</time></trkpt>
<trkpt lat="48.154216" lon="7.660363"><ele>198.9</ele><time>2026-08-14T08:39:04Z</time></trkpt>
<trkpt lat="48.154371" lon="7.659830"><ele>198.0</ele><time>2026-08-14T08:39:12Z</time></trkpt>
<trkpt lat="48.154540" lon="7.659292"><ele>197.1</ele><time>2026-08-14T08:39:19Z</time></trkpt>
<trkpt lat="48.154719" lon="7.658748"><ele>196.2</ele><time>2026-08-14T08:39:27Z</time></trkpt>
<trkpt lat="48.154910" lon="7.658198"><ele>195.2</ele><time>2026-08-14T08:39:35Z</time></trkpt>
<trkpt lat="48.155110" lon="7.657642"><ele>194.3</ele><time>2026-08-14T08:39:43Z</time></trkpt>
<trkpt lat="48.155319" lon="7.657080"><ele>193.3</ele><time>2026-08-14T08:39:51Z</time></trkpt>
<trkpt lat="48.155534" lon="7.656512"><ele>192.4</ele><time>2026-08-14T08:40:00Z</time></trkpt>
<trkpt lat="48.155755" lon="7.655937"><ele>191.5</ele><time>2026-08-14T08:40:08Z</time></trkpt>
<trkpt lat="48.155981" lon="7.655355"><ele>190.7</ele><time>2026-08-14T08:40:17Z</time></trkpt>
<trkpt lat="48.156210" lon="7.654768"><ele>189.9</ele><time>2026-08-14T08:40:25Z</time></trkpt>
<trkpt lat="48.156440" lon="7.654174"><ele>189.2</ele><time>2026-08-14T08:40:34Z</time></trkpt>
<trkpt lat="48.156671" lon="7.653574"><ele>188.6</ele><time>2026-08-14T08:40:43Z</time></trkpt>
<trkpt lat="48.156901" lon="7.652968"><ele>188.1</ele><time>2026-08-14T08:40:52Z</time></trkpt>
<trkpt lat="48.157128" lon="7.652357"><ele>187.7</ele><time>2026-08-14T08:41:01Z</time></trkpt>
<trkpt lat="48.157351" lon="7.651740"><ele>187.3</ele><time>2026-08-14T08:41:10Z</time></trkpt>
<trkpt lat="48.157570" lon="7.651119"><ele>187.1</ele><time>2026-08-14T08:41:18Z</time></trkpt>
<trkpt lat="48.157782" lon="7.650493"><ele>187.0</ele><time>2026-08-14T08:41:27Z</time></trkpt>
<trkpt lat="48.157986" lon="7.649864"><ele>187.0</ele><time>2026-08-14T08:41:36Z</time></trkpt>
<trkpt lat="48.158181" lon="7.649231"><ele>187.1</ele><time>2026-08-14T08:41:46Z</time></trkpt>
<trkpt lat="48.158366" lon="7.648595"><ele>187.4</ele><time>2026-08-14T08:41:56Z</time></trkpt>
<trkpt lat="48.158540" lon="7.647958"><ele>187.7</ele><time>2026-08-14T08:42:07Z</time></trkpt>
<trkpt lat="48.158702" lon="7.647318"><ele>188.1</ele><time>2026-08-14T08:42:18Z</time></trkpt>
<trkpt lat="48.158851" lon="7.646678"><ele>188.7</ele><time>2026-08-14T08:42:30Z</time></trkpt>
<trkpt lat="48.158986" lon="7.646038"><ele>189.3</ele><time>2026-08-14T08:42:42Z</time></trkpt>
<trkpt lat="48.159106" lon="7.645398"><ele>190.0</ele><time>2026-08-14T08:42:55Z</time></trkpt>
<trkpt lat="48.159210" lon="7.644759"><ele>190.8</ele><time>2026-08-14T08:43:08Z</time></trkpt>
<trkpt lat="48.159299" lon="7.644122"><ele>191.6</ele><time>2026-08-14T08:43:21Z</time></trkpt>
<trkpt lat="48.159370" lon="7.643488"><ele>192.5</ele><time>2026-08-14T08:43:35Z</time></trkpt>
<trkpt lat="48.159425" lon="7.642856"><ele>193.4</ele><time>2026-08-14T08:43:48Z</time></trkpt>
<trkpt lat="48.159462" lon="7.642228"><ele>194.3</ele><time>2026-08-14T08:44:02Z</time></trkpt>
<trkpt lat="48.159482" lon="7.641605"><ele>195.3</ele><time>2026-08-14T08:44:16Z</time></trkpt>
<trkpt lat="48.159484" lon="7.640986"><ele>196.2</ele><time>2026-08-14T08:44:29Z</time></trkpt>
<trkpt lat="48.159469" lon="7.640373"><ele>197.2</ele><time>2026-08-14T08:44:43Z</time></trkpt>
<trkpt lat="48.159435" lon="7.639766"><ele>198.0</ele><time>2026-08-14T08:44:56Z</time></trkpt>
<trkpt lat="48.159385" lon="7.639165"><ele>198.9</ele><time>2026-08-14T08:45:08Z</time></trkpt>
<trkpt lat="48.159317" lon="7.638571"><ele>199.7</ele><time>2026-08-14T08:45:21Z</time></trkpt>
<trkpt lat="48.159233" lon="7.637983"><ele>200.4</ele><time>2026-08-14T08:45:33Z</time></trkpt>
<trkpt lat="48.159132" lon="7.637403"><ele>201.1</ele><time>2026-08-14T08:45:45Z</time></trkpt>
<trkpt lat="48.159016" lon="7.636831"><ele>201.7</ele><time>2026-08-14T08:45:56Z</time></trkpt>
<trkpt lat="48.158884" lon="7.636266"><ele>202.1</ele><time>2026-08-14T08:46:06Z</time></trkpt>
<trkpt lat="48.158739" lon="7.635709"><ele>202.5</ele><time>2026-08-14T08:46:16Z</time></trkpt>
<trkpt lat="48.158580" lon="7.635160"><ele>202.8</ele><time>2026-08-14T08:46:25Z</time></trkpt>
<trkpt lat="48.158408" lon="7.634619"><ele>203.0</ele><time>2026-08-14T08:46:34Z</time></trkpt>
<trkpt lat="48.158224" lon="7.634085"><ele>203.0</ele><time>2026-08-14T08:46:42Z</time></trkpt>
<trkpt lat="48.158030" lon="7.633558"><ele>202.9</ele><time>2026-08-14T08:46:49Z</time></trkpt>
<trkpt lat="48.157826" lon="7.633038"><ele>202.8</ele><time>2026-08-14T08:46:57Z</time></trkpt>
<trkpt lat="48.157614" lon="7.632525"><ele>202.5</ele><time>2026-08-14T08:47:05Z</time></trkpt>
<trkpt lat="48.157394" lon="7.632018"><ele>202.1</ele><time>2026-08-14T08:47:12Z</time></trkpt>
<trkpt lat="48.157168" lon="7.631517"><ele>201.6</ele><time>2026-08-14T08:47:20Z</time></trkpt>
<trkpt lat="48.156936" lon="7.631020"><ele>201.0</ele><time>2026-08-14T08:47:28Z</time></trkpt>
<trkpt lat="48.156701" lon="7.630529"><ele>200.4</ele><time>2026-08-14T08:47:36Z</time></trkpt>
<trkpt lat="48.156463" lon="7.630041"><ele>199.6</ele><time>2026-08-14T08:47:43Z</time></trkpt>
<trkpt lat="48.156223" lon="7.629556"><ele>198.8</ele><time>2026-08-14T08:47:51Z</time></trkpt>
<trkpt lat="48.155983" lon="7.629073"><ele>197.9</ele><time>2026-08-14T08:47:59Z</time></trkpt>
<trkpt lat="48.155743" lon="7.628592"><ele>197.0</ele><time>2026-08-14T08:48:06Z</time></trkpt>
<trkpt lat="48.155505" lon="7.628112"><ele>196.1</ele><time>2026-08-14T08:48:14Z</time></trkpt>
<trkpt lat="48.155270" lon="7.627631"><ele>195.2</ele><time>2026-08-14T08:48:21Z</time></trkpt>
<trkpt lat="48.155038" lon="7.627148"><ele>194.2</ele><time>2026-08-14T08:48:29Z</time></trkpt>
<trkpt lat="48.154812" lon="7.626664"><ele>193.3</ele><time>2026-08-14T08:48:37Z</time></trkpt>
<trkpt lat="48.154591" lon="7.626176"><ele>192.4</ele><time>2026-08-14T08:48:44Z</time></trkpt>
<trkpt lat="48.154377" lon="7.625683"><ele>191.5</ele><time>2026-08-14T08:48:52Z</time></trkpt>
<trkpt lat="48.154171" lon="7.625186"><ele>190.7</ele><time>2026-08-14T08:48:59Z</time></trkpt>
<trkpt lat="48.153972" lon="7.624683"><ele>189.9</ele><time>2026-08-14T08:49:06Z</time></trkpt>
<trkpt lat="48.153783" lon="7.624172"><ele>189.2</ele><time>2026-08-14T08:49:14Z</time></trkpt>
<trkpt lat="48.153602" lon="7.623653"><ele>188.6</ele><time>2026-08-14T08:49:21Z</time></trkpt>
<trkpt lat="48.153432" lon="7.623126"><ele>188.1</ele><time>2026-08-14T08:49:29Z</time></trkpt>
<trkpt lat="48.153272" lon="7.622588"><ele>187.6</ele><time>2026-08-14T08:49:36Z</time></trkpt>
<trkpt lat="48.153123" lon="7.622040"><ele>187.3</ele><time>2026-08-14T08:49:44Z</time></trkpt>
<trkpt lat="48.152984" lon="7.621481"><ele>187.1</ele><time>2026-08-14T08:49:51Z</time></trkpt>
<trkpt lat="48.152857" lon="7.620910"><ele>187.0</ele><time>2026-08-14T08:49:59Z</time></trkpt>
<trkpt lat="48.152741" lon="7.620326"><ele>187.0</ele><time>2026-08-14T08:50:07Z</time></trkpt>
<trkpt lat="48.152635" lon="7.619729"><ele>187.1</ele><time>2026-08-14T08:50:15Z</time></trkpt>
<trkpt lat="48.152541" lon="7.619119"><ele>187.4</ele><time>2026-08-14T08:50:25Z</time></trkpt>
<trkpt lat="48.152457" lon="7.618494"><ele>187.7</ele><time>2026-08-14T08:50:35Z</time></trkpt>
<trkpt lat="48.152384" lon="7.617855"><ele>188.2</ele><time>2026-08-14T08:50:46Z</time></trkpt>
<trkpt lat="48.152320" lon="7.617202"><ele>188.7</ele><time>2026-08-14T08:50:58Z</time></trkpt>
<trkpt lat="48.152266" lon="7.616534"><ele>189.3</ele><time>2026-08-14T08:51:10Z</time></trkpt>
<trkpt lat="48.152221" lon="7.615852"><ele>190.0</ele><time>2026-08-14T08:51:23Z</time></trkpt>
<trkpt lat="48.152184" lon="7.615155"><ele>190.8</ele><time>2026-08-14T08:51:36Z</time></trkpt>
<trkpt lat="48.152155" lon="7.614444"><ele>191.6</ele><time>2026-08-14T08:51:50Z</time></trkpt>
<trkpt lat="48.152132" lon="7.613719"><ele>192.5</ele><time>2026-08-14T08:52:05Z</time></trkpt>
<trkpt lat="48.152116" lon="7.612981"><ele>193.4</ele><time>2026-08-14T08:52:20Z</time></trkpt>
<trkpt lat="48.152105" lon="7.612229"><ele>194.4</ele><time>2026-08-14T08:52:35Z</time></trkpt>
<trkpt lat="48.152097" lon="7.611465"><ele>195.3</ele><time>2026-08-14T08:52:51Z</time></trkpt>
<trkpt lat="48.152093" lon="7.610689"><ele>196.3</ele><time>2026-08-14T08:53:06Z</time></trkpt>
<trkpt lat="48.152092" lon="7.609903"><ele>197.2</ele><time>2026-08-14T08:53:22Z</time></trkpt>
<trkpt lat="48.152091" lon="7.609107"><ele>198.1</ele><time>2026-08-14T08:53:37Z</time></trkpt>
<trkpt lat="48.152090" lon="7.608301"><ele>199.0</ele><time>2026-08-14T08:53:53Z</time></trkpt>
<trkpt lat="48.152089" lon="7.607488"><ele>199.7</ele><time>2026-08-14T08:54:08Z</time></trkpt>
<trkpt lat="48.152085" lon="7.606668"><ele>200.5</ele><time>2026-08-14T08:54:22Z</time></trkpt>
<trkpt lat="48.152078" lon="7.605843"><ele>201.1</ele><time>2026-08-14T08:54:37Z</time></trkpt>
<trkpt lat="48.152066" lon="7.605014"><ele>201.7</ele><time>2026-08-14T08:54:51Z</time></trkpt>
<trkpt lat="48.152050" lon="7.604182"><ele>202.2</ele><time>2026-08-14T08:55:04Z</time></trkpt>
<trkpt lat="48.152027" lon="7.603349"><ele>202.5</ele><time>2026-08-14T08:55:17Z</time></trkpt>
<trkpt lat="48.151996" lon="7.602516"><ele>202.8</ele><time>2026-08-14T08:55:29Z</time></trkpt>
<trkpt lat="48.151957" lon="7.601684"><ele>203.0</ele><time>2026-08-14T08:55:41Z</time></trkpt>
<trkpt lat="48.151908" lon="7.600856"><ele>203.0</ele><time>2026-08-14T08:55:52Z</time></trkpt>
<trkpt lat="48.151849" lon="7.600033"><ele>202.9</ele><time>2026-08-14T08:56:02Z</time></trkpt>
<trkpt lat="48.151779" lon="7.599216"><ele>202.7</ele><time>2026-08-14T08:56:13Z</time></trkpt>
<trkpt lat="48.151697" lon="7.598407"><ele>202.5</ele><time>2026-08-14T08:56:23Z</time></trkpt>
<trkpt lat="48.151602" lon="7.597607"><ele>202.1</ele><time>2026-08-14T08:56:33Z</time></trkpt>
<trkpt lat="48.151493" lon="7.596819"><ele>201.6</ele><time>2026-08-14T08:56:44Z</time></trkpt>
<trkpt lat="48.151370" lon="7.596042"><ele>201.0</ele><time>2026-08-14T08:56:54Z</time></trkpt>
<trkpt lat="48.151233" lon="7.595280"><ele>200.3</ele><time>2026-08-14T08:57:04Z</time></trkpt>
<trkpt lat="48.151080" lon="7.594534"><ele>199.6</ele><time>2026-08-14T08:57:14Z</time></trkpt>
<trkpt lat="48.150911" lon="7.593804"><ele>198.8</ele><time>2026-08-14T08:57:24Z</time></trkpt>
<trkpt lat="48.150727" lon="7.593092"><ele>197.9</ele><time>2026-08-14T08:57:33Z</time></trkpt>
<trkpt lat="48.150526" lon="7.592399"><ele>197.0</ele><time>2026-08-14T08:57:43Z</time></trkpt>
<trkpt lat="48.150309" lon="7.591727"><ele>196.1</ele><time>2026-08-14T08:57:53Z</time></trkpt>
<trkpt lat="48.150075" lon="7.591077"><ele>195.1</ele><time>2026-08-14T08:58:02Z</time></trkpt>
<trkpt lat="48.149825" lon="7.590448"><ele>194.2</ele><time>2026-08-14T08:58:11Z</time></trkpt>
<trkpt lat="48.149558" lon="7.589844"><ele>193.2</ele><time>2026-08-14T08:58:20Z</time></trkpt>
<trkpt lat="48.149275" lon="7.589263"><ele>192.3</ele><time>2026-08-14T08:58:30Z</time></trkpt>
<trkpt lat="48.148976" lon="7.588707"><ele>191.4</ele><time>2026-08-14T08:58:39Z</time></trkpt>
<trkpt lat="48.148660" lon="7.588176"><ele>190.6</ele><time>2026-08-14T08:58:48Z</time></trkpt>
<trkpt lat="48.148330" lon="7.587670"><ele>189.9</ele><time>2026-08-14T08:58:57Z</time></trkpt>
<trkpt lat="48.147984" lon="7.587190"><ele>189.2</ele><time>2026-08-14T08:59:06Z</time></trkpt>
<trkpt lat="48.147624" lon="7.586737"><ele>188.6</ele><time>2026-08-14T08:59:15Z</time></trkpt>
<trkpt lat="48.147249" lon="7.586309"><ele>188.0</ele><time>2026-08-14T08:59:24Z</time></trkpt>
<trkpt lat="48.146861" lon="7.585907"><ele>187.6</ele><time>2026-08-14T08:59:33Z</time></trkpt>
<trkpt lat="48.146460" lon="7.585531"><ele>187.3</ele><time>2026-08-14T08:59:42Z</time></trkpt>
<trkpt lat="48.146048" lon="7.585180"><ele>187.1</ele><time>2026-08-14T08:59:51Z</time></trkpt>
<trkpt lat="48.145623" lon="7.584853"><ele>187.0</ele><time>2026-08-14T09:00:00Z</time></trkpt>
<trkpt lat="48.145189" lon="7.584551"><ele>187.0</ele><time>2026-08-14T09:00:09Z</time></trkpt>
<trkpt lat="48.144744" lon="7.584272"><ele>187.2</ele><time>2026-08-14T09:00:19Z</time></trkpt>
<trkpt lat="48.144291" lon="7.584015"><ele>187.4</ele><time>2026-08-14T09:00:30Z</time></trkpt>
<trkpt lat="48.143829" lon="7.583780"><ele>187.7</ele><time>2026-08-14T09:00:41Z</time></trkpt>
<trkpt lat="48.143361" lon="7.583565"><ele>188.2</ele><time>2026-08-14T09:00:53Z</time></trkpt>
<trkpt lat="48.142886" lon="7.583370"><ele>188.7</ele><time>2026-08-14T09:01:06Z</time></trkpt>
<trkpt lat="48.142405" lon="7.583192"><ele>189.4</ele><time>2026-08-14T09:01:19Z</time></trkpt>
<trkpt lat="48.141920" lon="7.583030"><ele>190.1</ele><time>2026-08-14T09:01:33Z</time></trkpt>
<trkpt lat="48.141432" lon="7.582884"><ele>190.9</ele><time>2026-08-14T09:01:47Z</time></trkpt>
<trkpt lat="48.140941" lon="7.582751"><ele>191.7</ele><time>2026-08-14T09:02:01Z</time></trkpt>
<trkpt lat="48.140447" lon="7.582631"><ele>192.6</ele><time>2026-08-14T09:02:16Z</time></trkpt>
<trkpt lat="48.139953" lon="7.582521"><ele>193.5</ele><time>2026-08-14T09:02:31Z</time></trkpt>
<trkpt lat="48.139458" lon="7.582419"><ele>194.4</ele><time>2026-08-14T09:02:47Z</time></trkpt>
<trkpt lat="48.138964" lon="7.582325"><ele>195.4</ele><time>2026-08-14T09:03:02Z</time></trkpt>
<trkpt lat="48.138471" lon="7.582237"><ele>196.3</ele><time>2026-08-14T09:03:17Z</time></trkpt>
<trkpt lat="48.137979" lon="7.582152"><ele>197.3</ele><time>2026-08-14T09:03:32Z</time></trkpt>
<trkpt lat="48.137490" lon="7.582069"><ele>198.2</ele><time>2026-08-14T09:03:47Z</time></trkpt>
<trkpt lat="48.137005" lon="7.581987"><ele>199.0</ele><time>2026-08-14T09:04:01Z</time></trkpt>
<trkpt lat="48.136522" lon="7.581903"><ele>199.8</ele><time>2026-08-14T09:04:15Z</time></trkpt>
<trkpt lat="48.136044" lon="7.581817"><ele>200.5</ele><time>2026-08-14T09:04:29Z</time></trkpt>
<trkpt lat="48.135570" lon="7.581727"><ele>201.2</ele><time>2026-08-14T09:04:41Z</time></trkpt>
<trkpt lat="48.135101" lon="7.581631"><ele>201.7</ele><time>2026-08-14T09:04:54Z</time></trkpt>
<trkpt lat="48.134637" lon="7.581529"><ele>202.2</ele><time>2026-08-14T09:05:06Z</time></trkpt>
<trkpt lat="48.134179" lon="7.581417"><ele>202.6</ele><time>2026-08-14T09:05:17Z</time></trkpt>
<trkpt lat="48.133726" lon="7.581297"><ele>202.8</ele><time>2026-08-14T09:05:27Z</time></trkpt>
<trkpt lat="48.133279" lon="7.581165"><ele>203.0</ele><time>2026-08-14T09:05:37Z</time></trkpt>
<trkpt lat="48.132837" lon="7.581022"><ele>203.0</ele><time>2026-08-14T09:05:45Z</time></trkpt>
<trkpt lat="48.132402" lon="7.580867"><ele>202.9</ele><time>2026-08-14T09:05:54Z</time></trkpt>
<trkpt lat="48.131972" lon="7.580698"><ele>202.7</ele><time>2026-08-14T09:06:02Z</time></trkpt>
<trkpt lat="48.131548" lon="7.580515"><ele>202.4</ele><time>2026-08-14T09:06:11Z</time></trkpt>
<trkpt lat="48.131129" lon="7.580318"><ele>202.0</ele><time>2026-08-14T09:06:19Z</time></trkpt>
<trkpt lat="48.130716" lon="7.580106"><ele>201.5</ele><time>2026-08-14T09:06:27Z</time></trkpt>
<trkpt lat="48.130307" lon="7.579879"><ele>200.9</ele><time>2026-08-14T09:06:36Z</time></trkpt>
<trkpt lat="48.129904" lon="7.579637"><ele>200.3</ele><time>2026-08-14T09:06:44Z</time></trkpt>
<trkpt lat="48.129505" lon="7.579379"><ele>199.5</ele><time>2026-08-14T09:06:52Z</time></trkpt>
<trkpt lat="48.129110" lon="7.579107"><ele>198.7</ele><time>2026-08-14T09:07:01Z</time></trkpt>
<trkpt lat="48.128719" lon="7.578821"><ele>197.8</ele><time>2026-08-14T09:07:09Z</time></trkpt>
<trkpt lat="48.128332" lon="7.578521"><ele>196.9</ele><time>2026-08-14T09:07:17Z</time></trkpt>
<trkpt lat="48.127947" lon="7.578207"><ele>196.0</ele><time>2026-08-14T09:07:26Z</time></trkpt>
<trkpt lat="48.127565" lon="7.577880"><ele>195.1</ele><time>2026-08-14T09:07:34Z</time></trkpt>
<trkpt lat="48.127185" lon="7.577542"><ele>194.1</ele><time>2026-08-14T09:07:42Z</time></trkpt>
<trkpt lat="48.126806" lon="7.577193"><ele>193.2</ele><time>2026-08-14T09:07:51Z</time></trkpt>
<trkpt lat="48.126428" lon="7.576835"><ele>192.3</ele><time>2026-08-14T09:07:59Z</time></trkpt>
<trkpt lat="48.126051" lon="7.576469"><ele>191.4</ele><time>2026-08-14T09:08:08Z</time></trkpt>
<trkpt lat="48.125674" lon="7.576095"><ele>190.6</ele><time>2026-08-14T09:08:17Z</time></trkpt>
<trkpt lat="48.125297" lon="7.575716"><ele>189.8</ele><time>2026-08-14T09:08:25Z</time></trkpt>
<trkpt lat="48.124918" lon="7.575334"><ele>189.1</ele><time>2026-08-14T09:08:34Z</time></trkpt>
<trkpt lat="48.124538" lon="7.574949"><ele>188.5</ele><time>2026-08-14T09:08:43Z</time></trkpt>
<trkpt lat="48.124157" lon="7.574564"><ele>188.0</ele><time>2026-08-14T09:08:51Z</time></trkpt>
<trkpt lat="48.123773" lon="7.574180"><ele>187.6</ele><time>2026-08-14T09:09:00Z</time></trkpt>
<trkpt lat="48.123387" lon="7.573799"><ele>187.7</ele><time>2026-08-14T09:09:10Z</time></trkpt>
<trkpt lat="48.122998" lon="7.573423"><ele>188.3</ele><time>2026-08-14T09:09:22Z</time></trkpt>
<trkpt lat="48.122606" lon="7.573054"><ele>189.2</ele><time>2026-08-14T09:09:36Z</time></trkpt>
<trkpt lat="48.122210" lon="7.572694"><ele>190.4</ele><time>2026-08-14T09:09:52Z</time></trkpt>
<trkpt lat="48.121810" lon="7.572345"><ele>191.9</ele><time>2026-08-14T09:10:10Z</time></trkpt>
<trkpt lat="48.121407" lon="7.572008"><ele>193.7</ele><time>2026-08-14T09:10:30Z</time></trkpt>
<trkpt lat="48.120999" lon="7.571685"><ele>195.6</ele><time>2026-08-14T09:10:50Z</time></trkpt>
<trkpt lat="48.120587" lon="7.571379"><ele>197.8</ele><time>2026-08-14T09:11:12Z</time></trkpt>
<trkpt lat="48.120171" lon="7.571091"><ele>200.2</ele><time>2026-08-14T09:11:35Z</time></trkpt>
<trkpt lat="48.119750" lon="7.570823"><ele>202.8</ele><time>2026-08-14T09:12:00Z</time></trkpt>
<trkpt lat="48.119325" lon="7.570576"><ele>205.6</ele><time>2026-08-14T09:12:25Z</time></trkpt>
<trkpt lat="48.118896" lon="7.570352"><ele>208.5</ele><time>2026-08-14T09:12:51Z</time></trkpt>
<trkpt lat="48.118463" lon="7.570152"><ele>211.6</ele><time>2026-08-14T09:13:18Z</time></trkpt>
<trkpt lat="48.118025" lon="7.569979"><ele>214.8</ele><time>2026-08-14T09:13:46Z</time></trkpt>
<trkpt lat="48.117583" lon="7.569833"><ele>218.1</ele><time>2026-08-14T09:14:15Z</time></trkpt>
<trkpt lat="48.117138" lon="7.569715"><ele>221.5</ele><time>2026-08-14T09:14:44Z</time></trkpt>
<trkpt lat="48.116689" lon="7.569626"><ele>225.0</ele><time>2026-08-14T09:15:13Z</time></trkpt>
<trkpt lat="48.116237" lon="7.569568"><ele>228.6</ele><time>2026-08-14T09:15:43Z</time></trkpt>
<trkpt lat="48.115782" lon="7.569540"><ele>232.1</ele><time>2026-08-14T09:16:13Z</time></trkpt>
<trkpt lat="48.115324" lon="7.569544"><ele>235.8</ele><time>2026-08-14T09:16:44Z</time></trkpt>
<trkpt lat="48.114864" lon="7.569580"><ele>239.4</ele><time>2026-08-14T09:17:14Z</time></trkpt>
<trkpt lat="48.114402" lon="7.569649"><ele>243.0</ele><time>2026-08-14T09:17:45Z</time></trkpt>
<trkpt lat="48.113939" lon="7.569750"><ele>246.6</ele><time>2026-08-14T09:18:15Z</time></trkpt>
<trkpt lat="48.113475" lon="7.569883"><ele>250.2</ele><time>2026-08-14T09:18:46Z</time></trkpt>
<trkpt lat="48.113010" lon="7.570049"><ele>253.7</ele><time>2026-08-14T09:19:16Z</time></trkpt>
<trkpt lat="48.112545" lon="7.570247"><ele>257.1</ele><time>2026-08-14T09:19:46Z</time></trkpt>
<trkpt lat="48.112080" lon="7.570476"><ele>260.6</ele><time>2026-08-14T09:20:16Z</time></trkpt>
<trkpt lat="48.111616" lon="7.570735"><ele>263.9</ele><time>2026-08-14T09:20:45Z</time></trkpt>
<trkpt lat="48.111153" lon="7.571025"><ele>267.2</ele><time>2026-08-14T09:21:14Z</time></trkpt>
<trkpt lat="48.110692" lon="7.571344"><ele>270.4</ele><time>2026-08-14T09:21:43Z</time></trkpt>
<trkpt lat="48.110232" lon="7.571690"><ele>273.5</ele><time>2026-08-14T09:22:12Z</time></trkpt>
<trkpt lat="48.109775" lon="7.572064"><ele>276.5</ele><time>2026-08-14T09:22:40Z</time></trkpt>
<trkpt lat="48.109321" lon="7.572462"><ele>279.4</ele><time>2026-08-14T09:23:07Z</time></trkpt>
<trkpt lat="48.108870" lon="7.572885"><ele>282.3</ele><time>2026-08-14T09:23:35Z</time></trkpt>
<trkpt lat="48.108422" lon="7.573329"><ele>285.0</ele><time>2026-08-14T09:24:01Z</time></trkpt>
<trkpt lat="48.107979" lon="7.573794"><ele>287.8</ele><time>2026-08-14T09:24:28Z</time></trkpt>
<trkpt lat="48.107539" lon="7.574278"><ele>290.4</ele><time>2026-08-14T09:24:54Z</time></trkpt>
<trkpt lat="48.107104" lon="7.574778"><ele>293.0</ele><time>2026-08-14T09:25:20Z</time></trkpt>
<trkpt lat="48.106673" lon="7.575293"><ele>295.5</ele><time>2026-08-14T09:25:46Z</time></trkpt>
<trkpt lat="48.106247" lon="7.575821"><ele>298.0</ele><time>2026-08-14T09:26:11Z</time></trkpt>
<trkpt lat="48.105827" lon="7.576360"><ele>300.4</ele><time>2026-08-14T09:26:37Z</time></trkpt>
<trkpt lat="48.105411" lon="7.576907"><ele>302.9</ele><time>2026-08-14T09:27:02Z</time></trkpt>
<trkpt lat="48.105000" lon="7.577461"><ele>305.3</ele><time>2026-08-14T09:27:27Z</time></trkpt>
<trkpt lat="48.104594" lon="7.578019"><ele>307.7</ele><time>2026-08-14T09:27:52Z</time></trkpt>
<trkpt lat="48.104194" lon="7.578579"><ele>310.2</ele><time>2026-08-14T09:28:17Z</time></trkpt>
<trkpt lat="48.103799" lon="7.579139"><ele>312.7</ele><time>2026-08-14T09:28:42Z</time></trkpt>
<trkpt lat="48.103409" lon="7.579697"><ele>315.2</ele><time>2026-08-14T09:29:08Z</time></trkpt>
<trkpt lat="48.103024" lon="7.580250"><ele>317.7</ele><time>2026-08-14T09:29:33Z</time></trkpt>
<trkpt lat="48.102643" lon="7.580797"><ele>320.3</ele><time>2026-08-14T09:29:59Z</time></trkpt>
<trkpt lat="48.102268" lon="7.581337"><ele>323.0</ele><time>2026-08-14T09:30:25Z</time></trkpt>
<trkpt lat="48.101896" lon="7.581865"><ele>325.7</ele><time>2026-08-14T09:30:51Z</time></trkpt>
<trkpt lat="48.101529" lon="7.582382"><ele>328.6</ele><time>2026-08-14T09:31:17Z</time></trkpt>
<trkpt lat="48.101166" lon="7.582886"><ele>331.5</ele><time>2026-08-14T09:31:44Z</time></trkpt>
<trkpt lat="48.100806" lon="7.583374"><ele>334.4</ele><time>2026-08-14T09:32:12Z</time></trkpt>
<trkpt lat="48.100449" lon="7.583845"><ele>337.5</ele><time>2026-08-14T09:32:39Z</time></trkpt>
<trkpt lat="48.100096" lon="7.584298"><ele>340.7</ele><time>2026-08-14T09:33:07Z</time></trkpt>
<trkpt lat="48.099744" lon="7.584732"><ele>344.0</ele><time>2026-08-14T09:33:35Z</time></trkpt>
<trkpt lat="48.099395" lon="7.585145"><ele>347.3</ele><time>2026-08-14T09:34:04Z</time></trkpt>
<trkpt lat="48.099048" lon="7.585537"><ele>350.7</ele><time>2026-08-14T09:34:33Z</time></trkpt>
<trkpt lat="48.098702" lon="7.585907"><ele>354.3</ele><time>2026-08-14T09:35:02Z</time></trkpt>
<trkpt lat="48.098357" lon="7.586253"><ele>357.8</ele><time>2026-08-14T09:35:31Z</time></trkpt>
<trkpt lat="48.098013" lon="7.586576"><ele>361.5</ele><time>2026-08-14T09:36:01Z</time></trkpt>
<trkpt lat="48.097668" lon="7.586875"><ele>365.2</ele><time>2026-08-14T09:36:31Z</time></trkpt>
<trkpt lat="48.097323" lon="7.587151"><ele>369.0</ele><time>2026-08-14T09:37:01Z</time></trkpt>
<trkpt lat="48.096978" lon="7.587402"><ele>372.7</ele><time>2026-08-14T09:37:31Z</time></trkpt>
<trkpt lat="48.096632" lon="7.587629"><ele>376.5</ele><time>2026-08-14T09:38:01Z</time></trkpt>
<trkpt lat="48.096284" lon="7.587833"><ele>380.4</ele><time>2026-08-14T09:38:31Z</time></trkpt>
<trkpt lat="48.095935" lon="7.588014"><ele>384.2</ele><time>2026-08-14T09:39:01Z</time></trkpt>
<trkpt lat="48.095584" lon="7.588172"><ele>387.9</ele><time>2026-08-14T09:39:30Z</time></trkpt>
<trkpt lat="48.095231" lon="7.588308"><ele>391.7</ele><time>2026-08-14T09:40:00Z</time></trkpt>
<trkpt lat="48.094875" lon="7.588423"><ele>395.4</ele><time>2026-08-14T09:40:29Z</time></trkpt>
<trkpt lat="48.094516" lon="7.588518"><ele>399.0</ele><time>2026-08-14T09:40:58Z</time></trkpt>
<trkpt lat="48.094155" lon="7.588595"><ele>402.6</ele><time>2026-08-14T09:41:26Z</time></trkpt>
<trkpt lat="48.093791" lon="7.588654"><ele>406.0</ele><time>2026-08-14T09:41:54Z</time></trkpt>
<trkpt lat="48.093424" lon="7.588697"><ele>409.4</ele><time>2026-08-14T09:42:21Z</time></trkpt>
<trkpt lat="48.093053" lon="7.588725"><ele>412.6</ele><time>2026-08-14T09:42:47Z</time></trkpt>
<trkpt lat="48.092680" lon="7.588740"><ele>415.7</ele><time>2026-08-14T09:43:13Z</time></trkpt>
<trkpt lat="48.092304" lon="7.588743"><ele>418.6</ele><time>2026-08-14T09:43:38Z</time></trkpt>
<trkpt lat="48.091924" lon="7.588737"><ele>421.4</ele><time>2026-08-14T09:44:02Z</time></trkpt>
<trkpt lat="48.091542" lon="7.588722"><ele>424.1</ele><time>2026-08-14T09:44:25Z</time></trkpt>
<trkpt lat="48.091157" lon="7.588702"><ele>426.6</ele><time>2026-08-14T09:44:47Z</time></trkpt>
<trkpt lat="48.090770" lon="7.588677"><ele>428.9</ele><time>2026-08-14T09:45:08Z</time></trkpt>
<trkpt lat="48.090380" lon="7.588649"><ele>431.0</ele><time>2026-08-14T09:45:29Z</time></trkpt>
<trkpt lat="48.089989" lon="7.588622"><ele>433.0</ele><time>2026-08-14T09:45:48Z</time></trkpt>
<trkpt lat="48.089596" lon="7.588595"><ele>434.8</ele><time>2026-08-14T09:46:06Z</time></trkpt>
<trkpt lat="48.089202" lon="7.588571"><ele>436.4</ele><time>2026-08-14T09:46:23Z</time></trkpt>
<trkpt lat="48.088806" lon="7.588553"><ele>437.9</ele><time>2026-08-14T09:46:40Z</time></trkpt>
<trkpt lat="48.088411" lon="7.588541"><ele>439.2</ele><time>2026-08-14T09:46:55Z</time></trkpt>
<trkpt lat="48.088015" lon="7.588538"><ele>440.3</ele><time>2026-08-14T09:47:09Z</time></trkpt>
<trkpt lat="48.087620" lon="7.588546"><ele>441.3</ele><time>2026-08-14T09:47:23Z</time></trkpt>
<trkpt lat="48.087226" lon="7.588565"><ele>442.1</ele><time>2026-08-14T09:47:36Z</time></trkpt>
<trkpt lat="48.086833" lon="7.588597"><ele>442.9</ele><time>2026-08-14T09:47:47Z</time></trkpt>
<trkpt lat="48.086442" lon="7.588645"><ele>443.5</ele><time>2026-08-14T09:47:58Z</time></trkpt>
<trkpt lat="48.086054" lon="7.588709"><ele>444.0</ele><time>2026-08-14T09:48:09Z</time></trkpt>
<trkpt lat="48.085668" lon="7.588790"><ele>444.4</ele><time>2026-08-14T09:48:19Z</time></trkpt>
<trkpt lat="48.085287" lon="7.588890"><ele>444.7</ele><time>2026-08-14T09:48:28Z</time></trkpt>
<trkpt lat="48.084909" lon="7.589009"><ele>444.9</ele><time>2026-08-14T09:48:37Z</time></trkpt>
<trkpt lat="48.084536" lon="7.589150"><ele>445.1</ele><time>2026-08-14T09:48:45Z</time></trkpt>
<trkpt lat="48.084168" lon="7.589311"><ele>445.3</ele><time>2026-08-14T09:48:53Z</time></trkpt>
<trkpt lat="48.083805" lon="7.589494"><ele>445.4</ele><time>2026-08-14T09:49:01Z</time></trkpt>
<trkpt lat="48.083449" lon="7.589700"><ele>445.5</ele><time>2026-08-14T09:49:09Z</time></trkpt>
<trkpt lat="48.083098" lon="7.589928"><ele>445.5</ele><time>2026-08-14T09:49:17Z</time></trkpt>
<trkpt lat="48.082755" lon="7.590179"><ele>445.6</ele><time>2026-08-14T09:49:25Z</time></trkpt>
<trkpt lat="48.082419" lon="7.590453"><ele>445.7</ele><time>2026-08-14T09:49:33Z</time></trkpt>
<trkpt lat="48.082090" lon="7.590750"><ele>445.8</ele><time>2026-08-14T09:49:41Z</time></trkpt>
<trkpt lat="48.081769" lon="7.591069"><ele>445.9</ele><time>2026-08-14T09:49:49Z</time></trkpt>
<trkpt lat="48.081456" lon="7.591411"><ele>446.1</ele><time>2026-08-14T09:49:57Z</time></trkpt>
<trkpt lat="48.081151" lon="7.591774"><ele>446.3</ele><time>2026-08-14T09:50:06Z</time></trkpt>
<trkpt lat="48.080854" lon="7.592158"><ele>446.5</ele><time>2026-08-14T09:50:15Z</time></trkpt>
<trkpt lat="48.080566" lon="7.592562"><ele>446.8</ele><time>2026-08-14T09:50:24Z</time></trkpt>
<trkpt lat="48.080286" lon="7.592986"><ele>447.1</ele><time>2026-08-14T09:50:33Z</time></trkpt>
<trkpt lat="48.080014" lon="7.593428"><ele>447.4</ele><time>2026-08-14T09:50:43Z</time></trkpt>
<trkpt lat="48.079751" lon="7.593886"><ele>447.8</ele><time>2026-08-14T09:50:53Z</time></trkpt>
<trkpt lat="48.079495" lon="7.594361"><ele>448.2</ele><time>2026-08-14T09:51:03Z</time></trkpt>
<trkpt lat="48.079247" lon="7.594850"><ele>448.6</ele><time>2026-08-14T09:51:13Z</time></trkpt>
<trkpt lat="48.079007" lon="7.595353"><ele>449.0</ele><time>2026-08-14T09:51:23Z</time></trkpt>
<trkpt lat="48.078775" lon="7.595867"><ele>449.4</ele><time>2026-08-14T09:51:34Z</time></trkpt>
<trkpt lat="48.078549" lon="7.596391"><ele>449.9</ele><time>2026-08-14T09:51:44Z</time></trkpt>
<trkpt lat="48.078329" lon="7.596923"><ele>450.3</ele><time>2026-08-14T09:51:55Z</time></trkpt>
<trkpt lat="48.078116" lon="7.597463"><ele>450.6</ele><time>2026-08-14T09:52:05Z</time></trkpt>
<trkpt lat="48.077907" lon="7.598008"><ele>450.9</ele><time>2026-08-14T09:52:15Z</time></trkpt>
<trkpt lat="48.077704" lon="7.598556"><ele>451.2</ele><time>2026-08-14T09:52:24Z</time></trkpt>
<trkpt lat="48.077504" lon="7.599106"><ele>451.4</ele><time>2026-08-14T09:52:33Z</time></trkpt>
<trkpt lat="48.077308" lon="7.599656"><ele>451.5</ele><time>2026-08-14T09:52:42Z</time></trkpt>
<trkpt lat="48.077115" lon="7.600204"><ele>451.5</ele><time>2026-08-14T09:52:50Z</time></trkpt>
<trkpt lat="48.076924" lon="7.600749"><ele>451.5</ele><time>2026-08-14T09:52:58Z</time></trkpt>
<trkpt lat="48.076734" lon="7.601289"><ele>451.2</ele><time>2026-08-14T09:53:06Z</time></trkpt>
<trkpt lat="48.076544" lon="7.601823"><ele>450.9</ele><time>2026-08-14T09:53:13Z</time></trkpt>
<trkpt lat="48.076354" lon="7.602349"><ele>450.4</ele><time>2026-08-14T09:53:21Z</time></trkpt>
<trkpt lat="48.076162" lon="7.602865"><ele>449.8</ele><time>2026-08-14T09:53:29Z</time></trkpt>
<trkpt lat="48.075969" lon="7.603370"><ele>449.0</ele><time>2026-08-14T09:53:36Z</time></trkpt>
<trkpt lat="48.075772" lon="7.603863"><ele>448.1</ele><time>2026-08-14T09:53:43Z</time></trkpt>
<trkpt lat="48.075572" lon="7.604343"><ele>446.9</ele><time>2026-08-14T09:53:50Z</time></trkpt>
<trkpt lat="48.075366" lon="7.604808"><ele>445.6</ele><time>2026-08-14T09:53:58Z</time></trkpt>
<trkpt lat="48.075156" lon="7.605258"><ele>444.2</ele><time>2026-08-14T09:54:05Z</time></trkpt>
<trkpt lat="48.074939" lon="7.605691"><ele>442.5</ele><time>2026-08-14T09:54:11Z</time></trkpt>
<trkpt lat="48.074714" lon="7.606107"><ele>440.7</ele><time>2026-08-14T09:54:18Z</time></trkpt>
<trkpt lat="48.074482" lon="7.606505"><ele>438.7</ele><time>2026-08-14T09:54:25Z</time></trkpt>
<trkpt lat="48.074242" lon="7.606885"><ele>436.5</ele><time>2026-08-14T09:54:32Z</time></trkpt>
<trkpt lat="48.073992" lon="7.607246"><ele>434.1</ele><time>2026-08-14T09:54:38Z</time></trkpt>
<trkpt lat="48.073732" lon="7.607587"><ele>431.6</ele><time>2026-08-14T09:54:45Z</time></trkpt>
<trkpt lat="48.073462" lon="7.607909"><ele>429.0</ele><time>2026-08-14T09:54:51Z</time></trkpt>
<trkpt lat="48.073180" lon="7.608212"><ele>426.2</ele><time>2026-08-14T09:54:58Z</time></trkpt>
<trkpt lat="48.072888" lon="7.608496"><ele>423.2</ele><time>2026-08-14T09:55:05Z</time></trkpt>
<trkpt lat="48.072583" lon="7.608760"><ele>420.2</ele><time>2026-08-14T09:55:11Z</time></trkpt>
<trkpt lat="48.072266" lon="7.609006"><ele>417.0</ele><time>2026-08-14T09:55:18Z</time></trkpt>
<trkpt lat="48.071937" lon="7.609233"><ele>413.7</ele><time>2026-08-14T09:55:25Z</time></trkpt>
<trkpt lat="48.071596" lon="7.609443"><ele>410.4</ele><time>2026-08-14T09:55:32Z</time></trkpt>
<trkpt lat="48.071241" lon="7.609636"><ele>407.0</ele><time>2026-08-14T09:55:39Z</time></trkpt>
<trkpt lat="48.070874" lon="7.609812"><ele>403.6</ele><time>2026-08-14T09:55:47Z</time></trkpt>
<trkpt lat="48.070494" lon="7.609974"><ele>400.1</ele><time>2026-08-14T09:55:54Z</time></trkpt>
<trkpt lat="48.070102" lon="7.610121"><ele>396.6</ele><time>2026-08-14T09:56:02Z</time></trkpt>
<trkpt lat="48.069698" lon="7.610255"><ele>393.0</ele><time>2026-08-14T09:56:10Z</time></trkpt>
<trkpt lat="48.069281" lon="7.610378"><ele>389.5</ele><time>2026-08-14T09:56:18Z</time></trkpt>
<trkpt lat="48.068853" lon="7.610489"><ele>386.0</ele><time>2026-08-14T09:56:26Z</time></trkpt>
<trkpt lat="48.068413" lon="7.610591"><ele>382.6</ele><time>2026-08-14T09:56:35Z</time></trkpt>
<trkpt lat="48.067963" lon="7.610685"><ele>379.1</ele><time>2026-08-14T09:56:43Z</time></trkpt>
<trkpt lat="48.067502" lon="7.610773"><ele>375.8</ele><time>2026-08-14T09:56:52Z</time></trkpt>
<trkpt lat="48.067033" lon="7.610856"><ele>372.5</ele><time>2026-08-14T09:57:01Z</time></trkpt>
<trkpt lat="48.066554" lon="7.610935"><ele>369.2</ele><time>2026-08-14T09:57:10Z</time></trkpt>
<trkpt lat="48.066068" lon="7.611012"><ele>366.0</ele><time>2026-08-14T09:57:20Z</time></trkpt>
<trkpt lat="48.065574" lon="7.611088"><ele>362.9</ele><time>2026-08-14T09:57:29Z</time></trkpt>
<trkpt lat="48.065075" lon="7.611165"><ele>359.9</ele><time>2026-08-14T09:57:39Z</time></trkpt>
<trkpt lat="48.064570" lon="7.611245"><ele>357.0</ele><time>2026-08-14T09:57:48Z</time></trkpt>
<trkpt lat="48.064060" lon="7.611329"><ele>354.1</ele><time>2026-08-14T09:57:58Z</time></trkpt>
<trkpt lat="48.063548" lon="7.611418"><ele>351.3</ele><time>2026-08-14T09:58:08Z</time></trkpt>
<trkpt lat="48.063034" lon="7.611514"><ele>348.6</ele><time>2026-08-14T09:58:18Z</time></trkpt>
<trkpt lat="48.062518" lon="7.611618"><ele>346.0</ele><time>2026-08-14T09:58:28Z</time></trkpt>
<trkpt lat="48.062003" lon="7.611732"><ele>343.4</ele><time>2026-08-14T09:58:38Z</time></trkpt>
<trkpt lat="48.061488" lon="7.611857"><ele>340.9</ele><time>2026-08-14T09:58:48Z</time></trkpt>
<trkpt lat="48.060977" lon="7.611994"><ele>338.4</ele><time>2026-08-14T09:58:58Z</time></trkpt>
<trkpt lat="48.060468" lon="7.612144"><ele>336.0</ele><time>2026-08-14T09:59:07Z</time></trkpt>
<trkpt lat="48.059964" lon="7.612308"><ele>333.5</ele><time>2026-08-14T09:59:17Z</time></trkpt>
<trkpt lat="48.059466" lon="7.612487"><ele>331.1</ele><time>2026-08-14T09:59:27Z</time></trkpt>
<trkpt lat="48.058974" lon="7.612683"><ele>328.7</ele><time>2026-08-14T09:59:37Z</time></trkpt>
<trkpt lat="48.058490" lon="7.612895"><ele>326.3</ele><time>2026-08-14T09:59:46Z</time></trkpt>
<trkpt lat="48.058014" lon="7.613125"><ele>323.9</ele><time>2026-08-14T09:59:56Z</time></trkpt>
<trkpt lat="48.057549" lon="7.613372"><ele>321.5</ele><time>2026-08-14T10:00:05Z</time></trkpt>
<trkpt lat="48.057094" lon="7.613639"><ele>319.0</ele><time>2026-08-14T10:00:15Z</time></trkpt>
<trkpt lat="48.056650" lon="7.613924"><ele>316.5</ele><time>2026-08-14T10:00:24Z</time></trkpt>
<trkpt lat="48.056219" lon="7.614228"><ele>313.9</ele><time>2026-08-14T10:00:33Z</time></trkpt>
<trkpt lat="48.055801" lon="7.614552"><ele>311.2</ele><time>2026-08-14T10:00:42Z</time></trkpt>
<trkpt lat="48.055396" lon="7.614895"><ele>308.4</ele><time>2026-08-14T10:00:51Z</time></trkpt>
<trkpt lat="48.055005" lon="7.615258"><ele>305.6</ele><time>2026-08-14T10:01:00Z</time></trkpt>
<trkpt lat="48.054629" lon="7.615639"><ele>302.7</ele><time>2026-08-14T10:01:08Z</time></trkpt>
<trkpt lat="48.054269" lon="7.616040"><ele>299.7</ele><time>2026-08-14T10:01:17Z</time></trkpt>
<trkpt lat="48.053923" lon="7.616459"><ele>296.5</ele><time>2026-08-14T10:01:25Z</time></trkpt>
<trkpt lat="48.053594" lon="7.616896"><ele>293.3</ele><time>2026-08-14T10:01:34Z</time></trkpt>
<trkpt lat="48.053280" lon="7.617351"><ele>290.0</ele><time>2026-08-14T10:01:42Z</time></trkpt>
<trkpt lat="48.052982" lon="7.617823"><ele>286.6</ele><time>2026-08-14T10:01:50Z</time></trkpt>
<trkpt lat="48.052700" lon="7.618312"><ele>283.1</ele><time>2026-08-14T10:01:58Z</time></trkpt>
<trkpt lat="48.052434" lon="7.618816"><ele>279.5</ele><time>2026-08-14T10:02:07Z</time></trkpt>
<trkpt lat="48.052184" lon="7.619335"><ele>275.9</ele><time>2026-08-14T10:02:15Z</time></trkpt>
<trkpt lat="48.051948" lon="7.619868"><ele>272.1</ele><time>2026-08-14T10:02:23Z</time></trkpt>
<trkpt lat="48.051728" lon="7.620414"><ele>268.3</ele><time>2026-08-14T10:02:31Z</time></trkpt>
<trkpt lat="48.051522" lon="7.620973"><ele>264.5</ele><time>2026-08-14T10:02:39Z</time></trkpt>
<trkpt lat="48.051329" lon="7.621542"><ele>260.6</ele><time>2026-08-14T10:02:47Z</time></trkpt>
<trkpt lat="48.051150" lon="7.622122"><ele>256.7</ele><time>2026-08-14T10:02:55Z</time></trkpt>
<trkpt lat="48.050984" lon="7.622711"><ele>252.7</ele><time>2026-08-14T10:03:04Z</time></trkpt>
<trkpt lat="48.050829" lon="7.623308"><ele>248.8</ele><time>2026-08-14T10:03:12Z</time></trkpt>
<trkpt lat="48.050685" lon="7.623913"><ele>244.9</ele><time>2026-08-14T10:03:20Z</time></trkpt>
<trkpt lat="48.050550" lon="7.624523"><ele>241.0</ele><time>2026-08-14T10:03:28Z</time></trkpt>
<trkpt lat="48.050425" lon="7.625139"><ele>237.2</ele><time>2026-08-14T10:03:36Z</time></trkpt>
<trkpt lat="48.050308" lon="7.625759"><ele>233.4</ele><time>2026-08-14T10:03:44Z</time></trkpt>
<trkpt lat="48.050198" lon="7.626382"><ele>229.8</ele><time>2026-08-14T10:03:53Z</time></trkpt>
<trkpt lat="48.050093" lon="7.627007"><ele>226.2</ele><time>2026-08-14T10:04:01Z</time></trkpt>
<trkpt lat="48.049993" lon="7.627633"><ele>222.7</ele><time>2026-08-14T10:04:09Z</time></trkpt>
<trkpt lat="48.049897" lon="7.628260"><ele>219.4</ele><time>2026-08-14T10:04:17Z</time></trkpt>
<trkpt lat="48.049803" lon="7.628887"><ele>216.2</ele><time>2026-08-14T10:04:25Z</time></trkpt>
<trkpt lat="48.049710" lon="7.629513"><ele>213.1</ele><time>2026-08-14T10:04:34Z</time></trkpt>
<trkpt lat="48.049617" lon="7.630136"><ele>210.2</ele><time>2026-08-14T10:04:42Z</time></trkpt>
<trkpt lat="48.049524" lon="7.630758"><ele>207.5</ele><time>2026-08-14T10:04:50Z</time></trkpt>
<trkpt lat="48.049428" lon="7.631376"><ele>205.0</ele><time>2026-08-14T10:04:58Z</time></trkpt>
<trkpt lat="48.049328" lon="7.631992"><ele>202.7</ele><time>2026-08-14T10:05:06Z</time></trkpt>
<trkpt lat="48.049225" lon="7.632603"><ele>200.6</ele><time>2026-08-14T10:05:14Z</time></trkpt>
<trkpt lat="48.049116" lon="7.633210"><ele>198.6</ele><time>2026-08-14T10:05:22Z</time></trkpt>
<trkpt lat="48.049000" lon="7.633812"><ele>196.9</ele><time>2026-08-14T10:05:30Z</time></trkpt>
<trkpt lat="48.048878" lon="7.634410"><ele>195.5</ele><time>2026-08-14T10:05:38Z</time></trkpt>
<trkpt lat="48.048747" lon="7.635003"><ele>194.2</ele><time>2026-08-14T10:05:46Z</time></trkpt>
<trkpt lat="48.048607" lon="7.635591"><ele>193.2</ele><time>2026-08-14T10:05:54Z</time></trkpt>
<trkpt lat="48.048458" lon="7.636175"><ele>192.4</ele><time>2026-08-14T10:06:02Z</time></trkpt>
<trkpt lat="48.048298" lon="7.636753"><ele>191.8</ele><time>2026-08-14T10:06:10Z</time></trkpt>
<trkpt lat="48.048128" lon="7.637327"><ele>191.5</ele><time>2026-08-14T10:06:18Z</time></trkpt>
<trkpt lat="48.047946" lon="7.637897"><ele>191.5</ele><time>2026-08-14T10:06:26Z</time></trkpt>
<trkpt lat="48.047752" lon="7.638462"><ele>192.0</ele><time>2026-08-14T10:06:36Z</time></trkpt>
<trkpt lat="48.047547" lon="7.639024"><ele>192.8</ele><time>2026-08-14T10:06:50Z</time></trkpt>
<trkpt lat="48.047329" lon="7.639582"><ele>193.8</ele><time>2026-08-14T10:07:04Z</time></trkpt>
<trkpt lat="48.047099" lon="7.640137"><ele>194.7</ele><time>2026-08-14T10:07:18Z</time></trkpt>
<trkpt lat="48.046857" lon="7.640690"><ele>195.7</ele><time>2026-08-14T10:07:32Z</time></trkpt>
<trkpt lat="48.046603" lon="7.641240"><ele>196.6</ele><time>2026-08-14T10:07:46Z</time></trkpt>
<trkpt lat="48.046337" lon="7.641789"><ele>197.5</ele><time>2026-08-14T10:08:00Z</time></trkpt>
<trkpt lat="48.046060" lon="7.642338"><ele>198.4</ele><time>2026-08-14T10:08:14Z</time></trkpt>
<trkpt lat="48.045771" lon="7.642885"><ele>199.2</ele><time>2026-08-14T10:08:28Z</time></trkpt>
<trkpt lat="48.045472" lon="7.643434"><ele>200.0</ele><time>2026-08-14T10:08:42Z</time></trkpt>
<trkpt lat="48.045163" lon="7.643983"><ele>200.7</ele><time>2026-08-14T10:08:55Z</time></trkpt>
<trkpt lat="48.044845" lon="7.644533"><ele>201.3</ele><time>2026-08-14T10:09:08Z</time></trkpt>
<trkpt lat="48.044518" lon="7.645086"><ele>201.9</ele><time>2026-08-14T10:09:21Z</time></trkpt>
<trkpt lat="48.044184" lon="7.645642"><ele>202.3</ele><time>2026-08-14T10:09:33Z</time></trkpt>
<trkpt lat="48.043843" lon="7.646200"><ele>202.6</ele><time>2026-08-14T10:09:44Z</time></trkpt>
<trkpt lat="48.043496" lon="7.646763"><ele>202.9</ele><time>2026-08-14T10:09:55Z</time></trkpt>
<trkpt lat="48.043145" lon="7.647330"><ele>203.0</ele><time>2026-08-14T10:10:06Z</time></trkpt>
<trkpt lat="48.042791" lon="7.647902"><ele>203.0</ele><time>2026-08-14T10:10:16Z</time></trkpt>
<trkpt lat="48.042434" lon="7.648479"><ele>202.9</ele><time>2026-08-14T10:10:26Z</time></trkpt>
<trkpt lat="48.042077" lon="7.649062"><ele>202.7</ele><time>2026-08-14T10:10:36Z</time></trkpt>
<trkpt lat="48.041720" lon="7.649652"><ele>202.3</ele><time>2026-08-14T10:10:46Z</time></trkpt>
<trkpt lat="48.041365" lon="7.650248"><ele>201.9</ele><time>2026-08-14T10:10:56Z</time></trkpt>
<trkpt lat="48.041013" lon="7.650850"><ele>201.4</ele><time>2026-08-14T10:11:06Z</time></trkpt>
<trkpt lat="48.040666" lon="7.651460"><ele>200.8</ele><time>2026-08-14T10:11:17Z</time></trkpt>
<trkpt lat="48.040325" lon="7.652077"><ele>200.1</ele><time>2026-08-14T10:11:27Z</time></trkpt>
<trkpt lat="48.039991" lon="7.652701"><ele>199.3</ele><time>2026-08-14T10:11:37Z</time></trkpt>
<trkpt lat="48.039666" lon="7.653333"><ele>198.5</ele><time>2026-08-14T10:11:47Z</time></trkpt>
<trkpt lat="48.039351" lon="7.653973"><ele>197.6</ele><time>2026-08-14T10:11:57Z</time></trkpt>
<trkpt lat="48.039047" lon="7.654619"><ele>196.7</ele><time>2026-08-14T10:12:07Z</time></trkpt>
<trkpt lat="48.038756" lon="7.655273"><ele>195.7</ele><time>2026-08-14T10:12:17Z</time></trkpt>
<trkpt lat="48.038479" lon="7.655934"><ele>194.8</ele><time>2026-08-14T10:12:27Z</time></trkpt>
<trkpt lat="48.038218" lon="7.656602"><ele>193.8</ele><time>2026-08-14T10:12:37Z</time></trkpt>
<trkpt lat="48.037972" lon="7.657277"><ele>192.9</ele><time>2026-08-14T10:12:47Z</time></trkpt>
<trkpt lat="48.037744" lon="7.657957"><ele>192.0</ele><time>2026-08-14T10:12:57Z</time></trkpt>
<trkpt lat="48.037535" lon="7.658644"><ele>191.1</ele><time>2026-08-14T10:13:06Z</time></trkpt>
<trkpt lat="48.037345" lon="7.659336"><ele>190.3</ele><time>2026-08-14T10:13:16Z</time></trkpt>
<trkpt lat="48.037175" lon="7.660032"><ele>189.6</ele><time>2026-08-14T10:13:25Z</time></trkpt>
<trkpt lat="48.037026" lon="7.660734"><ele>188.9</ele><time>2026-08-14T10:13:35Z</time></trkpt>
<trkpt lat="48.036899" lon="7.661439"><ele>188.4</ele><time>2026-08-14T10:13:44Z</time></trkpt>
<trkpt lat="48.036795" lon="7.662147"><ele>187.9</ele><time>2026-08-14T10:13:53Z</time></trkpt>
<trkpt lat="48.036713" lon="7.662858"><ele>187.5</ele><time>2026-08-14T10:14:02Z</time></trkpt>
<trkpt lat="48.036654" lon="7.663571"><ele>187.2</ele><time>2026-08-14T10:14:11Z</time></trkpt>
<trkpt lat="48.036618" lon="7.664285"><ele>187.1</ele><time>2026-08-14T10:14:21Z</time></trkpt>
<trkpt lat="48.036607" lon="7.665000"><ele>187.0</ele><time>2026-08-14T10:14:30Z</time></trkpt>
</trkseg></trk>
</gpx>
