<?xml version="1.0" encoding="UTF-8"?>
<gpx version="1.1" creator="https://www.komoot.de" xmlns="http://www.topografix.com/GPX/1/1">
<metadata><name>Beispiel: Schauinsland-Runde</name></metadata>
<trk><name>Beispiel: Schauinsland-Runde</name><trkseg>
<trkpt lat="47.806343" lon="8.000000"><ele>996.8</ele></trkpt>
<trkpt lat="47.806356" lon="8.000966"><ele>987.4</ele></trkpt>
<trkpt lat="47.806393" lon="8.001932"><ele>977.8</ele></trkpt>
<trkpt lat="47.806454" lon="8.002897"><ele>968.1</ele></trkpt>
<trkpt lat="47.806540" lon="8.003860"><ele>958.4</ele></trkpt>
<trkpt lat="47.806650" lon="8.004821"><ele>948.5</ele></trkpt>
<trkpt lat="47.806784" lon="8.005779"><ele>938.6</ele></trkpt>
<trkpt lat="47.806942" lon="8.006734"><ele>928.7</ele></trkpt>
<trkpt lat="47.807123" lon="8.007686"><ele>918.6</ele></trkpt>
<trkpt lat="47.807327" lon="8.008634"><ele>908.5</ele></trkpt>
<trkpt lat="47.807553" lon="8.009577"><ele>898.3</ele></trkpt>
<trkpt lat="47.807801" lon="8.010516"><ele>888.1</ele></trkpt>
<trkpt lat="47.808070" lon="8.011449"><ele>877.8</ele></trkpt>
<trkpt lat="47.808360" lon="8.012376"><ele>867.4</ele></trkpt>
<trkpt lat="47.808669" lon="8.013298"><ele>857.0</ele></trkpt>
<trkpt lat="47.808998" lon="8.014213"><ele>846.6</ele></trkpt>
<trkpt lat="47.809345" lon="8.015121"><ele>836.1</ele></trkpt>
<trkpt lat="47.809710" lon="8.016022"><ele>825.6</ele></trkpt>
<trkpt lat="47.810092" lon="8.016916"><ele>815.0</ele></trkpt>
<trkpt lat="47.810490" lon="8.017803"><ele>804.4</ele></trkpt>
<trkpt lat="47.810902" lon="8.018682"><ele>793.7</ele></trkpt>
<trkpt lat="47.811329" lon="8.019553"><ele>783.0</ele></trkpt>
<trkpt lat="47.811769" lon="8.020416"><ele>772.3</ele></trkpt>
<trkpt lat="47.812221" lon="8.021272"><ele>761.5</ele></trkpt>
<trkpt lat="47.812685" lon="8.022119"><ele>750.7</ele></trkpt>
<trkpt lat="47.813158" lon="8.022958"><ele>739.9</ele></trkpt>
<trkpt lat="47.813641" lon="8.023788"><ele>729.1</ele></trkpt>
<trkpt lat="47.814132" lon="8.024611"><ele>718.3</ele></trkpt>
<trkpt lat="47.814631" lon="8.025426"><ele>707.4</ele></trkpt>
<trkpt lat="47.815135" lon="8.026232"><ele>696.6</ele></trkpt>
<trkpt lat="47.815645" lon="8.027031"><ele>685.7</ele></trkpt>
<trkpt lat="47.816159" lon="8.027822"><ele>674.9</ele></trkpt>
<trkpt lat="47.816677" lon="8.028606"><ele>664.1</ele></trkpt>
<trkpt lat="47.817196" lon="8.029383"><ele>653.3</ele></trkpt>
<trkpt lat="47.817717" lon="8.030152"><ele>642.5</ele></trkpt>
<trkpt lat="47.818238" lon="8.030914"><ele>631.8</ele></trkpt>
<trkpt lat="47.818758" lon="8.031671"><ele>621.1</ele></trkpt>
<trkpt lat="47.819277" lon="8.032420"><ele>610.5</ele></trkpt>
<trkpt lat="47.819794" lon="8.033164"><ele>599.9</ele></trkpt>
<trkpt lat="47.820308" lon="8.033903"><ele>589.5</ele></trkpt>
<trkpt lat="47.820817" lon="8.034636"><ele>579.1</ele></trkpt>
<trkpt lat="47.821322" lon="8.035365"><ele>568.8</ele></trkpt>
<trkpt lat="47.821821" lon="8.036089"><ele>558.7</ele></trkpt>
<trkpt lat="47.822314" lon="8.036809"><ele>548.7</ele></trkpt>
<trkpt lat="47.822801" lon="8.037525"><ele>538.8</ele></trkpt>
<trkpt lat="47.823280" lon="8.038238"><ele>529.1</ele></trkpt>
<trkpt lat="47.823751" lon="8.038949"><ele>519.6</ele></trkpt>
<trkpt lat="47.824214" lon="8.039657"><ele>510.3</ele></trkpt>
<trkpt lat="47.824667" lon="8.040363"><ele>501.2</ele></trkpt>
<trkpt lat="47.825112" lon="8.041068"><ele>492.4</ele></trkpt>
<trkpt lat="47.825547" lon="8.041771"><ele>483.8</ele></trkpt>
<trkpt lat="47.825972" lon="8.042473"><ele>475.5</ele></trkpt>
<trkpt lat="47.826387" lon="8.043176"><ele>467.5</ele></trkpt>
<trkpt lat="47.826791" lon="8.043878"><ele>459.9</ele></trkpt>
<trkpt lat="47.827186" lon="8.044580"><ele>452.6</ele></trkpt>
<trkpt lat="47.827569" lon="8.045283"><ele>445.7</ele></trkpt>
<trkpt lat="47.827942" lon="8.045987"><ele>439.3</ele></trkpt>
<trkpt lat="47.828305" lon="8.046692"><ele>433.3</ele></trkpt>
<trkpt lat="47.828657" lon="8.047399"><ele>427.9</ele></trkpt>
<trkpt lat="47.828999" lon="8.048107"><ele>423.1</ele></trkpt>
<trkpt lat="47.829330" lon="8.048818"><ele>419.0</ele></trkpt>
<trkpt lat="47.829652" lon="8.049530"><ele>415.8</ele></trkpt>
<trkpt lat="47.829964" lon="8.050245"><ele>414.2</ele></trkpt>
<trkpt lat="47.830267" lon="8.050962"><ele>413.8</ele></trkpt>
<trkpt lat="47.830561" lon="8.051681"><ele>413.3</ele></trkpt>
<trkpt lat="47.830847" lon="8.052403"><ele>413.0</ele></trkpt>
<trkpt lat="47.831124" lon="8.053127"><ele>412.7</ele></trkpt>
<trkpt lat="47.831394" lon="8.053854"><ele>412.4</ele></trkpt>
<trkpt lat="47.831658" lon="8.054584"><ele>412.2</ele></trkpt>
<trkpt lat="47.831915" lon="8.055315"><ele>412.1</ele></trkpt>
<trkpt lat="47.832166" lon="8.056049"><ele>412.0</ele></trkpt>
<trkpt lat="47.832412" lon="8.056785"><ele>412.0</ele></trkpt>
<trkpt lat="47.832653" lon="8.057523"><ele>412.1</ele></trkpt>
<trkpt lat="47.832891" lon="8.058262"><ele>412.2</ele></trkpt>
<trkpt lat="47.833126" lon="8.059002"><ele>412.4</ele></trkpt>
<trkpt lat="47.833359" lon="8.059743"><ele>412.6</ele></trkpt>
<trkpt lat="47.833590" lon="8.060485"><ele>412.9</ele></trkpt>
<trkpt lat="47.833820" lon="8.061227"><ele>413.3</ele></trkpt>
<trkpt lat="47.834050" lon="8.061968"><ele>413.7</ele></trkpt>
<trkpt lat="47.834281" lon="8.062709"><ele>414.1</ele></trkpt>
<trkpt lat="47.834514" lon="8.063449"><ele>414.6</ele></trkpt>
<trkpt lat="47.834749" lon="8.064186"><ele>415.2</ele></trkpt>
<trkpt lat="47.834988" lon="8.064922"><ele>415.8</ele></trkpt>
<trkpt lat="47.835230" lon="8.065654"><ele>416.4</ele></trkpt>
<trkpt lat="47.835477" lon="8.066383"><ele>417.1</ele></trkpt>
<trkpt lat="47.835729" lon="8.067108"><ele>417.7</ele></trkpt>
<trkpt lat="47.835988" lon="8.067828"><ele>418.4</ele></trkpt>
<trkpt lat="47.836253" lon="8.068542"><ele>419.1</ele></trkpt>
<trkpt lat="47.836526" lon="8.069251"><ele>419.8</ele></trkpt>
<trkpt lat="47.836808" lon="8.069952"><ele>420.5</ele></trkpt>
<trkpt lat="47.837098" lon="8.070646"><ele>421.3</ele></trkpt>
<trkpt lat="47.837398" lon="8.071332"><ele>421.9</ele></trkpt>
<trkpt lat="47.837709" lon="8.072009"><ele>422.6</ele></trkpt>
<trkpt lat="47.838030" lon="8.072676"><ele>423.3</ele></trkpt>
<trkpt lat="47.838362" lon="8.073333"><ele>423.9</ele></trkpt>
<trkpt lat="47.838706" lon="8.073978"><ele>424.5</ele></trkpt>
<trkpt lat="47.839063" lon="8.074612"><ele>425.1</ele></trkpt>
<trkpt lat="47.839432" lon="8.075234"><ele>425.6</ele></trkpt>
<trkpt lat="47.839814" lon="8.075842"><ele>426.1</ele></trkpt>
<trkpt lat="47.840209" lon="8.076437"><ele>426.5</ele></trkpt>
<trkpt lat="47.840618" lon="8.077017"><ele>426.9</ele></trkpt>
<trkpt lat="47.841041" lon="8.077582"><ele>427.3</ele></trkpt>
<trkpt lat="47.841478" lon="8.078132"><ele>427.5</ele></trkpt>
<trkpt lat="47.841930" lon="8.078666"><ele>427.7</ele></trkpt>
<trkpt lat="47.842395" lon="8.079183"><ele>427.9</ele></trkpt>
<trkpt lat="47.842875" lon="8.079682"><ele>428.0</ele></trkpt>
<trkpt lat="47.843369" lon="8.080165"><ele>428.0</ele></trkpt>
<trkpt lat="47.843878" lon="8.080629"><ele>428.0</ele></trkpt>
<trkpt lat="47.844400" lon="8.081075"><ele>427.9</ele></trkpt>
<trkpt lat="47.844937" lon="8.081502"><ele>427.7</ele></trkpt>
<trkpt lat="47.845487" lon="8.081910"><ele>427.5</ele></trkpt>
<trkpt lat="47.846051" lon="8.082300"><ele>427.2</ele></trkpt>
<trkpt lat="47.846629" lon="8.082669"><ele>426.8</ele></trkpt>
<trkpt lat="47.847219" lon="8.083020"><ele>426.4</ele></trkpt>
<trkpt lat="47.847822" lon="8.083351"><ele>426.0</ele></trkpt>
<trkpt lat="47.848437" lon="8.083662"><ele>425.5</ele></trkpt>
<trkpt lat="47.849064" lon="8.083954"><ele>425.0</ele></trkpt>
<trkpt lat="47.849702" lon="8.084226"><ele>424.4</ele></trkpt>
<trkpt lat="47.850350" lon="8.084479"><ele>423.8</ele></trkpt>
<trkpt lat="47.851009" lon="8.084713"><ele>423.1</ele></trkpt>
<trkpt lat="47.851677" lon="8.084928"><ele>422.5</ele></trkpt>
<trkpt lat="47.852353" lon="8.085125"><ele>421.8</ele></trkpt>
<trkpt lat="47.853038" lon="8.085304"><ele>421.1</ele></trkpt>
<trkpt lat="47.853731" lon="8.085464"><ele>420.4</ele></trkpt>
<trkpt lat="47.854430" lon="8.085608"><ele>419.7</ele></trkpt>
<trkpt lat="47.855135" lon="8.085735"><ele>419.0</ele></trkpt>
<trkpt lat="47.855846" lon="8.085846"><ele>418.3</ele></trkpt>
<trkpt lat="47.856560" lon="8.085941"><ele>417.6</ele></trkpt>
<trkpt lat="47.857279" lon="8.086022"><ele>416.9</ele></trkpt>
<trkpt lat="47.858000" lon="8.086089"><ele>416.3</ele></trkpt>
<trkpt lat="47.858724" lon="8.086142"><ele>415.6</ele></trkpt>
<trkpt lat="47.859448" lon="8.086183"><ele>415.1</ele></trkpt>
<trkpt lat="47.860173" lon="8.086213"><ele>414.5</ele></trkpt>
<trkpt lat="47.860898" lon="8.086232"><ele>414.0</ele></trkpt>
<trkpt lat="47.861621" lon="8.086241"><ele>413.6</ele></trkpt>
<trkpt lat="47.862342" lon="8.086242"><ele>413.2</ele></trkpt>
<trkpt lat="47.863061" lon="8.086234"><ele>412.8</ele></trkpt>
<trkpt lat="47.863776" lon="8.086221"><ele>412.5</ele></trkpt>
<trkpt lat="47.864486" lon="8.086202"><ele>412.3</ele></trkpt>
<trkpt lat="47.865191" lon="8.086178"><ele>412.1</ele></trkpt>
<trkpt lat="47.865891" lon="8.086151"><ele>412.0</ele></trkpt>
<trkpt lat="47.866583" lon="8.086121"><ele>412.0</ele></trkpt>
<trkpt lat="47.867269" lon="8.086091"><ele>412.0</ele></trkpt>
<trkpt lat="47.867946" lon="8.086061"><ele>412.1</ele></trkpt>
<trkpt lat="47.868615" lon="8.086031"><ele>412.3</ele></trkpt>
<trkpt lat="47.869275" lon="8.086004"><ele>412.5</ele></trkpt>
<trkpt lat="47.869924" lon="8.085981"><ele>412.7</ele></trkpt>
<trkpt lat="47.870564" lon="8.085962"><ele>413.1</ele></trkpt>
<trkpt lat="47.871192" lon="8.085948"><ele>413.4</ele></trkpt>
<trkpt lat="47.871810" lon="8.085942"><ele>413.9</ele></trkpt>
<trkpt lat="47.872415" lon="8.085943"><ele>414.3</ele></trkpt>
<trkpt lat="47.873008" lon="8.085953"><ele>414.9</ele></trkpt>
<trkpt lat="47.873589" lon="8.085973"><ele>415.4</ele></trkpt>
<trkpt lat="47.874157" lon="8.086004"><ele>416.0</ele></trkpt>
<trkpt lat="47.874711" lon="8.086047"><ele>416.7</ele></trkpt>
<trkpt lat="47.875253" lon="8.086102"><ele>417.3</ele></trkpt>
<trkpt lat="47.875780" lon="8.086171"><ele>418.0</ele></trkpt>
<trkpt lat="47.876294" lon="8.086255"><ele>418.7</ele></trkpt>
<trkpt lat="47.876795" lon="8.086354"><ele>419.4</ele></trkpt>
<trkpt lat="47.877281" lon="8.086469"><ele>420.1</ele></trkpt>
<trkpt lat="47.877754" lon="8.086600"><ele>420.8</ele></trkpt>
<trkpt lat="47.878213" lon="8.086749"><ele>421.5</ele></trkpt>
<trkpt lat="47.878658" lon="8.086915"><ele>422.2</ele></trkpt>
<trkpt lat="47.879089" lon="8.087100"><ele>422.9</ele></trkpt>
<trkpt lat="47.879507" lon="8.087304"><ele>423.6</ele></trkpt>
<trkpt lat="47.879911" lon="8.087527"><ele>424.2</ele></trkpt>
<trkpt lat="47.880303" lon="8.087769"><ele>424.8</ele></trkpt>
<trkpt lat="47.880682" lon="8.088031"><ele>425.3</ele></trkpt>
<trkpt lat="47.881048" lon="8.088313"><ele>425.8</ele></trkpt>
<trkpt lat="47.881402" lon="8.088615"><ele>426.3</ele></trkpt>
<trkpt lat="47.881744" lon="8.088936"><ele>426.7</ele></trkpt>
<trkpt lat="47.882075" lon="8.089278"><ele>427.1</ele></trkpt>
<trkpt lat="47.882395" lon="8.089640"><ele>427.4</ele></trkpt>
<trkpt lat="47.882705" lon="8.090021"><ele>427.6</ele></trkpt>
<trkpt lat="47.883004" lon="8.090422"><ele>427.8</ele></trkpt>
<trkpt lat="47.883295" lon="8.090842"><ele>427.9</ele></trkpt>
<trkpt lat="47.883576" lon="8.091281"><ele>428.0</ele></trkpt>
<trkpt lat="47.883848" lon="8.091738"><ele>428.0</ele></trkpt>
<trkpt lat="47.884113" lon="8.092213"><ele>427.9</ele></trkpt>
<trkpt lat="47.884371" lon="8.092705"><ele>427.8</ele></trkpt>
<trkpt lat="47.884622" lon="8.093214"><ele>427.6</ele></trkpt>
<trkpt lat="47.884867" lon="8.093739"><ele>427.4</ele></trkpt>
<trkpt lat="47.885107" lon="8.094279"><ele>427.1</ele></trkpt>
<trkpt lat="47.885342" lon="8.094833"><ele>426.7</ele></trkpt>
<trkpt lat="47.885573" lon="8.095401"><ele>426.3</ele></trkpt>
<trkpt lat="47.885800" lon="8.095982"><ele>425.8</ele></trkpt>
<trkpt lat="47.886024" lon="8.096574"><ele>425.3</ele></trkpt>
<trkpt lat="47.886247" lon="8.097177"><ele>424.7</ele></trkpt>
<trkpt lat="47.886467" lon="8.097789"><ele>424.1</ele></trkpt>
<trkpt lat="47.886686" lon="8.098410"><ele>423.5</ele></trkpt>
<trkpt lat="47.886905" lon="8.099039"><ele>422.9</ele></trkpt>
<trkpt lat="47.887125" lon="8.099674"><ele>422.2</ele></trkpt>
<trkpt lat="47.887345" lon="8.100314"><ele>421.5</ele></trkpt>
<trkpt lat="47.887566" lon="8.100959"><ele>420.8</ele></trkpt>
<trkpt lat="47.887789" lon="8.101606"><ele>420.1</ele></trkpt>
<trkpt lat="47.888014" lon="8.102255"><ele>419.4</ele></trkpt>
<trkpt lat="47.888242" lon="8.102905"><ele>418.7</ele></trkpt>
<trkpt lat="47.888474" lon="8.103554"><ele>418.0</ele></trkpt>
<trkpt lat="47.888709" lon="8.104201"><ele>417.3</ele></trkpt>
<trkpt lat="47.888949" lon="8.104845"><ele>416.6</ele></trkpt>
<trkpt lat="47.889193" lon="8.105485"><ele>416.0</ele></trkpt>
<trkpt lat="47.889443" lon="8.106120"><ele>415.4</ele></trkpt>
<trkpt lat="47.889697" lon="8.106749"><ele>414.8</ele></trkpt>
<trkpt lat="47.889958" lon="8.107370"><ele>414.3</ele></trkpt>
<trkpt lat="47.890224" lon="8.107983"><ele>413.8</ele></trkpt>
<trkpt lat="47.890496" lon="8.108586"><ele>413.4</ele></trkpt>
<trkpt lat="47.890775" lon="8.109178"><ele>413.0</ele></trkpt>
<trkpt lat="47.891061" lon="8.109759"><ele>412.7</ele></trkpt>
<trkpt lat="47.891354" lon="8.110328"><ele>412.4</ele></trkpt>
<trkpt lat="47.891653" lon="8.110883"><ele>412.2</ele></trkpt>
<trkpt lat="47.891960" lon="8.111424"><ele>412.1</ele></trkpt>
<trkpt lat="47.892273" lon="8.111950"><ele>412.0</ele></trkpt>
<trkpt lat="47.892594" lon="8.112461"><ele>412.0</ele></trkpt>
<trkpt lat="47.892922" lon="8.112956"><ele>412.0</ele></trkpt>
<trkpt lat="47.893258" lon="8.113434"><ele>412.2</ele></trkpt>
<trkpt lat="47.893600" lon="8.113895"><ele>412.3</ele></trkpt>
<trkpt lat="47.893950" lon="8.114338"><ele>412.6</ele></trkpt>
<trkpt lat="47.894306" lon="8.114763"><ele>412.9</ele></trkpt>
<trkpt lat="47.894669" lon="8.115170"><ele>413.2</ele></trkpt>
<trkpt lat="47.895040" lon="8.115559"><ele>413.6</ele></trkpt>
<trkpt lat="47.895416" lon="8.115929"><ele>414.1</ele></trkpt>
<trkpt lat="47.895799" lon="8.116280"><ele>414.6</ele></trkpt>
<trkpt lat="47.896188" lon="8.116613"><ele>415.1</ele></trkpt>
<trkpt lat="47.896583" lon="8.116927"><ele>415.7</ele></trkpt>
<trkpt lat="47.896983" lon="8.117222"><ele>416.3</ele></trkpt>
<trkpt lat="47.897389" lon="8.117500"><ele>416.9</ele></trkpt>
<trkpt lat="47.897800" lon="8.117759"><ele>417.6</ele></trkpt>
<trkpt lat="47.898216" lon="8.118002"><ele>418.3</ele></trkpt>
<trkpt lat="47.898636" lon="8.118227"><ele>419.0</ele></trkpt>
<trkpt lat="47.899060" lon="8.118436"><ele>419.7</ele></trkpt>
<trkpt lat="47.899488" lon="8.118629"><ele>420.4</ele></trkpt>
<trkpt lat="47.899920" lon="8.118806"><ele>421.1</ele></trkpt>
<trkpt lat="47.900355" lon="8.118970"><ele>421.8</ele></trkpt>
<trkpt lat="47.900792" lon="8.119119"><ele>422.5</ele></trkpt>
<trkpt lat="47.901232" lon="8.119256"><ele>423.2</ele></trkpt>
<trkpt lat="47.901674" lon="8.119381"><ele>423.8</ele></trkpt>
<trkpt lat="47.902118" lon="8.119496"><ele>424.4</ele></trkpt>
<trkpt lat="47.902563" lon="8.119600"><ele>425.0</ele></trkpt>
<trkpt lat="47.903010" lon="8.119696"><ele>425.5</ele></trkpt>
<trkpt lat="47.903457" lon="8.119784"><ele>426.0</ele></trkpt>
<trkpt lat="47.903904" lon="8.119865"><ele>426.5</ele></trkpt>
<trkpt lat="47.904352" lon="8.119941"><ele>426.9</ele></trkpt>
<trkpt lat="47.904800" lon="8.120013"><ele>427.2</ele></trkpt>
<trkpt lat="47.905247" lon="8.120083"><ele>427.5</ele></trkpt>
<trkpt lat="47.905694" lon="8.120150"><ele>427.7</ele></trkpt>
<trkpt lat="47.906140" lon="8.120218"><ele>427.9</ele></trkpt>
<trkpt lat="47.906585" lon="8.120286"><ele>428.0</ele></trkpt>
<trkpt lat="47.907028" lon="8.120357"><ele>428.0</ele></trkpt>
<trkpt lat="47.907470" lon="8.120432"><ele>428.0</ele></trkpt>
<trkpt lat="47.907910" lon="8.120511"><ele>427.9</ele></trkpt>
<trkpt lat="47.908349" lon="8.120597"><ele>427.7</ele></trkpt>
<trkpt lat="47.908785" lon="8.120690"><ele>427.5</ele></trkpt>
<trkpt lat="47.909219" lon="8.120792"><ele>427.2</ele></trkpt>
<trkpt lat="47.909652" lon="8.120905"><ele>426.9</ele></trkpt>
<trkpt lat="47.910082" lon="8.121028"><ele>426.5</ele></trkpt>
<trkpt lat="47.910509" lon="8.121164"><ele>426.1</ele></trkpt>
<trkpt lat="47.910935" lon="8.121314"><ele>425.6</ele></trkpt>
<trkpt lat="47.911358" lon="8.121479"><ele>425.1</ele></trkpt>
<trkpt lat="47.911779" lon="8.121659"><ele>424.5</ele></trkpt>
<trkpt lat="47.912198" lon="8.121857"><ele>423.9</ele></trkpt>
<trkpt lat="47.912614" lon="8.122072"><ele>423.3</ele></trkpt>
<trkpt lat="47.913029" lon="8.122306"><ele>422.6</ele></trkpt>
<trkpt lat="47.913442" lon="8.122560"><ele>422.0</ele></trkpt>
<trkpt lat="47.913853" lon="8.122834"><ele>423.2</ele></trkpt>
<trkpt lat="47.914262" lon="8.123130"><ele>425.5</ele></trkpt>
<trkpt lat="47.914670" lon="8.123448"><ele>428.6</ele></trkpt>
<trkpt lat="47.915076" lon="8.123788"><ele>432.3</ele></trkpt>
<trkpt lat="47.915482" lon="8.124151"><ele>436.5</ele></trkpt>
<trkpt lat="47.915886" lon="8.124537"><ele>441.3</ele></trkpt>
<trkpt lat="47.916290" lon="8.124947"><ele>446.6</ele></trkpt>
<trkpt lat="47.916694" lon="8.125382"><ele>452.3</ele></trkpt>
<trkpt lat="47.917098" lon="8.125840"><ele>458.4</ele></trkpt>
<trkpt lat="47.917501" lon="8.126323"><ele>464.8</ele></trkpt>
<trkpt lat="47.917905" lon="8.126831"><ele>471.7</ele></trkpt>
<trkpt lat="47.918310" lon="8.127363"><ele>478.9</ele></trkpt>
<trkpt lat="47.918716" lon="8.127919"><ele>486.5</ele></trkpt>
<trkpt lat="47.919123" lon="8.128499"><ele>494.4</ele></trkpt>
<trkpt lat="47.919532" lon="8.129102"><ele>502.6</ele></trkpt>
<trkpt lat="47.919943" lon="8.129729"><ele>511.1</ele></trkpt>
<trkpt lat="47.920355" lon="8.130379"><ele>519.9</ele></trkpt>
<trkpt lat="47.920771" lon="8.131051"><ele>529.0</ele></trkpt>
<trkpt lat="47.921189" lon="8.131744"><ele>538.3</ele></trkpt>
<trkpt lat="47.921610" lon="8.132459"><ele>547.9</ele></trkpt>
<trkpt lat="47.922035" lon="8.133193"><ele>557.8</ele></trkpt>
<trkpt lat="47.922464" lon="8.133946"><ele>567.9</ele></trkpt>
<trkpt lat="47.922896" lon="8.134718"><ele>578.2</ele></trkpt>
<trkpt lat="47.923332" lon="8.135507"><ele>588.7</ele></trkpt>
<trkpt lat="47.923773" lon="8.136312"><ele>599.4</ele></trkpt>
<trkpt lat="47.924219" lon="8.137132"><ele>610.3</ele></trkpt>
<trkpt lat="47.924670" lon="8.137965"><ele>621.4</ele></trkpt>
<trkpt lat="47.925126" lon="8.138811"><ele>632.6</ele></trkpt>
<trkpt lat="47.925587" lon="8.139668"><ele>644.0</ele></trkpt>
<trkpt lat="47.926053" lon="8.140535"><ele>655.5</ele></trkpt>
<trkpt lat="47.926526" lon="8.141410"><ele>667.2</ele></trkpt>
<trkpt lat="47.927004" lon="8.142292"><ele>678.9</ele></trkpt>
<trkpt lat="47.927488" lon="8.143179"><ele>690.8</ele></trkpt>
<trkpt lat="47.927978" lon="8.144070"><ele>702.7</ele></trkpt>
<trkpt lat="47.928474" lon="8.144963"><ele>714.7</ele></trkpt>
<trkpt lat="47.928977" lon="8.145857"><ele>726.8</ele></trkpt>
<trkpt lat="47.929485" lon="8.146751"><ele>738.8</ele></trkpt>
<trkpt lat="47.930000" lon="8.147641"><ele>750.9</ele></trkpt>
<trkpt lat="47.930521" lon="8.148528"><ele>763.1</ele></trkpt>
<trkpt lat="47.931048" lon="8.149409"><ele>775.2</ele></trkpt>
<trkpt lat="47.931582" lon="8.150283"><ele>787.2</ele></trkpt>
<trkpt lat="47.932121" lon="8.151148"><ele>799.3</ele></trkpt>
<trkpt lat="47.932667" lon="8.152003"><ele>811.3</ele></trkpt>
<trkpt lat="47.933218" lon="8.152845"><ele>823.3</ele></trkpt>
<trkpt lat="47.933776" lon="8.153675"><ele>835.1</ele></trkpt>
<trkpt lat="47.934338" lon="8.154489"><ele>846.9</ele></trkpt>
<trkpt lat="47.934907" lon="8.155287"><ele>858.6</ele></trkpt>
<trkpt lat="47.935480" lon="8.156067"><ele>870.2</ele></trkpt>
<trkpt lat="47.936059" lon="8.156828"><ele>881.6</ele></trkpt>
<trkpt lat="47.936642" lon="8.157568"><ele>893.0</ele></trkpt>
<trkpt lat="47.937230" lon="8.158287"><ele>904.1</ele></trkpt>
<trkpt lat="47.937823" lon="8.158983"><ele>915.2</ele></trkpt>
<trkpt lat="47.938419" lon="8.159654"><ele>926.0</ele></trkpt>
<trkpt lat="47.939019" lon="8.160301"><ele>936.7</ele></trkpt>
<trkpt lat="47.939623" lon="8.160921"><ele>947.2</ele></trkpt>
<trkpt lat="47.940230" lon="8.161514"><ele>957.6</ele></trkpt>
<trkpt lat="47.940840" lon="8.162078"><ele>967.7</ele></trkpt>
<trkpt lat="47.941452" lon="8.162614"><ele>977.6</ele></trkpt>
<trkpt lat="47.942066" lon="8.163120"><ele>987.4</ele></trkpt>
<trkpt lat="47.942683" lon="8.163597"><ele>996.9</ele></trkpt>
<trkpt lat="47.943301" lon="8.164042"><ele>1006.2</ele></trkpt>
<trkpt lat="47.943920" lon="8.164456"><ele>1015.3</ele></trkpt>
<trkpt lat="47.944541" lon="8.164838"><ele>1024.2</ele></trkpt>
<trkpt lat="47.945162" lon="8.165188"><ele>1032.8</ele></trkpt>
<trkpt lat="47.945783" lon="8.165506"><ele>1041.2</ele></trkpt>
<trkpt lat="47.946404" lon="8.165792"><ele>1049.4</ele></trkpt>
<trkpt lat="47.947025" lon="8.166045"><ele>1057.4</ele></trkpt>
<trkpt lat="47.947645" lon="8.166266"><ele>1065.1</ele></trkpt>
<trkpt lat="47.948264" lon="8.166454"><ele>1072.6</ele></trkpt>
<trkpt lat="47.948882" lon="8.166610"><ele>1079.9</ele></trkpt>
<trkpt lat="47.949498" lon="8.166735"><ele>1086.9</ele></trkpt>
<trkpt lat="47.950113" lon="8.166828"><ele>1093.7</ele></trkpt>
<trkpt lat="47.950725" lon="8.166891"><ele>1100.3</ele></trkpt>
<trkpt lat="47.951335" lon="8.166922"><ele>1106.7</ele></trkpt>
<trkpt lat="47.951943" lon="8.166924"><ele>1112.8</ele></trkpt>
<trkpt lat="47.952548" lon="8.166897"><ele>1118.7</ele></trkpt>
<trkpt lat="47.953151" lon="8.166841"><ele>1124.3</ele></trkpt>
<trkpt lat="47.953750" lon="8.166758"><ele>1129.8</ele></trkpt>
<trkpt lat="47.954346" lon="8.166648"><ele>1135.0</ele></trkpt>
<trkpt lat="47.954939" lon="8.166512"><ele>1140.0</ele></trkpt>
<trkpt lat="47.955528" lon="8.166351"><ele>1144.8</ele></trkpt>
<trkpt lat="47.956114" lon="8.166167"><ele>1149.4</ele></trkpt>
<trkpt lat="47.956697" lon="8.165960"><ele>1153.8</ele></trkpt>
<trkpt lat="47.957276" lon="8.165731"><ele>1157.9</ele></trkpt>
<trkpt lat="47.957851" lon="8.165482"><ele>1161.8</ele></trkpt>
<trkpt lat="47.958423" lon="8.165214"><ele>1165.5</ele></trkpt>
<trkpt lat="47.958991" lon="8.164927"><ele>1169.0</ele></trkpt>
<trkpt lat="47.959556" lon="8.164624"><ele>1172.3</ele></trkpt>
<trkpt lat="47.960118" lon="8.164306"><ele>1175.4</ele></trkpt>
<trkpt lat="47.960676" lon="8.163974"><ele>1178.2</ele></trkpt>
<trkpt lat="47.961231" lon="8.163628"><ele>1180.9</ele></trkpt>
<trkpt lat="47.961783" lon="8.163272"><ele>1183.3</ele></trkpt>
<trkpt lat="47.962332" lon="8.162905"><ele>1185.5</ele></trkpt>
<trkpt lat="47.962879" lon="8.162529"><ele>1187.4</ele></trkpt>
<trkpt lat="47.963423" lon="8.162146"><ele>1189.2</ele></trkpt>
<trkpt lat="47.963965" lon="8.161757"><ele>1190.7</ele></trkpt>
<trkpt lat="47.964505" lon="8.161363"><ele>1192.0</ele></trkpt>
<trkpt lat="47.965044" lon="8.160965"><ele>1193.1</ele></trkpt>
<trkpt lat="47.965580" lon="8.160565"><ele>1193.9</ele></trkpt>
<trkpt lat="47.966116" lon="8.160164"><ele>1194.5</ele></trkpt>
<trkpt lat="47.966650" lon="8.159763"><ele>1194.8</ele></trkpt>
<trkpt lat="47.967184" lon="8.159362"><ele>1194.9</ele></trkpt>
<trkpt lat="47.967718" lon="8.158964"><ele>1194.7</ele></trkpt>
<trkpt lat="47.968251" lon="8.158569"><ele>1194.3</ele></trkpt>
<trkpt lat="47.968785" lon="8.158179"><ele>1193.6</ele></trkpt>
<trkpt lat="47.969320" lon="8.157793"><ele>1192.6</ele></trkpt>
<trkpt lat="47.969855" lon="8.157414"><ele>1191.4</ele></trkpt>
<trkpt lat="47.970392" lon="8.157042"><ele>1189.9</ele></trkpt>
<trkpt lat="47.970930" lon="8.156677"><ele>1188.1</ele></trkpt>
<trkpt lat="47.971470" lon="8.156320"><ele>1186.1</ele></trkpt>
<trkpt lat="47.972012" lon="8.155972"><ele>1183.7</ele></trkpt>
<trkpt lat="47.972556" lon="8.155634"><ele>1181.1</ele></trkpt>
<trkpt lat="47.973103" lon="8.155306"><ele>1178.1</ele></trkpt>
<trkpt lat="47.973654" lon="8.154988"><ele>1174.9</ele></trkpt>
<trkpt lat="47.974207" lon="8.154681"><ele>1171.4</ele></trkpt>
<trkpt lat="47.974764" lon="8.154384"><ele>1167.5</ele></trkpt>
<trkpt lat="47.975325" lon="8.154099"><ele>1163.4</ele></trkpt>
<trkpt lat="47.975889" lon="8.153825"><ele>1159.0</ele></trkpt>
<trkpt lat="47.976458" lon="8.153563"><ele>1154.2</ele></trkpt>
<trkpt lat="47.977031" lon="8.153311"><ele>1149.1</ele></trkpt>
<trkpt lat="47.977608" lon="8.153071"><ele>1143.8</ele></trkpt>
<trkpt lat="47.978190" lon="8.152842"><ele>1138.1</ele></trkpt>
<trkpt lat="47.978777" lon="8.152623"><ele>1132.1</ele></trkpt>
<trkpt lat="47.979368" lon="8.152415"><ele>1125.8</ele></trkpt>
<trkpt lat="47.979965" lon="8.152216"><ele>1119.3</ele></trkpt>
<trkpt lat="47.980566" lon="8.152027"><ele>1112.4</ele></trkpt>
<trkpt lat="47.981171" lon="8.151847"><ele>1105.2</ele></trkpt>
<trkpt lat="47.981782" lon="8.151675"><ele>1097.8</ele></trkpt>
<trkpt lat="47.982397" lon="8.151510"><ele>1090.0</ele></trkpt>
<trkpt lat="47.983017" lon="8.151353"><ele>1082.0</ele></trkpt>
<trkpt lat="47.983641" lon="8.151202"><ele>1073.7</ele></trkpt>
<trkpt lat="47.984270" lon="8.151056"><ele>1065.2</ele></trkpt>
<trkpt lat="47.984903" lon="8.150914"><ele>1056.4</ele></trkpt>
<trkpt lat="47.985539" lon="8.150776"><ele>1047.3</ele></trkpt>
<trkpt lat="47.986179" lon="8.150640"><ele>1038.0</ele></trkpt>
<trkpt lat="47.986823" lon="8.150505"><ele>1028.5</ele></trkpt>
<trkpt lat="47.987469" lon="8.150371"><ele>1018.8</ele></trkpt>
<trkpt lat="47.988119" lon="8.150237"><ele>1008.8</ele></trkpt>
<trkpt lat="47.988770" lon="8.150101"><ele>998.7</ele></trkpt>
<trkpt lat="47.989424" lon="8.149961"><ele>988.4</ele></trkpt>
<trkpt lat="47.990078" lon="8.149818"><ele>977.9</ele></trkpt>
<trkpt lat="47.990734" lon="8.149670"><ele>967.2</ele></trkpt>
<trkpt lat="47.991391" lon="8.149515"><ele>956.4</ele></trkpt>
<trkpt lat="47.992047" lon="8.149353"><ele>945.4</ele></trkpt>
<trkpt lat="47.992703" lon="8.149182"><ele>934.4</ele></trkpt>
<trkpt lat="47.993358" lon="8.149001"><ele>923.2</ele></trkpt>
<trkpt lat="47.994012" lon="8.148810"><ele>911.9</ele></trkpt>
<trkpt lat="47.994663" lon="8.148606"><ele>900.5</ele></trkpt>
<trkpt lat="47.995311" lon="8.148389"><ele>889.0</ele></trkpt>
<trkpt lat="47.995956" lon="8.148158"><ele>877.5</ele></trkpt>
<trkpt lat="47.996597" lon="8.147912"><ele>865.9</ele></trkpt>
<trkpt lat="47.997233" lon="8.147649"><ele>854.3</ele></trkpt>
<trkpt lat="47.997864" lon="8.147369"><ele>842.7</ele></trkpt>
<trkpt lat="47.998489" lon="8.147070"><ele>831.0</ele></trkpt>
<trkpt lat="47.999107" lon="8.146752"><ele>819.3</ele></trkpt>
<trkpt lat="47.999718" lon="8.146414"><ele>807.7</ele></trkpt>
<trkpt lat="48.000321" lon="8.146055"><ele>796.0</ele></trkpt>
<trkpt lat="48.000916" lon="8.145674"><ele>784.4</ele></trkpt>
<trkpt lat="48.001501" lon="8.145271"><ele>772.8</ele></trkpt>
<trkpt lat="48.002077" lon="8.144845"><ele>761.3</ele></trkpt>
<trkpt lat="48.002642" lon="8.144395"><ele>749.9</ele></trkpt>
<trkpt lat="48.003196" lon="8.143920"><ele>738.5</ele></trkpt>
<trkpt lat="48.003738" lon="8.143421"><ele>727.1</ele></trkpt>
<trkpt lat="48.004268" lon="8.142897"><ele>715.9</ele></trkpt>
<trkpt lat="48.004786" lon="8.142347"><ele>704.7</ele></trkpt>
<trkpt lat="48.005290" lon="8.141771"><ele>693.7</ele></trkpt>
<trkpt lat="48.005780" lon="8.141169"><ele>682.7</ele></trkpt>
<trkpt lat="48.006256" lon="8.140541"><ele>671.9</ele></trkpt>
<trkpt lat="48.006717" lon="8.139887"><ele>661.2</ele></trkpt>
<trkpt lat="48.007163" lon="8.139207"><ele>650.6</ele></trkpt>
<trkpt lat="48.007593" lon="8.138500"><ele>640.1</ele></trkpt>
<trkpt lat="48.008007" lon="8.137767"><ele>629.8</ele></trkpt>
<trkpt lat="48.008405" lon="8.137008"><ele>619.6</ele></trkpt>
<trkpt lat="48.008787" lon="8.136224"><ele>609.6</ele></trkpt>
<trkpt lat="48.009151" lon="8.135414"><ele>599.7</ele></trkpt>
<trkpt lat="48.009499" lon="8.134580"><ele>589.9</ele></trkpt>
<trkpt lat="48.009829" lon="8.133721"><ele>580.4</ele></trkpt>
<trkpt lat="48.010142" lon="8.132838"><ele>571.0</ele></trkpt>
<trkpt lat="48.010437" lon="8.131932"><ele>561.7</ele></trkpt>
<trkpt lat="48.010715" lon="8.131003"><ele>552.7</ele></trkpt>
<trkpt lat="48.010975" lon="8.130052"><ele>543.8</ele></trkpt>
<trkpt lat="48.011218" lon="8.129080"><ele>535.1</ele></trkpt>
<trkpt lat="48.011444" lon="8.128088"><ele>526.6</ele></trkpt>
<trkpt lat="48.011652" lon="8.127077"><ele>518.3</ele></trkpt>
<trkpt lat="48.011843" lon="8.126046"><ele>510.2</ele></trkpt>
<trkpt lat="48.012018" lon="8.124998"><ele>502.4</ele></trkpt>
<trkpt lat="48.012175" lon="8.123934"><ele>494.8</ele></trkpt>
<trkpt lat="48.012316" lon="8.122853"><ele>487.4</ele></trkpt>
<trkpt lat="48.012442" lon="8.121758"><ele>480.3</ele></trkpt>
<trkpt lat="48.012551" lon="8.120650"><ele>473.4</ele></trkpt>
<trkpt lat="48.012646" lon="8.119529"><ele>466.9</ele></trkpt>
<trkpt lat="48.012725" lon="8.118397"><ele>460.6</ele></trkpt>
<trkpt lat="48.012790" lon="8.117255"><ele>454.7</ele></trkpt>
<trkpt lat="48.012842" lon="8.116104"><ele>449.2</ele></trkpt>
<trkpt lat="48.012880" lon="8.114945"><ele>444.0</ele></trkpt>
<trkpt lat="48.012906" lon="8.113779"><ele>439.4</ele></trkpt>
<trkpt lat="48.012920" lon="8.112608"><ele>435.2</ele></trkpt>
<trkpt lat="48.012922" lon="8.111432"><ele>431.7</ele></trkpt>
<trkpt lat="48.012914" lon="8.110253"><ele>429.0</ele></trkpt>
<trkpt lat="48.012896" lon="8.109072"><ele>427.7</ele></trkpt>
<trkpt lat="48.012869" lon="8.107891"><ele>427.5</ele></trkpt>
<trkpt lat="48.012833" lon="8.106709"><ele>427.2</ele></trkpt>
<trkpt lat="48.012789" lon="8.105529"><ele>426.8</ele></trkpt>
<trkpt lat="48.012739" lon="8.104352"><ele>426.4</ele></trkpt>
<trkpt lat="48.012682" lon="8.103177"><ele>426.0</ele></trkpt>
<trkpt lat="48.012620" lon="8.102007"><ele>425.5</ele></trkpt>
<trkpt lat="48.012553" lon="8.100843"><ele>424.9</ele></trkpt>
<trkpt lat="48.012482" lon="8.099685"><ele>424.4</ele></trkpt>
<trkpt lat="48.012409" lon="8.098535"><ele>423.7</ele></trkpt>
<trkpt lat="48.012333" lon="8.097392"><ele>423.1</ele></trkpt>
<trkpt lat="48.012256" lon="8.096259"><ele>422.4</ele></trkpt>
<trkpt lat="48.012178" lon="8.095135"><ele>421.7</ele></trkpt>
<trkpt lat="48.012101" lon="8.094022"><ele>421.0</ele></trkpt>
<trkpt lat="48.012024" lon="8.092920"><ele>420.3</ele></trkpt>
<trkpt lat="48.011949" lon="8.091829"><ele>419.6</ele></trkpt>
<trkpt lat="48.011876" lon="8.090751"><ele>418.9</ele></trkpt>
<trkpt lat="48.011807" lon="8.089686"><ele>418.2</ele></trkpt>
<trkpt lat="48.011741" lon="8.088634"><ele>417.5</ele></trkpt>
<trkpt lat="48.011680" lon="8.087596"><ele>416.9</ele></trkpt>
<trkpt lat="48.011624" lon="8.086572"><ele>416.2</ele></trkpt>
<trkpt lat="48.011573" lon="8.085563"><ele>415.6</ele></trkpt>
<trkpt lat="48.011529" lon="8.084568"><ele>415.0</ele></trkpt>
<trkpt lat="48.011491" lon="8.083588"><ele>414.5</ele></trkpt>
<trkpt lat="48.011460" lon="8.082623"><ele>414.0</ele></trkpt>
<trkpt lat="48.011438" lon="8.081673"><ele>413.6</ele></trkpt>
<trkpt lat="48.011423" lon="8.080737"><ele>413.2</ele></trkpt>
<trkpt lat="48.011416" lon="8.079817"><ele>412.8</ele></trkpt>
<trkpt lat="48.011419" lon="8.078912"><ele>412.5</ele></trkpt>
<trkpt lat="48.011430" lon="8.078021"><ele>412.3</ele></trkpt>
<trkpt lat="48.011451" lon="8.077146"><ele>412.1</ele></trkpt>
<trkpt lat="48.011481" lon="8.076284"><ele>412.0</ele></trkpt>
<trkpt lat="48.011521" lon="8.075436"><ele>412.0</ele></trkpt>
<trkpt lat="48.011570" lon="8.074602"><ele>412.0</ele></trkpt>
<trkpt lat="48.011630" lon="8.073782"><ele>412.1</ele></trkpt>
<trkpt lat="48.011698" lon="8.072974"><ele>412.3</ele></trkpt>
<trkpt lat="48.011777" lon="8.072179"><ele>412.5</ele></trkpt>
<trkpt lat="48.011865" lon="8.071396"><ele>412.7</ele></trkpt>
<trkpt lat="48.011962" lon="8.070624"><ele>413.1</ele></trkpt>
<trkpt lat="48.012069" lon="8.069863"><ele>413.5</ele></trkpt>
<trkpt lat="48.012184" lon="8.069113"><ele>413.9</ele></trkpt>
<trkpt lat="48.012308" lon="8.068372"><ele>414.4</ele></trkpt>
<trkpt lat="48.012441" lon="8.067641"><ele>414.9</ele></trkpt>
<trkpt lat="48.012581" lon="8.066918"><ele>415.5</ele></trkpt>
<trkpt lat="48.012729" lon="8.066203"><ele>416.1</ele></trkpt>
<trkpt lat="48.012883" lon="8.065496"><ele>416.7</ele></trkpt>
<trkpt lat="48.013045" lon="8.064794"><ele>417.4</ele></trkpt>
<trkpt lat="48.013212" lon="8.064099"><ele>418.1</ele></trkpt>
<trkpt lat="48.013385" lon="8.063409"><ele>418.7</ele></trkpt>
<trkpt lat="48.013562" lon="8.062724"><ele>419.5</ele></trkpt>
<trkpt lat="48.013744" lon="8.062042"><ele>420.2</ele></trkpt>
<trkpt lat="48.013929" lon="8.061364"><ele>420.9</ele></trkpt>
<trkpt lat="48.014116" lon="8.060688"><ele>421.6</ele></trkpt>
<trkpt lat="48.014306" lon="8.060014"><ele>422.3</ele></trkpt>
<trkpt lat="48.014497" lon="8.059342"><ele>422.9</ele></trkpt>
<trkpt lat="48.014689" lon="8.058670"><ele>423.6</ele></trkpt>
<trkpt lat="48.014881" lon="8.057999"><ele>424.2</ele></trkpt>
<trkpt lat="48.015071" lon="8.057327"><ele>424.8</ele></trkpt>
<trkpt lat="48.015260" lon="8.056654"><ele>425.4</ele></trkpt>
<trkpt lat="48.015446" lon="8.055979"><ele>425.9</ele></trkpt>
<trkpt lat="48.015629" lon="8.055303"><ele>426.3</ele></trkpt>
<trkpt lat="48.015807" lon="8.054624"><ele>426.7</ele></trkpt>
<trkpt lat="48.015981" lon="8.053942"><ele>427.1</ele></trkpt>
<trkpt lat="48.016149" lon="8.053257"><ele>427.4</ele></trkpt>
<trkpt lat="48.016310" lon="8.052568"><ele>427.6</ele></trkpt>
<trkpt lat="48.016464" lon="8.051875"><ele>427.8</ele></trkpt>
<trkpt lat="48.016610" lon="8.051178"><ele>427.9</ele></trkpt>
<trkpt lat="48.016747" lon="8.050477"><ele>428.0</ele></trkpt>
<trkpt lat="48.016875" lon="8.049771"><ele>428.0</ele></trkpt>
<trkpt lat="48.016993" lon="8.049060"><ele>427.9</ele></trkpt>
<trkpt lat="48.017100" lon="8.048344"><ele>427.8</ele></trkpt>
<trkpt lat="48.017195" lon="8.047622"><ele>427.6</ele></trkpt>
<trkpt lat="48.017278" lon="8.046896"><ele>427.3</ele></trkpt>
<trkpt lat="48.017349" lon="8.046164"><ele>427.0</ele></trkpt>
<trkpt lat="48.017407" lon="8.045428"><ele>426.7</ele></trkpt>
<trkpt lat="48.017451" lon="8.044686"><ele>426.2</ele></trkpt>
<trkpt lat="48.017481" lon="8.043939"><ele>425.8</ele></trkpt>
<trkpt lat="48.017496" lon="8.043187"><ele>425.3</ele></trkpt>
<trkpt lat="48.017497" lon="8.042430"><ele>424.7</ele></trkpt>
<trkpt lat="48.017483" lon="8.041668"><ele>424.1</ele></trkpt>
<trkpt lat="48.017454" lon="8.040903"><ele>423.5</ele></trkpt>
<trkpt lat="48.017409" lon="8.040133"><ele>422.8</ele></trkpt>
<trkpt lat="48.017348" lon="8.039359"><ele>422.2</ele></trkpt>
<trkpt lat="48.017272" lon="8.038582"><ele>421.5</ele></trkpt>
<trkpt lat="48.017180" lon="8.037801"><ele>420.8</ele></trkpt>
<trkpt lat="48.017073" lon="8.037018"><ele>420.0</ele></trkpt>
<trkpt lat="48.016949" lon="8.036232"><ele>419.3</ele></trkpt>
<trkpt lat="48.016810" lon="8.035444"><ele>418.6</ele></trkpt>
<trkpt lat="48.016656" lon="8.034654"><ele>417.9</ele></trkpt>
<trkpt lat="48.016487" lon="8.033863"><ele>417.3</ele></trkpt>
<trkpt lat="48.016302" lon="8.033071"><ele>416.6</ele></trkpt>
<trkpt lat="48.016103" lon="8.032278"><ele>416.0</ele></trkpt>
<trkpt lat="48.015890" lon="8.031486"><ele>415.4</ele></trkpt>
<trkpt lat="48.015664" lon="8.030694"><ele>414.8</ele></trkpt>
<trkpt lat="48.015424" lon="8.029903"><ele>414.3</ele></trkpt>
<trkpt lat="48.015172" lon="8.029113"><ele>413.8</ele></trkpt>
<trkpt lat="48.014907" lon="8.028325"><ele>413.4</ele></trkpt>
<trkpt lat="48.014631" lon="8.027540"><ele>413.0</ele></trkpt>
<trkpt lat="48.014344" lon="8.026757"><ele>412.7</ele></trkpt>
<trkpt lat="48.014047" lon="8.025977"><ele>412.4</ele></trkpt>
<trkpt lat="48.013741" lon="8.025200"><ele>412.2</ele></trkpt>
<trkpt lat="48.013427" lon="8.024428"><ele>412.1</ele></trkpt>
<trkpt lat="48.013105" lon="8.023660"><ele>412.0</ele></trkpt>
<trkpt lat="48.012776" lon="8.022897"><ele>412.0</ele></trkpt>
<trkpt lat="48.012441" lon="8.022138"><ele>412.1</ele></trkpt>
<trkpt lat="48.012101" lon="8.021385"><ele>412.2</ele></trkpt>
<trkpt lat="48.011757" lon="8.020638"><ele>412.3</ele></trkpt>
<trkpt lat="48.011409" lon="8.019896"><ele>412.6</ele></trkpt>
<trkpt lat="48.011060" lon="8.019161"><ele>412.9</ele></trkpt>
<trkpt lat="48.010710" lon="8.018432"><ele>413.2</ele></trkpt>
<trkpt lat="48.010359" lon="8.017710"><ele>413.6</ele></trkpt>
<trkpt lat="48.010009" lon="8.016995"><ele>414.1</ele></trkpt>
<trkpt lat="48.009661" lon="8.016286"><ele>414.6</ele></trkpt>
<trkpt lat="48.009316" lon="8.015584"><ele>415.1</ele></trkpt>
<trkpt lat="48.008975" lon="8.014890"><ele>415.7</ele></trkpt>
<trkpt lat="48.008639" lon="8.014203"><ele>416.3</ele></trkpt>
<trkpt lat="48.008308" lon="8.013522"><ele>417.0</ele></trkpt>
<trkpt lat="48.007985" lon="8.012849"><ele>417.6</ele></trkpt>
<trkpt lat="48.007669" lon="8.012183"><ele>418.3</ele></trkpt>
<trkpt lat="48.007362" lon="8.011524"><ele>419.0</ele></trkpt>
<trkpt lat="48.007064" lon="8.010872"><ele>419.7</ele></trkpt>
<trkpt lat="48.006778" lon="8.010227"><ele>420.5</ele></trkpt>
<trkpt lat="48.006502" lon="8.009588"><ele>421.2</ele></trkpt>
<trkpt lat="48.006239" lon="8.008955"><ele>421.9</ele></trkpt>
<trkpt lat="48.005989" lon="8.008328"><ele>422.6</ele></trkpt>
<trkpt lat="48.005752" lon="8.007707"><ele>423.2</ele></trkpt>
<trkpt lat="48.005530" lon="8.007092"><ele>423.9</ele></trkpt>
<trkpt lat="48.005323" lon="8.006482"><ele>424.5</ele></trkpt>
<trkpt lat="48.005132" lon="8.005877"><ele>425.0</ele></trkpt>
<trkpt lat="48.004958" lon="8.005276"><ele>425.6</ele></trkpt>
<trkpt lat="48.004800" lon="8.004679"><ele>426.1</ele></trkpt>
<trkpt lat="48.004660" lon="8.004086"><ele>426.5</ele></trkpt>
<trkpt lat="48.004537" lon="8.003496"><ele>426.9</ele></trkpt>
<trkpt lat="48.004433" lon="8.002909"><ele>427.2</ele></trkpt>
<trkpt lat="48.004347" lon="8.002324"><ele>427.5</ele></trkpt>
<trkpt lat="48.004280" lon="8.001742"><ele>427.7</ele></trkpt>
<trkpt lat="48.004232" lon="8.001160"><ele>427.9</ele></trkpt>
<trkpt lat="48.004204" lon="8.000580"><ele>428.0</ele></trkpt>
<trkpt lat="48.004194" lon="8.000000"><ele>428.0</ele></trkpt>
<trkpt lat="48.004204" lon="7.999420"><ele>428.0</ele></trkpt>
<trkpt lat="48.004232" lon="7.998840"><ele>427.9</ele></trkpt>
<trkpt lat="48.004280" lon="7.998258"><ele>427.7</ele></trkpt>
<trkpt lat="48.004347" lon="7.997676"><ele>427.5</ele></trkpt>
<trkpt lat="48.004433" lon="7.997091"><ele>427.2</ele></trkpt>
<trkpt lat="48.004537" lon="7.996504"><ele>426.9</ele></trkpt>
<trkpt lat="48.004660" lon="7.995914"><ele>426.5</ele></trkpt>
<trkpt lat="48.004800" lon="7.995321"><ele>426.1</ele></trkpt>
<trkpt lat="48.004958" lon="7.994724"><ele>425.6</ele></trkpt>
<trkpt lat="48.005132" lon="7.994123"><ele>425.0</ele></trkpt>
<trkpt lat="48.005323" lon="7.993518"><ele>424.5</ele></trkpt>
<trkpt lat="48.005530" lon="7.992908"><ele>423.9</ele></trkpt>
<trkpt lat="48.005752" lon="7.992293"><ele>423.2</ele></trkpt>
<trkpt lat="48.005989" lon="7.991672"><ele>422.6</ele></trkpt>
<trkpt lat="48.006239" lon="7.991045"><ele>421.9</ele></trkpt>
<trkpt lat="48.006502" lon="7.990412"><ele>421.2</ele></trkpt>
<trkpt lat="48.006778" lon="7.989773"><ele>420.5</ele></trkpt>
<trkpt lat="48.007064" lon="7.989128"><ele>419.7</ele></trkpt>
<trkpt lat="48.007362" lon="7.988476"><ele>419.0</ele></trkpt>
<trkpt lat="48.007669" lon="7.987817"><ele>418.3</ele></trkpt>
<trkpt lat="48.007985" lon="7.987151"><ele>417.6</ele></trkpt>
<trkpt lat="48.008308" lon="7.986478"><ele>417.0</ele></trkpt>
<trkpt lat="48.008639" lon="7.985797"><ele>416.3</ele></trkpt>
<trkpt lat="48.008975" lon="7.985110"><ele>415.7</ele></trkpt>
<trkpt lat="48.009316" lon="7.984416"><ele>415.1</ele></trkpt>
<trkpt lat="48.009661" lon="7.983714"><ele>414.6</ele></trkpt>
<trkpt lat="48.010009" lon="7.983005"><ele>414.1</ele></trkpt>
<trkpt lat="48.010359" lon="7.982290"><ele>413.6</ele></trkpt>
<trkpt lat="48.010710" lon="7.981568"><ele>413.2</ele></trkpt>
<trkpt lat="48.011060" lon="7.980839"><ele>412.9</ele></trkpt>
<trkpt lat="48.011409" lon="7.980104"><ele>412.6</ele></trkpt>
<trkpt lat="48.011757" lon="7.979362"><ele>412.3</ele></trkpt>
<trkpt lat="48.012101" lon="7.978615"><ele>412.2</ele></trkpt>
<trkpt lat="48.012441" lon="7.977862"><ele>412.1</ele></trkpt>
<trkpt lat="48.012776" lon="7.977103"><ele>412.0</ele></trkpt>
<trkpt lat="48.013105" lon="7.976340"><ele>412.0</ele></trkpt>
<trkpt lat="48.013427" lon="7.975572"><ele>412.1</ele></trkpt>
<trkpt lat="48.013741" lon="7.974800"><ele>412.2</ele></trkpt>
<trkpt lat="48.014047" lon="7.974023"><ele>412.4</ele></trkpt>
<trkpt lat="48.014344" lon="7.973243"><ele>412.7</ele></trkpt>
<trkpt lat="48.014631" lon="7.972460"><ele>413.0</ele></trkpt>
<trkpt lat="48.014907" lon="7.971675"><ele>413.4</ele></trkpt>
<trkpt lat="48.015172" lon="7.970887"><ele>413.8</ele></trkpt>
<trkpt lat="48.015424" lon="7.970097"><ele>414.3</ele></trkpt>
<trkpt lat="48.015664" lon="7.969306"><ele>414.8</ele></trkpt>
<trkpt lat="48.015890" lon="7.968514"><ele>415.4</ele></trkpt>
<trkpt lat="48.016103" lon="7.967722"><ele>416.0</ele></trkpt>
<trkpt lat="48.016302" lon="7.966929"><ele>416.6</ele></trkpt>
<trkpt lat="48.016487" lon="7.966137"><ele>417.3</ele></trkpt>
<trkpt lat="48.016656" lon="7.965346"><ele>417.9</ele></trkpt>
<trkpt lat="48.016810" lon="7.964556"><ele>418.6</ele></trkpt>
<trkpt lat="48.016949" lon="7.963768"><ele>419.3</ele></trkpt>
<trkpt lat="48.017073" lon="7.962982"><ele>420.0</ele></trkpt>
<trkpt lat="48.017180" lon="7.962199"><ele>420.8</ele></trkpt>
<trkpt lat="48.017272" lon="7.961418"><ele>421.5</ele></trkpt>
<trkpt lat="48.017348" lon="7.960641"><ele>422.2</ele></trkpt>
<trkpt lat="48.017409" lon="7.959867"><ele>422.8</ele></trkpt>
<trkpt lat="48.017454" lon="7.959097"><ele>423.5</ele></trkpt>
<trkpt lat="48.017483" lon="7.958332"><ele>424.1</ele></trkpt>
<trkpt lat="48.017497" lon="7.957570"><ele>424.7</ele></trkpt>
<trkpt lat="48.017496" lon="7.956813"><ele>425.3</ele></trkpt>
<trkpt lat="48.017481" lon="7.956061"><ele>425.9</ele></trkpt>
<trkpt lat="48.017451" lon="7.955314"><ele>428.3</ele></trkpt>
<trkpt lat="48.017407" lon="7.954572"><ele>431.7</ele></trkpt>
<trkpt lat="48.017349" lon="7.953836"><ele>435.8</ele></trkpt>
<trkpt lat="48.017278" lon="7.953104"><ele>440.5</ele></trkpt>
<trkpt lat="48.017195" lon="7.952378"><ele>445.8</ele></trkpt>
<trkpt lat="48.017100" lon="7.951656"><ele>451.4</ele></trkpt>
<trkpt lat="48.016993" lon="7.950940"><ele>457.5</ele></trkpt>
<trkpt lat="48.016875" lon="7.950229"><ele>463.9</ele></trkpt>
<trkpt lat="48.016747" lon="7.949523"><ele>470.6</ele></trkpt>
<trkpt lat="48.016610" lon="7.948822"><ele>477.6</ele></trkpt>
<trkpt lat="48.016464" lon="7.948125"><ele>484.9</ele></trkpt>
<trkpt lat="48.016310" lon="7.947432"><ele>492.4</ele></trkpt>
<trkpt lat="48.016149" lon="7.946743"><ele>500.2</ele></trkpt>
<trkpt lat="48.015981" lon="7.946058"><ele>508.2</ele></trkpt>
<trkpt lat="48.015807" lon="7.945376"><ele>516.4</ele></trkpt>
<trkpt lat="48.015629" lon="7.944697"><ele>524.8</ele></trkpt>
<trkpt lat="48.015446" lon="7.944021"><ele>533.4</ele></trkpt>
<trkpt lat="48.015260" lon="7.943346"><ele>542.1</ele></trkpt>
<trkpt lat="48.015071" lon="7.942673"><ele>551.1</ele></trkpt>
<trkpt lat="48.014881" lon="7.942001"><ele>560.1</ele></trkpt>
<trkpt lat="48.014689" lon="7.941330"><ele>569.3</ele></trkpt>
<trkpt lat="48.014497" lon="7.940658"><ele>578.7</ele></trkpt>
<trkpt lat="48.014306" lon="7.939986"><ele>588.2</ele></trkpt>
<trkpt lat="48.014116" lon="7.939312"><ele>597.8</ele></trkpt>
<trkpt lat="48.013929" lon="7.938636"><ele>607.6</ele></trkpt>
<trkpt lat="48.013744" lon="7.937958"><ele>617.5</ele></trkpt>
<trkpt lat="48.013562" lon="7.937276"><ele>627.5</ele></trkpt>
<trkpt lat="48.013385" lon="7.936591"><ele>637.6</ele></trkpt>
<trkpt lat="48.013212" lon="7.935901"><ele>647.8</ele></trkpt>
<trkpt lat="48.013045" lon="7.935206"><ele>658.1</ele></trkpt>
<trkpt lat="48.012883" lon="7.934504"><ele>668.6</ele></trkpt>
<trkpt lat="48.012729" lon="7.933797"><ele>679.1</ele></trkpt>
<trkpt lat="48.012581" lon="7.933082"><ele>689.7</ele></trkpt>
<trkpt lat="48.012441" lon="7.932359"><ele>700.4</ele></trkpt>
<trkpt lat="48.012308" lon="7.931628"><ele>711.2</ele></trkpt>
<trkpt lat="48.012184" lon="7.930887"><ele>722.1</ele></trkpt>
<trkpt lat="48.012069" lon="7.930137"><ele>733.0</ele></trkpt>
<trkpt lat="48.011962" lon="7.929376"><ele>744.0</ele></trkpt>
<trkpt lat="48.011865" lon="7.928604"><ele>755.1</ele></trkpt>
<trkpt lat="48.011777" lon="7.927821"><ele>766.2</ele></trkpt>
<trkpt lat="48.011698" lon="7.927026"><ele>777.4</ele></trkpt>
<trkpt lat="48.011630" lon="7.926218"><ele>788.6</ele></trkpt>
<trkpt lat="48.011570" lon="7.925398"><ele>799.9</ele></trkpt>
<trkpt lat="48.011521" lon="7.924564"><ele>811.2</ele></trkpt>
<trkpt lat="48.011481" lon="7.923716"><ele>822.5</ele></trkpt>
<trkpt lat="48.011451" lon="7.922854"><ele>833.8</ele></trkpt>
<trkpt lat="48.011430" lon="7.921979"><ele>845.2</ele></trkpt>
<trkpt lat="48.011419" lon="7.921088"><ele>856.5</ele></trkpt>
<trkpt lat="48.011416" lon="7.920183"><ele>867.8</ele></trkpt>
<trkpt lat="48.011423" lon="7.919263"><ele>879.1</ele></trkpt>
<trkpt lat="48.011438" lon="7.918327"><ele>890.4</ele></trkpt>
<trkpt lat="48.011460" lon="7.917377"><ele>901.6</ele></trkpt>
<trkpt lat="48.011491" lon="7.916412"><ele>912.7</ele></trkpt>
<trkpt lat="48.011529" lon="7.915432"><ele>923.8</ele></trkpt>
<trkpt lat="48.011573" lon="7.914437"><ele>934.9</ele></trkpt>
<trkpt lat="48.011624" lon="7.913428"><ele>945.8</ele></trkpt>
<trkpt lat="48.011680" lon="7.912404"><ele>956.6</ele></trkpt>
<trkpt lat="48.011741" lon="7.911366"><ele>967.4</ele></trkpt>
<trkpt lat="48.011807" lon="7.910314"><ele>977.9</ele></trkpt>
<trkpt lat="48.011876" lon="7.909249"><ele>988.4</ele></trkpt>
<trkpt lat="48.011949" lon="7.908171"><ele>998.7</ele></trkpt>
<trkpt lat="48.012024" lon="7.907080"><ele>1008.9</ele></trkpt>
<trkpt lat="48.012101" lon="7.905978"><ele>1018.9</ele></trkpt>
<trkpt lat="48.012178" lon="7.904865"><ele>1028.7</ele></trkpt>
<trkpt lat="48.012256" lon="7.903741"><ele>1038.3</ele></trkpt>
<trkpt lat="48.012333" lon="7.902608"><ele>1047.7</ele></trkpt>
<trkpt lat="48.012409" lon="7.901465"><ele>1056.9</ele></trkpt>
<trkpt lat="48.012482" lon="7.900315"><ele>1065.8</ele></trkpt>
<trkpt lat="48.012553" lon="7.899157"><ele>1074.6</ele></trkpt>
<trkpt lat="48.012620" lon="7.897993"><ele>1083.0</ele></trkpt>
<trkpt lat="48.012682" lon="7.896823"><ele>1091.3</ele></trkpt>
<trkpt lat="48.012739" lon="7.895648"><ele>1099.2</ele></trkpt>
<trkpt lat="48.012789" lon="7.894471"><ele>1106.9</ele></trkpt>
<trkpt lat="48.012833" lon="7.893291"><ele>1114.3</ele></trkpt>
<trkpt lat="48.012869" lon="7.892109"><ele>1121.4</ele></trkpt>
<trkpt lat="48.012896" lon="7.890928"><ele>1128.3</ele></trkpt>
<trkpt lat="48.012914" lon="7.889747"><ele>1134.8</ele></trkpt>
<trkpt lat="48.012922" lon="7.888568"><ele>1141.0</ele></trkpt>
<trkpt lat="48.012920" lon="7.887392"><ele>1146.9</ele></trkpt>
<trkpt lat="48.012906" lon="7.886221"><ele>1152.5</ele></trkpt>
<trkpt lat="48.012880" lon="7.885055"><ele>1157.8</ele></trkpt>
<trkpt lat="48.012842" lon="7.883896"><ele>1162.7</ele></trkpt>
<trkpt lat="48.012790" lon="7.882745"><ele>1167.4</ele></trkpt>
<trkpt lat="48.012725" lon="7.881603"><ele>1171.7</ele></trkpt>
<trkpt lat="48.012646" lon="7.880471"><ele>1175.7</ele></trkpt>
<trkpt lat="48.012551" lon="7.879350"><ele>1179.3</ele></trkpt>
<trkpt lat="48.012442" lon="7.878242"><ele>1182.7</ele></trkpt>
<trkpt lat="48.012316" lon="7.877147"><ele>1185.7</ele></trkpt>
<trkpt lat="48.012175" lon="7.876066"><ele>1188.4</ele></trkpt>
<trkpt lat="48.012018" lon="7.875002"><ele>1190.8</ele></trkpt>
<trkpt lat="48.011843" lon="7.873954"><ele>1192.8</ele></trkpt>
<trkpt lat="48.011652" lon="7.872923"><ele>1194.6</ele></trkpt>
<trkpt lat="48.011444" lon="7.871912"><ele>1196.0</ele></trkpt>
<trkpt lat="48.011218" lon="7.870920"><ele>1197.1</ele></trkpt>
<trkpt lat="48.010975" lon="7.869948"><ele>1198.0</ele></trkpt>
<trkpt lat="48.010715" lon="7.868997"><ele>1198.5</ele></trkpt>
<trkpt lat="48.010437" lon="7.868068"><ele>1198.7</ele></trkpt>
<trkpt lat="48.010142" lon="7.867162"><ele>1198.7</ele></trkpt>
<trkpt lat="48.009829" lon="7.866279"><ele>1198.4</ele></trkpt>
<trkpt lat="48.009499" lon="7.865420"><ele>1197.8</ele></trkpt>
<trkpt lat="48.009151" lon="7.864586"><ele>1196.9</ele></trkpt>
<trkpt lat="48.008787" lon="7.863776"><ele>1195.7</ele></trkpt>
<trkpt lat="48.008405" lon="7.862992"><ele>1194.3</ele></trkpt>
<trkpt lat="48.008007" lon="7.862233"><ele>1192.7</ele></trkpt>
<trkpt lat="48.007593" lon="7.861500"><ele>1190.8</ele></trkpt>
<trkpt lat="48.007163" lon="7.860793"><ele>1188.6</ele></trkpt>
<trkpt lat="48.006717" lon="7.860113"><ele>1186.2</ele></trkpt>
<trkpt lat="48.006256" lon="7.859459"><ele>1183.6</ele></trkpt>
<trkpt lat="48.005780" lon="7.858831"><ele>1180.8</ele></trkpt>
<trkpt lat="48.005290" lon="7.858229"><ele>1177.7</ele></trkpt>
<trkpt lat="48.004786" lon="7.857653"><ele>1174.4</ele></trkpt>
<trkpt lat="48.004268" lon="7.857103"><ele>1170.9</ele></trkpt>
<trkpt lat="48.003738" lon="7.856579"><ele>1167.2</ele></trkpt>
<trkpt lat="48.003196" lon="7.856080"><ele>1163.2</ele></trkpt>
<trkpt lat="48.002642" lon="7.855605"><ele>1159.1</ele></trkpt>
<trkpt lat="48.002077" lon="7.855155"><ele>1154.7</ele></trkpt>
<trkpt lat="48.001501" lon="7.854729"><ele>1150.2</ele></trkpt>
<trkpt lat="48.000916" lon="7.854326"><ele>1145.4</ele></trkpt>
<trkpt lat="48.000321" lon="7.853945"><ele>1140.4</ele></trkpt>
<trkpt lat="47.999718" lon="7.853586"><ele>1135.3</ele></trkpt>
<trkpt lat="47.999107" lon="7.853248"><ele>1129.9</ele></trkpt>
<trkpt lat="47.998489" lon="7.852930"><ele>1124.4</ele></trkpt>
<trkpt lat="47.997864" lon="7.852631"><ele>1118.7</ele></trkpt>
<trkpt lat="47.997233" lon="7.852351"><ele>1112.7</ele></trkpt>
<trkpt lat="47.996597" lon="7.852088"><ele>1106.6</ele></trkpt>
<trkpt lat="47.995956" lon="7.851842"><ele>1100.3</ele></trkpt>
<trkpt lat="47.995311" lon="7.851611"><ele>1093.7</ele></trkpt>
<trkpt lat="47.994663" lon="7.851394"><ele>1087.0</ele></trkpt>
<trkpt lat="47.994012" lon="7.851190"><ele>1080.1</ele></trkpt>
<trkpt lat="47.993358" lon="7.850999"><ele>1073.0</ele></trkpt>
<trkpt lat="47.992703" lon="7.850818"><ele>1065.6</ele></trkpt>
<trkpt lat="47.992047" lon="7.850647"><ele>1058.1</ele></trkpt>
<trkpt lat="47.991391" lon="7.850485"><ele>1050.4</ele></trkpt>
<trkpt lat="47.990734" lon="7.850330"><ele>1042.5</ele></trkpt>
<trkpt lat="47.990078" lon="7.850182"><ele>1034.4</ele></trkpt>
<trkpt lat="47.989424" lon="7.850039"><ele>1026.1</ele></trkpt>
<trkpt lat="47.988770" lon="7.849899"><ele>1017.6</ele></trkpt>
<trkpt lat="47.988119" lon="7.849763"><ele>1008.8</ele></trkpt>
<trkpt lat="47.987469" lon="7.849629"><ele>999.9</ele></trkpt>
<trkpt lat="47.986823" lon="7.849495"><ele>990.8</ele></trkpt>
<trkpt lat="47.986179" lon="7.849360"><ele>981.5</ele></trkpt>
<trkpt lat="47.985539" lon="7.849224"><ele>972.0</ele></trkpt>
<trkpt lat="47.984903" lon="7.849086"><ele>962.4</ele></trkpt>
<trkpt lat="47.984270" lon="7.848944"><ele>952.5</ele></trkpt>
<trkpt lat="47.983641" lon="7.848798"><ele>942.4</ele></trkpt>
<trkpt lat="47.983017" lon="7.848647"><ele>932.2</ele></trkpt>
<trkpt lat="47.982397" lon="7.848490"><ele>921.8</ele></trkpt>
<trkpt lat="47.981782" lon="7.848325"><ele>911.2</ele></trkpt>
<trkpt lat="47.981171" lon="7.848153"><ele>900.5</ele></trkpt>
<trkpt lat="47.980566" lon="7.847973"><ele>889.6</ele></trkpt>
<trkpt lat="47.979965" lon="7.847784"><ele>878.6</ele></trkpt>
<trkpt lat="47.979368" lon="7.847585"><ele>867.4</ele></trkpt>
<trkpt lat="47.978777" lon="7.847377"><ele>856.1</ele></trkpt>
<trkpt lat="47.978190" lon="7.847158"><ele>844.7</ele></trkpt>
<trkpt lat="47.977608" lon="7.846929"><ele>833.2</ele></trkpt>
<trkpt lat="47.977031" lon="7.846689"><ele>821.5</ele></trkpt>
<trkpt lat="47.976458" lon="7.846437"><ele>809.8</ele></trkpt>
<trkpt lat="47.975889" lon="7.846175"><ele>798.0</ele></trkpt>
<trkpt lat="47.975325" lon="7.845901"><ele>786.1</ele></trkpt>
<trkpt lat="47.974764" lon="7.845616"><ele>774.2</ele></trkpt>
<trkpt lat="47.974207" lon="7.845319"><ele>762.2</ele></trkpt>
<trkpt lat="47.973654" lon="7.845012"><ele>750.2</ele></trkpt>
<trkpt lat="47.973103" lon="7.844694"><ele>738.1</ele></trkpt>
<trkpt lat="47.972556" lon="7.844366"><ele>726.1</ele></trkpt>
<trkpt lat="47.972012" lon="7.844028"><ele>714.1</ele></trkpt>
<trkpt lat="47.971470" lon="7.843680"><ele>702.1</ele></trkpt>
<trkpt lat="47.970930" lon="7.843323"><ele>690.1</ele></trkpt>
<trkpt lat="47.970392" lon="7.842958"><ele>678.2</ele></trkpt>
<trkpt lat="47.969855" lon="7.842586"><ele>666.4</ele></trkpt>
<trkpt lat="47.969320" lon="7.842207"><ele>654.6</ele></trkpt>
<trkpt lat="47.968785" lon="7.841821"><ele>642.9</ele></trkpt>
<trkpt lat="47.968251" lon="7.841431"><ele>631.4</ele></trkpt>
<trkpt lat="47.967718" lon="7.841036"><ele>620.0</ele></trkpt>
<trkpt lat="47.967184" lon="7.840638"><ele>608.7</ele></trkpt>
<trkpt lat="47.966650" lon="7.840237"><ele>597.6</ele></trkpt>
<trkpt lat="47.966116" lon="7.839836"><ele>586.6</ele></trkpt>
<trkpt lat="47.965580" lon="7.839435"><ele>575.9</ele></trkpt>
<trkpt lat="47.965044" lon="7.839035"><ele>565.3</ele></trkpt>
<trkpt lat="47.964505" lon="7.838637"><ele>555.0</ele></trkpt>
<trkpt lat="47.963965" lon="7.838243"><ele>544.9</ele></trkpt>
<trkpt lat="47.963423" lon="7.837854"><ele>535.0</ele></trkpt>
<trkpt lat="47.962879" lon="7.837471"><ele>525.4</ele></trkpt>
<trkpt lat="47.962332" lon="7.837095"><ele>516.1</ele></trkpt>
<trkpt lat="47.961783" lon="7.836728"><ele>507.0</ele></trkpt>
<trkpt lat="47.961231" lon="7.836372"><ele>498.3</ele></trkpt>
<trkpt lat="47.960676" lon="7.836026"><ele>489.9</ele></trkpt>
<trkpt lat="47.960118" lon="7.835694"><ele>481.8</ele></trkpt>
<trkpt lat="47.959556" lon="7.835376"><ele>474.0</ele></trkpt>
<trkpt lat="47.958991" lon="7.835073"><ele>466.6</ele></trkpt>
<trkpt lat="47.958423" lon="7.834786"><ele>459.6</ele></trkpt>
<trkpt lat="47.957851" lon="7.834518"><ele>453.0</ele></trkpt>
<trkpt lat="47.957276" lon="7.834269"><ele>446.8</ele></trkpt>
<trkpt lat="47.956697" lon="7.834040"><ele>441.1</ele></trkpt>
<trkpt lat="47.956114" lon="7.833833"><ele>435.8</ele></trkpt>
<trkpt lat="47.955528" lon="7.833649"><ele>431.1</ele></trkpt>
<trkpt lat="47.954939" lon="7.833488"><ele>426.9</ele></trkpt>
<trkpt lat="47.954346" lon="7.833352"><ele>423.3</ele></trkpt>
<trkpt lat="47.953750" lon="7.833242"><ele>420.5</ele></trkpt>
<trkpt lat="47.953151" lon="7.833159"><ele>418.5</ele></trkpt>
<trkpt lat="47.952548" lon="7.833103"><ele>418.1</ele></trkpt>
<trkpt lat="47.951943" lon="7.833076"><ele>418.8</ele></trkpt>
<trkpt lat="47.951335" lon="7.833078"><ele>419.5</ele></trkpt>
<trkpt lat="47.950725" lon="7.833109"><ele>420.2</ele></trkpt>
<trkpt lat="47.950113" lon="7.833172"><ele>420.9</ele></trkpt>
<trkpt lat="47.949498" lon="7.833265"><ele>421.6</ele></trkpt>
<trkpt lat="47.948882" lon="7.833390"><ele>422.3</ele></trkpt>
<trkpt lat="47.948264" lon="7.833546"><ele>423.0</ele></trkpt>
<trkpt lat="47.947645" lon="7.833734"><ele>423.6</ele></trkpt>
<trkpt lat="47.947025" lon="7.833955"><ele>424.3</ele></trkpt>
<trkpt lat="47.946404" lon="7.834208"><ele>424.8</ele></trkpt>
<trkpt lat="47.945783" lon="7.834494"><ele>425.4</ele></trkpt>
<trkpt lat="47.945162" lon="7.834812"><ele>425.9</ele></trkpt>
<trkpt lat="47.944541" lon="7.835162"><ele>426.3</ele></trkpt>
<trkpt lat="47.943920" lon="7.835544"><ele>426.8</ele></trkpt>
<trkpt lat="47.943301" lon="7.835958"><ele>427.1</ele></trkpt>
<trkpt lat="47.942683" lon="7.836403"><ele>427.4</ele></trkpt>
<trkpt lat="47.942066" lon="7.836880"><ele>427.6</ele></trkpt>
<trkpt lat="47.941452" lon="7.837386"><ele>427.8</ele></trkpt>
<trkpt lat="47.940840" lon="7.837922"><ele>427.9</ele></trkpt>
<trkpt lat="47.940230" lon="7.838486"><ele>428.0</ele></trkpt>
<trkpt lat="47.939623" lon="7.839079"><ele>428.0</ele></trkpt>
<trkpt lat="47.939019" lon="7.839699"><ele>427.9</ele></trkpt>
<trkpt lat="47.938419" lon="7.840346"><ele>427.8</ele></trkpt>
<trkpt lat="47.937823" lon="7.841017"><ele>427.6</ele></trkpt>
<trkpt lat="47.937230" lon="7.841713"><ele>427.3</ele></trkpt>
<trkpt lat="47.936642" lon="7.842432"><ele>427.0</ele></trkpt>
<trkpt lat="47.936059" lon="7.843172"><ele>426.6</ele></trkpt>
<trkpt lat="47.935480" lon="7.843933"><ele>426.2</ele></trkpt>
<trkpt lat="47.934907" lon="7.844713"><ele>425.7</ele></trkpt>
<trkpt lat="47.934338" lon="7.845511"><ele>425.2</ele></trkpt>
<trkpt lat="47.933776" lon="7.846325"><ele>424.7</ele></trkpt>
<trkpt lat="47.933218" lon="7.847155"><ele>424.1</ele></trkpt>
<trkpt lat="47.932667" lon="7.847997"><ele>423.4</ele></trkpt>
<trkpt lat="47.932121" lon="7.848852"><ele>422.8</ele></trkpt>
<trkpt lat="47.931582" lon="7.849717"><ele>422.1</ele></trkpt>
<trkpt lat="47.931048" lon="7.850591"><ele>421.4</ele></trkpt>
<trkpt lat="47.930521" lon="7.851472"><ele>420.7</ele></trkpt>
<trkpt lat="47.930000" lon="7.852359"><ele>420.0</ele></trkpt>
<trkpt lat="47.929485" lon="7.853249"><ele>419.3</ele></trkpt>
<trkpt lat="47.928977" lon="7.854143"><ele>418.6</ele></trkpt>
<trkpt lat="47.928474" lon="7.855037"><ele>417.9</ele></trkpt>
<trkpt lat="47.927978" lon="7.855930"><ele>417.2</ele></trkpt>
<trkpt lat="47.927488" lon="7.856821"><ele>416.6</ele></trkpt>
<trkpt lat="47.927004" lon="7.857708"><ele>415.9</ele></trkpt>
<trkpt lat="47.926526" lon="7.858590"><ele>415.3</ele></trkpt>
<trkpt lat="47.926053" lon="7.859465"><ele>414.8</ele></trkpt>
<trkpt lat="47.925587" lon="7.860332"><ele>414.3</ele></trkpt>
<trkpt lat="47.925126" lon="7.861189"><ele>413.8</ele></trkpt>
<trkpt lat="47.924670" lon="7.862035"><ele>413.4</ele></trkpt>
<trkpt lat="47.924219" lon="7.862868"><ele>413.0</ele></trkpt>
<trkpt lat="47.923773" lon="7.863688"><ele>412.7</ele></trkpt>
<trkpt lat="47.923332" lon="7.864493"><ele>412.4</ele></trkpt>
<trkpt lat="47.922896" lon="7.865282"><ele>412.2</ele></trkpt>
<trkpt lat="47.922464" lon="7.866054"><ele>412.1</ele></trkpt>
<trkpt lat="47.922035" lon="7.866807"><ele>412.0</ele></trkpt>
<trkpt lat="47.921610" lon="7.867541"><ele>412.0</ele></trkpt>
<trkpt lat="47.921189" lon="7.868256"><ele>412.1</ele></trkpt>
<trkpt lat="47.920771" lon="7.868949"><ele>412.2</ele></trkpt>
<trkpt lat="47.920355" lon="7.869621"><ele>412.4</ele></trkpt>
<trkpt lat="47.919943" lon="7.870271"><ele>412.6</ele></trkpt>
<trkpt lat="47.919532" lon="7.870898"><ele>412.9</ele></trkpt>
<trkpt lat="47.919123" lon="7.871501"><ele>413.2</ele></trkpt>
<trkpt lat="47.918716" lon="7.872081"><ele>413.7</ele></trkpt>
<trkpt lat="47.918310" lon="7.872637"><ele>414.1</ele></trkpt>
<trkpt lat="47.917905" lon="7.873169"><ele>414.6</ele></trkpt>
<trkpt lat="47.917501" lon="7.873677"><ele>415.2</ele></trkpt>
<trkpt lat="47.917098" lon="7.874160"><ele>415.7</ele></trkpt>
<trkpt lat="47.916694" lon="7.874618"><ele>416.4</ele></trkpt>
<trkpt lat="47.916290" lon="7.875053"><ele>417.0</ele></trkpt>
<trkpt lat="47.915886" lon="7.875463"><ele>417.7</ele></trkpt>
<trkpt lat="47.915482" lon="7.875849"><ele>418.4</ele></trkpt>
<trkpt lat="47.915076" lon="7.876212"><ele>419.1</ele></trkpt>
<trkpt lat="47.914670" lon="7.876552"><ele>419.8</ele></trkpt>
<trkpt lat="47.914262" lon="7.876870"><ele>420.5</ele></trkpt>
<trkpt lat="47.913853" lon="7.877166"><ele>421.2</ele></trkpt>
<trkpt lat="47.913442" lon="7.877440"><ele>421.9</ele></trkpt>
<trkpt lat="47.913029" lon="7.877694"><ele>422.6</ele></trkpt>
<trkpt lat="47.912614" lon="7.877928"><ele>423.3</ele></trkpt>
<trkpt lat="47.912198" lon="7.878143"><ele>423.9</ele></trkpt>
<trkpt lat="47.911779" lon="7.878341"><ele>424.5</ele></trkpt>
<trkpt lat="47.911358" lon="7.878521"><ele>425.1</ele></trkpt>
<trkpt lat="47.910935" lon="7.878686"><ele>425.6</ele></trkpt>
<trkpt lat="47.910509" lon="7.878836"><ele>426.1</ele></trkpt>
<trkpt lat="47.910082" lon="7.878972"><ele>426.5</ele></trkpt>
<trkpt lat="47.909652" lon="7.879095"><ele>426.9</ele></trkpt>
<trkpt lat="47.909219" lon="7.879208"><ele>427.2</ele></trkpt>
<trkpt lat="47.908785" lon="7.879310"><ele>427.5</ele></trkpt>
<trkpt lat="47.908349" lon="7.879403"><ele>427.7</ele></trkpt>
<trkpt lat="47.907910" lon="7.879489"><ele>427.9</ele></trkpt>
<trkpt lat="47.907470" lon="7.879568"><ele>428.0</ele></trkpt>
<trkpt lat="47.907028" lon="7.879643"><ele>428.0</ele></trkpt>
<trkpt lat="47.906585" lon="7.879714"><ele>428.0</ele></trkpt>
<trkpt lat="47.906140" lon="7.879782"><ele>427.9</ele></trkpt>
<trkpt lat="47.905694" lon="7.879850"><ele>427.7</ele></trkpt>
<trkpt lat="47.905247" lon="7.879917"><ele>427.5</ele></trkpt>
<trkpt lat="47.904800" lon="7.879987"><ele>427.2</ele></trkpt>
<trkpt lat="47.904352" lon="7.880059"><ele>426.9</ele></trkpt>
<trkpt lat="47.903904" lon="7.880135"><ele>426.5</ele></trkpt>
<trkpt lat="47.903457" lon="7.880216"><ele>426.0</ele></trkpt>
<trkpt lat="47.903010" lon="7.880304"><ele>425.5</ele></trkpt>
<trkpt lat="47.902563" lon="7.880400"><ele>425.0</ele></trkpt>
<trkpt lat="47.902118" lon="7.880504"><ele>424.4</ele></trkpt>
<trkpt lat="47.901674" lon="7.880619"><ele>423.8</ele></trkpt>
<trkpt lat="47.901232" lon="7.880744"><ele>423.2</ele></trkpt>
<trkpt lat="47.900792" lon="7.880881"><ele>422.5</ele></trkpt>
<trkpt lat="47.900355" lon="7.881030"><ele>421.8</ele></trkpt>
<trkpt lat="47.899920" lon="7.881194"><ele>421.1</ele></trkpt>
<trkpt lat="47.899488" lon="7.881371"><ele>420.4</ele></trkpt>
<trkpt lat="47.899060" lon="7.881564"><ele>419.7</ele></trkpt>
<trkpt lat="47.898636" lon="7.881773"><ele>419.0</ele></trkpt>
<trkpt lat="47.898216" lon="7.881998"><ele>418.3</ele></trkpt>
<trkpt lat="47.897800" lon="7.882241"><ele>417.6</ele></trkpt>
<trkpt lat="47.897389" lon="7.882500"><ele>416.9</ele></trkpt>
<trkpt lat="47.896983" lon="7.882778"><ele>416.3</ele></trkpt>
<trkpt lat="47.896583" lon="7.883073"><ele>415.7</ele></trkpt>
<trkpt lat="47.896188" lon="7.883387"><ele>415.1</ele></trkpt>
<trkpt lat="47.895799" lon="7.883720"><ele>414.6</ele></trkpt>
<trkpt lat="47.895416" lon="7.884071"><ele>414.1</ele></trkpt>
<trkpt lat="47.895040" lon="7.884441"><ele>413.6</ele></trkpt>
<trkpt lat="47.894669" lon="7.884830"><ele>413.2</ele></trkpt>
<trkpt lat="47.894306" lon="7.885237"><ele>412.9</ele></trkpt>
<trkpt lat="47.893950" lon="7.885662"><ele>412.6</ele></trkpt>
<trkpt lat="47.893600" lon="7.886105"><ele>412.3</ele></trkpt>
<trkpt lat="47.893258" lon="7.886566"><ele>412.2</ele></trkpt>
<trkpt lat="47.892922" lon="7.887044"><ele>412.0</ele></trkpt>
<trkpt lat="47.892594" lon="7.887539"><ele>412.0</ele></trkpt>
<trkpt lat="47.892273" lon="7.888050"><ele>412.0</ele></trkpt>
<trkpt lat="47.891960" lon="7.888576"><ele>412.1</ele></trkpt>
<trkpt lat="47.891653" lon="7.889117"><ele>412.2</ele></trkpt>
<trkpt lat="47.891354" lon="7.889672"><ele>412.4</ele></trkpt>
<trkpt lat="47.891061" lon="7.890241"><ele>412.7</ele></trkpt>
<trkpt lat="47.890775" lon="7.890822"><ele>413.0</ele></trkpt>
<trkpt lat="47.890496" lon="7.891414"><ele>413.4</ele></trkpt>
<trkpt lat="47.890224" lon="7.892017"><ele>413.8</ele></trkpt>
<trkpt lat="47.889958" lon="7.892630"><ele>414.3</ele></trkpt>
<trkpt lat="47.889697" lon="7.893251"><ele>414.8</ele></trkpt>
<trkpt lat="47.889443" lon="7.893880"><ele>415.4</ele></trkpt>
<trkpt lat="47.889193" lon="7.894515"><ele>416.0</ele></trkpt>
<trkpt lat="47.888949" lon="7.895155"><ele>416.6</ele></trkpt>
<trkpt lat="47.888709" lon="7.895799"><ele>417.3</ele></trkpt>
<trkpt lat="47.888474" lon="7.896446"><ele>418.0</ele></trkpt>
<trkpt lat="47.888242" lon="7.897095"><ele>418.7</ele></trkpt>
<trkpt lat="47.888014" lon="7.897745"><ele>419.4</ele></trkpt>
<trkpt lat="47.887789" lon="7.898394"><ele>420.1</ele></trkpt>
<trkpt lat="47.887566" lon="7.899041"><ele>420.8</ele></trkpt>
<trkpt lat="47.887345" lon="7.899686"><ele>421.5</ele></trkpt>
<trkpt lat="47.887125" lon="7.900326"><ele>422.2</ele></trkpt>
<trkpt lat="47.886905" lon="7.900961"><ele>422.9</ele></trkpt>
<trkpt lat="47.886686" lon="7.901590"><ele>423.5</ele></trkpt>
<trkpt lat="47.886467" lon="7.902211"><ele>424.1</ele></trkpt>
<trkpt lat="47.886247" lon="7.902823"><ele>424.7</ele></trkpt>
<trkpt lat="47.886024" lon="7.903426"><ele>425.3</ele></trkpt>
<trkpt lat="47.885800" lon="7.904018"><ele>425.8</ele></trkpt>
<trkpt lat="47.885573" lon="7.904599"><ele>426.3</ele></trkpt>
<trkpt lat="47.885342" lon="7.905167"><ele>426.7</ele></trkpt>
<trkpt lat="47.885107" lon="7.905721"><ele>427.1</ele></trkpt>
<trkpt lat="47.884867" lon="7.906261"><ele>427.4</ele></trkpt>
<trkpt lat="47.884622" lon="7.906786"><ele>427.6</ele></trkpt>
<trkpt lat="47.884371" lon="7.907295"><ele>427.8</ele></trkpt>
<trkpt lat="47.884113" lon="7.907787"><ele>427.9</ele></trkpt>
<trkpt lat="47.883848" lon="7.908262"><ele>428.0</ele></trkpt>
<trkpt lat="47.883576" lon="7.908719"><ele>428.0</ele></trkpt>
<trkpt lat="47.883295" lon="7.909158"><ele>427.9</ele></trkpt>
<trkpt lat="47.883004" lon="7.909578"><ele>427.8</ele></trkpt>
<trkpt lat="47.882705" lon="7.909979"><ele>427.6</ele></trkpt>
<trkpt lat="47.882395" lon="7.910360"><ele>427.4</ele></trkpt>
<trkpt lat="47.882075" lon="7.910722"><ele>427.1</ele></trkpt>
<trkpt lat="47.881744" lon="7.911064"><ele>426.7</ele></trkpt>
<trkpt lat="47.881402" lon="7.911385"><ele>426.3</ele></trkpt>
<trkpt lat="47.881048" lon="7.911687"><ele>425.8</ele></trkpt>
<trkpt lat="47.880682" lon="7.911969"><ele>425.3</ele></trkpt>
<trkpt lat="47.880303" lon="7.912231"><ele>424.8</ele></trkpt>
<trkpt lat="47.879911" lon="7.912473"><ele>424.2</ele></trkpt>
<trkpt lat="47.879507" lon="7.912696"><ele>423.6</ele></trkpt>
<trkpt lat="47.879089" lon="7.912900"><ele>422.9</ele></trkpt>
<trkpt lat="47.878658" lon="7.913085"><ele>422.2</ele></trkpt>
<trkpt lat="47.878213" lon="7.913251"><ele>421.5</ele></trkpt>
<trkpt lat="47.877754" lon="7.913400"><ele>420.8</ele></trkpt>
<trkpt lat="47.877281" lon="7.913531"><ele>420.1</ele></trkpt>
<trkpt lat="47.876795" lon="7.913646"><ele>419.4</ele></trkpt>
<trkpt lat="47.876294" lon="7.913745"><ele>418.7</ele></trkpt>
<trkpt lat="47.875780" lon="7.913829"><ele>418.0</ele></trkpt>
<trkpt lat="47.875253" lon="7.913898"><ele>417.3</ele></trkpt>
<trkpt lat="47.874711" lon="7.913953"><ele>416.7</ele></trkpt>
<trkpt lat="47.874157" lon="7.913996"><ele>416.0</ele></trkpt>
<trkpt lat="47.873589" lon="7.914027"><ele>415.4</ele></trkpt>
<trkpt lat="47.873008" lon="7.914047"><ele>414.9</ele></trkpt>
<trkpt lat="47.872415" lon="7.914057"><ele>414.3</ele></trkpt>
<trkpt lat="47.871810" lon="7.914058"><ele>413.9</ele></trkpt>
<trkpt lat="47.871192" lon="7.914052"><ele>413.4</ele></trkpt>
<trkpt lat="47.870564" lon="7.914038"><ele>413.1</ele></trkpt>
<trkpt lat="47.869924" lon="7.914019"><ele>412.7</ele></trkpt>
<trkpt lat="47.869275" lon="7.913996"><ele>412.5</ele></trkpt>
<trkpt lat="47.868615" lon="7.913969"><ele>412.3</ele></trkpt>
<trkpt lat="47.867946" lon="7.913939"><ele>412.1</ele></trkpt>
<trkpt lat="47.867269" lon="7.913909"><ele>412.0</ele></trkpt>
<trkpt lat="47.866583" lon="7.913879"><ele>412.0</ele></trkpt>
<trkpt lat="47.865891" lon="7.913849"><ele>412.0</ele></trkpt>
<trkpt lat="47.865191" lon="7.913822"><ele>412.1</ele></trkpt>
<trkpt lat="47.864486" lon="7.913798"><ele>412.5</ele></trkpt>
<trkpt lat="47.863776" lon="7.913779"><ele>414.6</ele></trkpt>
<trkpt lat="47.863061" lon="7.913766"><ele>417.8</ele></trkpt>
<trkpt lat="47.862342" lon="7.913758"><ele>422.0</ele></trkpt>
<trkpt lat="47.861621" lon="7.913759"><ele>426.8</ele></trkpt>
<trkpt lat="47.860898" lon="7.913768"><ele>432.2</ele></trkpt>
<trkpt lat="47.860173" lon="7.913787"><ele>438.2</ele></trkpt>
<trkpt lat="47.859448" lon="7.913817"><ele>444.6</ele></trkpt>
<trkpt lat="47.858724" lon="7.913858"><ele>451.5</ele></trkpt>
<trkpt lat="47.858000" lon="7.913911"><ele>458.9</ele></trkpt>
<trkpt lat="47.857279" lon="7.913978"><ele>466.6</ele></trkpt>
<trkpt lat="47.856560" lon="7.914059"><ele>474.7</ele></trkpt>
<trkpt lat="47.855846" lon="7.914154"><ele>483.1</ele></trkpt>
<trkpt lat="47.855135" lon="7.914265"><ele>491.8</ele></trkpt>
<trkpt lat="47.854430" lon="7.914392"><ele>500.8</ele></trkpt>
<trkpt lat="47.853731" lon="7.914536"><ele>510.1</ele></trkpt>
<trkpt lat="47.853038" lon="7.914696"><ele>519.6</ele></trkpt>
<trkpt lat="47.852353" lon="7.914875"><ele>529.3</ele></trkpt>
<trkpt lat="47.851677" lon="7.915072"><ele>539.3</ele></trkpt>
<trkpt lat="47.851009" lon="7.915287"><ele>549.4</ele></trkpt>
<trkpt lat="47.850350" lon="7.915521"><ele>559.7</ele></trkpt>
<trkpt lat="47.849702" lon="7.915774"><ele>570.1</ele></trkpt>
<trkpt lat="47.849064" lon="7.916046"><ele>580.7</ele></trkpt>
<trkpt lat="47.848437" lon="7.916338"><ele>591.4</ele></trkpt>
<trkpt lat="47.847822" lon="7.916649"><ele>602.3</ele></trkpt>
<trkpt lat="47.847219" lon="7.916980"><ele>613.2</ele></trkpt>
<trkpt lat="47.846629" lon="7.917331"><ele>624.2</ele></trkpt>
<trkpt lat="47.846051" lon="7.917700"><ele>635.2</ele></trkpt>
<trkpt lat="47.845487" lon="7.918090"><ele>646.3</ele></trkpt>
<trkpt lat="47.844937" lon="7.918498"><ele>657.5</ele></trkpt>
<trkpt lat="47.844400" lon="7.918925"><ele>668.6</ele></trkpt>
<trkpt lat="47.843878" lon="7.919371"><ele>679.8</ele></trkpt>
<trkpt lat="47.843369" lon="7.919835"><ele>691.0</ele></trkpt>
<trkpt lat="47.842875" lon="7.920318"><ele>702.2</ele></trkpt>
<trkpt lat="47.842395" lon="7.920817"><ele>713.4</ele></trkpt>
<trkpt lat="47.841930" lon="7.921334"><ele>724.6</ele></trkpt>
<trkpt lat="47.841478" lon="7.921868"><ele>735.7</ele></trkpt>
<trkpt lat="47.841041" lon="7.922418"><ele>746.8</ele></trkpt>
<trkpt lat="47.840618" lon="7.922983"><ele>757.9</ele></trkpt>
<trkpt lat="47.840209" lon="7.923563"><ele>768.9</ele></trkpt>
<trkpt lat="47.839814" lon="7.924158"><ele>779.9</ele></trkpt>
<trkpt lat="47.839432" lon="7.924766"><ele>790.8</ele></trkpt>
<trkpt lat="47.839063" lon="7.925388"><ele>801.6</ele></trkpt>
<trkpt lat="47.838706" lon="7.926022"><ele>812.4</ele></trkpt>
<trkpt lat="47.838362" lon="7.926667"><ele>823.1</ele></trkpt>
<trkpt lat="47.838030" lon="7.927324"><ele>833.7</ele></trkpt>
<trkpt lat="47.837709" lon="7.927991"><ele>844.3</ele></trkpt>
<trkpt lat="47.837398" lon="7.928668"><ele>854.8</ele></trkpt>
<trkpt lat="47.837098" lon="7.929354"><ele>865.2</ele></trkpt>
<trkpt lat="47.836808" lon="7.930048"><ele>875.5</ele></trkpt>
<trkpt lat="47.836526" lon="7.930749"><ele>885.8</ele></trkpt>
<trkpt lat="47.836253" lon="7.931458"><ele>895.9</ele></trkpt>
<trkpt lat="47.835988" lon="7.932172"><ele>906.0</ele></trkpt>
<trkpt lat="47.835729" lon="7.932892"><ele>916.0</ele></trkpt>
<trkpt lat="47.835477" lon="7.933617"><ele>925.9</ele></trkpt>
<trkpt lat="47.835230" lon="7.934346"><ele>935.7</ele></trkpt>
<trkpt lat="47.834988" lon="7.935078"><ele>945.4</ele></trkpt>
<trkpt lat="47.834749" lon="7.935814"><ele>955.0</ele></trkpt>
<trkpt lat="47.834514" lon="7.936551"><ele>964.5</ele></trkpt>
<trkpt lat="47.834281" lon="7.937291"><ele>973.9</ele></trkpt>
<trkpt lat="47.834050" lon="7.938032"><ele>983.2</ele></trkpt>
<trkpt lat="47.833820" lon="7.938773"><ele>992.4</ele></trkpt>
<trkpt lat="47.833590" lon="7.939515"><ele>1001.5</ele></trkpt>
<trkpt lat="47.833359" lon="7.940257"><ele>1010.4</ele></trkpt>
<trkpt lat="47.833126" lon="7.940998"><ele>1019.3</ele></trkpt>
<trkpt lat="47.832891" lon="7.941738"><ele>1028.0</ele></trkpt>
<trkpt lat="47.832653" lon="7.942477"><ele>1036.7</ele></trkpt>
<trkpt lat="47.832412" lon="7.943215"><ele>1045.1</ele></trkpt>
<trkpt lat="47.832166" lon="7.943951"><ele>1053.5</ele></trkpt>
<trkpt lat="47.831915" lon="7.944685"><ele>1061.7</ele></trkpt>
<trkpt lat="47.831658" lon="7.945416"><ele>1069.8</ele></trkpt>
<trkpt lat="47.831394" lon="7.946146"><ele>1077.7</ele></trkpt>
<trkpt lat="47.831124" lon="7.946873"><ele>1085.5</ele></trkpt>
<trkpt lat="47.830847" lon="7.947597"><ele>1093.1</ele></trkpt>
<trkpt lat="47.830561" lon="7.948319"><ele>1100.5</ele></trkpt>
<trkpt lat="47.830267" lon="7.949038"><ele>1107.7</ele></trkpt>
<trkpt lat="47.829964" lon="7.949755"><ele>1114.8</ele></trkpt>
<trkpt lat="47.829652" lon="7.950470"><ele>1121.7</ele></trkpt>
<trkpt lat="47.829330" lon="7.951182"><ele>1128.3</ele></trkpt>
<trkpt lat="47.828999" lon="7.951893"><ele>1134.8</ele></trkpt>
<trkpt lat="47.828657" lon="7.952601"><ele>1141.0</ele></trkpt>
<trkpt lat="47.828305" lon="7.953308"><ele>1147.1</ele></trkpt>
<trkpt lat="47.827942" lon="7.954013"><ele>1152.8</ele></trkpt>
<trkpt lat="47.827569" lon="7.954717"><ele>1158.4</ele></trkpt>
<trkpt lat="47.827186" lon="7.955420"><ele>1163.7</ele></trkpt>
<trkpt lat="47.826791" lon="7.956122"><ele>1168.7</ele></trkpt>
<trkpt lat="47.826387" lon="7.956824"><ele>1173.4</ele></trkpt>
<trkpt lat="47.825972" lon="7.957527"><ele>1177.9</ele></trkpt>
<trkpt lat="47.825547" lon="7.958229"><ele>1182.1</ele></trkpt>
<trkpt lat="47.825112" lon="7.958932"><ele>1186.0</ele></trkpt>
<trkpt lat="47.824667" lon="7.959637"><ele>1189.6</ele></trkpt>
<trkpt lat="47.824214" lon="7.960343"><ele>1192.9</ele></trkpt>
<trkpt lat="47.823751" lon="7.961051"><ele>1195.9</ele></trkpt>
<trkpt lat="47.823280" lon="7.961762"><ele>1198.5</ele></trkpt>
<trkpt lat="47.822801" lon="7.962475"><ele>1200.9</ele></trkpt>
<trkpt lat="47.822314" lon="7.963191"><ele>1202.9</ele></trkpt>
<trkpt lat="47.821821" lon="7.963911"><ele>1204.5</ele></trkpt>
<trkpt lat="47.821322" lon="7.964635"><ele>1205.9</ele></trkpt>
<trkpt lat="47.820817" lon="7.965364"><ele>1206.8</ele></trkpt>
<trkpt lat="47.820308" lon="7.966097"><ele>1207.5</ele></trkpt>
<trkpt lat="47.819794" lon="7.966836"><ele>1207.8</ele></trkpt>
<trkpt lat="47.819277" lon="7.967580"><ele>1207.7</ele></trkpt>
<trkpt lat="47.818758" lon="7.968329"><ele>1207.3</ele></trkpt>
<trkpt lat="47.818238" lon="7.969086"><ele>1206.5</ele></trkpt>
<trkpt lat="47.817717" lon="7.969848"><ele>1205.4</ele></trkpt>
<trkpt lat="47.817196" lon="7.970617"><ele>1203.9</ele></trkpt>
<trkpt lat="47.816677" lon="7.971394"><ele>1202.1</ele></trkpt>
<trkpt lat="47.816159" lon="7.972178"><ele>1200.0</ele></trkpt>
<trkpt lat="47.815645" lon="7.972969"><ele>1197.5</ele></trkpt>
<trkpt lat="47.815135" lon="7.973768"><ele>1194.6</ele></trkpt>
<trkpt lat="47.814631" lon="7.974574"><ele>1191.4</ele></trkpt>
<trkpt lat="47.814132" lon="7.975389"><ele>1187.9</ele></trkpt>
<trkpt lat="47.813641" lon="7.976212"><ele>1184.1</ele></trkpt>
<trkpt lat="47.813158" lon="7.977042"><ele>1180.0</ele></trkpt>
<trkpt lat="47.812685" lon="7.977881"><ele>1175.5</ele></trkpt>
<trkpt lat="47.812221" lon="7.978728"><ele>1170.7</ele></trkpt>
<trkpt lat="47.811769" lon="7.979584"><ele>1165.7</ele></trkpt>
<trkpt lat="47.811329" lon="7.980447"><ele>1160.3</ele></trkpt>
<trkpt lat="47.810902" lon="7.981318"><ele>1154.7</ele></trkpt>
<trkpt lat="47.810490" lon="7.982197"><ele>1148.8</ele></trkpt>
<trkpt lat="47.810092" lon="7.983084"><ele>1142.6</ele></trkpt>
<trkpt lat="47.809710" lon="7.983978"><ele>1136.2</ele></trkpt>
<trkpt lat="47.809345" lon="7.984879"><ele>1129.5</ele></trkpt>
<trkpt lat="47.808998" lon="7.985787"><ele>1122.6</ele></trkpt>
<trkpt lat="47.808669" lon="7.986702"><ele>1115.5</ele></trkpt>
<trkpt lat="47.808360" lon="7.987624"><ele>1108.1</ele></trkpt>
<trkpt lat="47.808070" lon="7.988551"><ele>1100.5</ele></trkpt>
<trkpt lat="47.807801" lon="7.989484"><ele>1092.8</ele></trkpt>
<trkpt lat="47.807553" lon="7.990423"><ele>1084.8</ele></trkpt>
<trkpt lat="47.807327" lon="7.991366"><ele>1076.7</ele></trkpt>
<trkpt lat="47.807123" lon="7.992314"><ele>1068.4</ele></trkpt>
<trkpt lat="47.806942" lon="7.993266"><ele>1059.9</ele></trkpt>
<trkpt lat="47.806784" lon="7.994221"><ele>1051.3</ele></trkpt>
<trkpt lat="47.806650" lon="7.995179"><ele>1042.6</ele></trkpt>
<trkpt lat="47.806540" lon="7.996140"><ele>1033.7</ele></trkpt>
<trkpt lat="47.806454" lon="7.997103"><ele>1024.6</ele></trkpt>
<trkpt lat="47.806393" lon="7.998068"><ele>1015.5</ele></trkpt>
<trkpt lat="47.806356" lon="7.999034"><ele>1006.2</ele></trkpt>
<trkpt lat="47.806343" lon="8.000000"><ele>996.8</ele></trkpt>
</trkseg></trk>
</gpx>
